{"type":"FeatureCollection","source":"국토교통부 공역정보 KMZ","cycle":"AIP 2026년 10차","features":[{"type":"Feature","properties":{"ident":"RK A18","name":"GANGNEUNG","type":"Alert Area","airspaceClass":null,"upper":"FL 150","upperFt":15000,"upperRef":"FL","lower":"SFC","lowerFt":0,"lowerRef":"SFC","remarks":"Alert","category":"경계구역","source":"국토교통부 공역정보 KMZ","cycle":"AIP 2026년 10차"},"geometry":{"type":"MultiPolygon","coordinates":[[[[128.95,37.833429],[128.947729,37.833409],[128.945459,37.833351],[128.943191,37.833254],[128.940926,37.833117],[128.938666,37.832943],[128.936411,37.832729],[128.934162,37.832477],[128.93192,37.832186],[128.929687,37.831857],[128.927464,37.831489],[128.925251,37.831084],[128.92305,37.830641],[128.920861,37.83016],[128.918686,37.829642],[128.916526,37.829087],[128.914381,37.828494],[128.912253,37.827865],[128.910142,37.8272],[128.90805,37.826499],[128.905978,37.825762],[128.903927,37.824989],[128.901896,37.824182],[128.899889,37.82334],[128.897905,37.822464],[128.895945,37.821554],[128.89401,37.820611],[128.892102,37.819635],[128.890221,37.818626],[128.888367,37.817585],[128.886543,37.816513],[128.884748,37.815409],[128.882984,37.814275],[128.881251,37.813112],[128.87955,37.811918],[128.877882,37.810696],[128.876248,37.809446],[128.874648,37.808168],[128.873083,37.806862],[128.871554,37.80553],[128.870062,37.804173],[128.868608,37.80279],[128.867191,37.801382],[128.865813,37.799951],[128.864474,37.798496],[128.863176,37.797018],[128.861918,37.795519],[128.860701,37.793998],[128.859525,37.792457],[128.858392,37.790896],[128.857302,37.789316],[128.856255,37.787718],[128.855252,37.786102],[128.854293,37.78447],[128.853378,37.782821],[128.852509,37.781157],[128.851686,37.779478],[128.850908,37.777786],[128.850177,37.776081],[128.849491,37.774364],[128.848853,37.772635],[128.848262,37.770896],[128.847719,37.769147],[128.847223,37.767389],[128.846775,37.765623],[128.846376,37.76385],[128.846025,37.76207],[128.845722,37.760285],[128.845468,37.758495],[128.845262,37.756701],[128.845106,37.754904],[128.844999,37.753105],[128.844939,37.751304],[128.84493,37.749503],[128.844969,37.747701],[128.845057,37.745902],[128.845194,37.744103],[128.84538,37.742308],[128.845615,37.740516],[128.845899,37.738729],[128.84623,37.736947],[128.846611,37.735171],[128.847039,37.733402],[128.847515,37.731641],[128.84804,37.729889],[128.848611,37.728145],[128.849231,37.726412],[128.849896,37.724691],[128.850608,37.72298],[128.851367,37.721283],[128.852172,37.719599],[128.853022,37.717929],[128.853917,37.716274],[128.854858,37.714634],[128.855841,37.713012],[128.85687,37.711406],[128.857941,37.709818],[128.859056,37.70825],[128.860212,37.7067],[128.861411,37.705171],[128.862651,37.703663],[128.863931,37.702176],[128.865251,37.700712],[128.866611,37.699271],[128.86801,37.697853],[128.869447,37.69646],[128.870921,37.695091],[128.872432,37.693748],[128.873979,37.692432],[128.875561,37.691142],[128.877178,37.689879],[128.878829,37.688645],[128.880513,37.687439],[128.882229,37.686263],[128.883977,37.685116],[128.885756,37.683999],[128.887564,37.682913],[128.889402,37.681858],[128.891267,37.680835],[128.89316,37.679844],[128.89508,37.678886],[128.897025,37.677961],[128.898994,37.67707],[128.900987,37.676213],[128.903004,37.67539],[128.905041,37.674601],[128.9071,37.673848],[128.909178,37.67313],[128.911277,37.672449],[128.913392,37.671803],[128.915524,37.671193],[128.917674,37.670621],[128.919837,37.670085],[128.922014,37.669587],[128.924205,37.669125],[128.926408,37.668702],[128.928622,37.668317],[128.930845,37.667969],[128.933078,37.66766],[128.935318,37.667389],[128.937565,37.667156],[128.939818,37.666963],[128.942076,37.666807],[128.944337,37.666691],[128.946601,37.666613],[128.948867,37.666574],[128.951133,37.666574],[128.953398,37.666613],[128.955662,37.666691],[128.957924,37.666807],[128.960182,37.666963],[128.962435,37.667156],[128.964682,37.667389],[128.966922,37.66766],[128.969154,37.667969],[128.971378,37.668317],[128.973592,37.668702],[128.975794,37.669125],[128.977985,37.669587],[128.980163,37.670085],[128.982326,37.670621],[128.984475,37.671193],[128.986608,37.671803],[128.988723,37.672449],[128.990821,37.67313],[128.9929,37.673848],[128.994958,37.674601],[128.996996,37.67539],[128.999012,37.676213],[129.001005,37.67707],[129.002975,37.677961],[129.00492,37.678886],[129.00684,37.679844],[129.008733,37.680835],[129.010598,37.681858],[129.012435,37.682913],[129.014244,37.683999],[129.016022,37.685116],[129.017771,37.686263],[129.019486,37.687439],[129.02117,37.688645],[129.022821,37.689879],[129.024439,37.691142],[129.026021,37.692432],[129.027568,37.693748],[129.029079,37.695091],[129.030553,37.69646],[129.03199,37.697853],[129.033389,37.699271],[129.034749,37.700712],[129.036069,37.702176],[129.037349,37.703663],[129.038589,37.705171],[129.039787,37.7067],[129.040944,37.70825],[129.042058,37.709818],[129.04313,37.711406],[129.044159,37.713012],[129.045142,37.714634],[129.046082,37.716274],[129.046978,37.717929],[129.047828,37.719599],[129.048633,37.721283],[129.049392,37.72298],[129.050104,37.724691],[129.050769,37.726412],[129.051388,37.728145],[129.05196,37.729889],[129.052484,37.731641],[129.05296,37.733402],[129.053389,37.735171],[129.053769,37.736947],[129.054101,37.738729],[129.054384,37.740516],[129.054619,37.742308],[129.054805,37.744103],[129.054942,37.745902],[129.055031,37.747701],[129.05507,37.749503],[129.05506,37.751304],[129.055001,37.753105],[129.054894,37.754904],[129.054737,37.756701],[129.054532,37.758495],[129.054278,37.760285],[129.053975,37.76207],[129.053624,37.76385],[129.053224,37.765623],[129.052776,37.767389],[129.052281,37.769147],[129.051737,37.770896],[129.051146,37.772635],[129.050509,37.774364],[129.049823,37.776081],[129.049092,37.777786],[129.048314,37.779478],[129.047491,37.781157],[129.046621,37.782821],[129.045707,37.78447],[129.044748,37.786102],[129.043745,37.787718],[129.042698,37.789316],[129.041607,37.790896],[129.040474,37.792457],[129.039299,37.793998],[129.038082,37.795519],[129.036824,37.797018],[129.035525,37.798496],[129.034187,37.799951],[129.032809,37.801382],[129.031392,37.80279],[129.029937,37.804173],[129.028446,37.80553],[129.026917,37.806862],[129.025352,37.808168],[129.023752,37.809446],[129.022118,37.810696],[129.02045,37.811918],[129.018749,37.813112],[129.017016,37.814275],[129.015252,37.815409],[129.013457,37.816513],[129.011632,37.817585],[129.009779,37.818626],[129.007897,37.819635],[129.005989,37.820611],[129.004055,37.821554],[129.002095,37.822464],[129.000111,37.82334],[128.998104,37.824182],[128.996073,37.824989],[128.994021,37.825762],[128.991949,37.826499],[128.989857,37.8272],[128.987747,37.827865],[128.985619,37.828494],[128.983474,37.829087],[128.981313,37.829642],[128.979139,37.83016],[128.97695,37.830641],[128.974748,37.831084],[128.972536,37.831489],[128.970313,37.831857],[128.968079,37.832186],[128.965838,37.832477],[128.963589,37.832729],[128.961334,37.832943],[128.959073,37.833117],[128.956809,37.833254],[128.954541,37.833351],[128.952271,37.833409],[128.95,37.833429]]]]}},{"type":"Feature","properties":{"ident":"RK A19","name":"JUNGWON","type":"Alert Area","airspaceClass":null,"upper":"FL 150","upperFt":15000,"upperRef":"FL","lower":"SFC","lowerFt":0,"lowerRef":"SFC","remarks":"Alert","category":"경계구역","source":"국토교통부 공역정보 KMZ","cycle":"AIP 2026년 10차"},"geometry":{"type":"MultiPolygon","coordinates":[[[[127.783333,37.05],[127.883333,36.983333],[127.983334,37.066666],[127.883333,37.133333],[127.783333,37.05]]]]}},{"type":"Feature","properties":{"ident":"RK A19T","name":"JUNGWON","type":"Alert Area","airspaceClass":null,"upper":"2 000 AGL","upperFt":2000,"upperRef":"AGL","lower":"800 AGL","lowerFt":800,"lowerRef":"AGL","remarks":"Alert","category":"경계구역","source":"국토교통부 공역정보 KMZ","cycle":"AIP 2026년 10차"},"geometry":{"type":"MultiPolygon","coordinates":[[[[127.633333,37.133333],[127.633333,36.933333],[127.883333,36.933333],[127.883333,36.983333],[127.783333,37.05],[127.883333,37.133333],[127.633333,37.133333]]]]}},{"type":"Feature","properties":{"ident":"RK A2","name":"ASAJN","type":"Alert Area","airspaceClass":null,"upper":"5 000 AMSL","upperFt":5000,"upperRef":"AMSL","lower":"SFC","lowerFt":0,"lowerRef":"SFC","remarks":"Alert","category":"경계구역","source":"국토교통부 공역정보 KMZ","cycle":"AIP 2026년 10차"},"geometry":{"type":"MultiPolygon","coordinates":[[[[126.873056,36.855],[126.901944,36.746389],[127.1325,36.750278],[127.133333,36.854722],[126.873056,36.855]]]]}},{"type":"Feature","properties":{"ident":"RK A20T","name":"SEOSAN","type":"Alert Area","airspaceClass":null,"upper":"2 000 AGL","upperFt":2000,"upperRef":"AGL","lower":"700 AGL","lowerFt":700,"lowerRef":"AGL","remarks":"Alert","category":"경계구역","source":"국토교통부 공역정보 KMZ","cycle":"AIP 2026년 10차"},"geometry":{"type":"MultiPolygon","coordinates":[[[[126.5,37.0],[126.166666,36.725],[126.5,36.4],[126.85,36.5],[126.5,37.0]]]]}},{"type":"Feature","properties":{"ident":"RK A8","name":"IEODO","type":"Alert Area","airspaceClass":null,"upper":"FL 140","upperFt":14000,"upperRef":"FL","lower":"SFC","lowerFt":0,"lowerRef":"SFC","remarks":"Alert","category":"경계구역","source":"국토교통부 공역정보 KMZ","cycle":"AIP 2026년 10차"},"geometry":{"type":"MultiPolygon","coordinates":[[[[124.501389,33.166667],[124.509444,32.106944],[125.678889,32.111111],[125.763333,32.312222],[125.766111,33.167222],[124.501389,33.166667]]]]}},{"type":"Feature","properties":{"ident":"RK A810","name":"HANAM","type":"Alert Area","airspaceClass":null,"upper":"1 000 AGL","upperFt":1000,"upperRef":"AGL","lower":"SFC","lowerFt":0,"lowerRef":"SFC","remarks":"Alert","category":"경계구역","source":"국토교통부 공역정보 KMZ","cycle":"AIP 2026년 10차"},"geometry":{"type":"MultiPolygon","coordinates":[[[[127.232128,37.54106],[127.230612,37.546754],[127.228115,37.552224],[127.224687,37.557364],[127.220392,37.562074],[127.215316,37.566262],[127.209555,37.569847],[127.203224,37.572758],[127.196445,37.574939],[127.18935,37.576348],[127.182078,37.576957],[127.17477,37.576753],[127.167568,37.575742],[127.160614,37.573943],[127.154043,37.57139],[127.147983,37.568134],[127.142551,37.564238],[127.137854,37.559778],[127.133983,37.554841],[127.131013,37.549523],[127.129002,37.543928],[127.127989,37.538164],[127.127993,37.532344],[127.129014,37.526581],[127.131032,37.520988],[127.134007,37.515672],[127.137882,37.510738],[127.14258,37.506281],[127.148011,37.502388],[127.154068,37.499135],[127.160635,37.496585],[127.167582,37.494788],[127.174776,37.493778],[127.182076,37.493575],[127.18934,37.494183],[127.196428,37.49559],[127.203202,37.497769],[127.209528,37.500678],[127.215286,37.504259],[127.220364,37.508444],[127.22466,37.513151],[127.228094,37.518288],[127.230596,37.523756],[127.23212,37.529449],[127.232634,37.535254],[127.232128,37.54106]]]]}},{"type":"Feature","properties":{"ident":"RK A811","name":"BUCHEON","type":"Alert Area","airspaceClass":null,"upper":"1 000 AGL","upperFt":1000,"upperRef":"AGL","lower":"SFC","lowerFt":0,"lowerRef":"SFC","remarks":"Alert","category":"경계구역","source":"국토교통부 공역정보 KMZ","cycle":"AIP 2026년 10차"},"geometry":{"type":"MultiPolygon","coordinates":[[[[126.788674,37.481019],[126.787461,37.485573],[126.785466,37.489949],[126.782724,37.494061],[126.779291,37.497829],[126.775233,37.501179],[126.770628,37.504047],[126.765568,37.506376],[126.760149,37.50812],[126.754478,37.509247],[126.748665,37.509734],[126.742824,37.509572],[126.737069,37.508763],[126.73151,37.507323],[126.726258,37.505281],[126.721413,37.502677],[126.717072,37.49956],[126.713317,37.495993],[126.710222,37.492043],[126.707848,37.487789],[126.706239,37.483313],[126.705429,37.478702],[126.705431,37.474046],[126.706247,37.469435],[126.707859,37.46496],[126.710237,37.460707],[126.713335,37.45676],[126.71709,37.453194],[126.721431,37.45008],[126.726274,37.447477],[126.731523,37.445437],[126.737077,37.443998],[126.742829,37.44319],[126.748664,37.443028],[126.754472,37.443514],[126.760138,37.44464],[126.765553,37.446384],[126.770612,37.448711],[126.775214,37.451576],[126.779273,37.454925],[126.782707,37.458691],[126.785451,37.462801],[126.787452,37.467175],[126.788668,37.471729],[126.789079,37.476374],[126.788674,37.481019]]]]}},{"type":"Feature","properties":{"ident":"RK A9A","name":"IEODO","type":"Alert Area","airspaceClass":null,"upper":"3 000 AMSL","upperFt":3000,"upperRef":"AMSL","lower":"SFC","lowerFt":0,"lowerRef":"SFC","remarks":"Alert","category":"경계구역","source":"국토교통부 공역정보 KMZ","cycle":"AIP 2026년 10차"},"geometry":{"type":"MultiPolygon","coordinates":[[[[124.097778,31.916944],[124.096944,31.083889],[124.886389,31.083889],[124.885278,31.916944],[124.097778,31.916944]]]]}},{"type":"Feature","properties":{"ident":"RK A9B","name":"IEODO","type":"Alert Area","airspaceClass":null,"upper":"3 000 AMSL","upperFt":3000,"upperRef":"AMSL","lower":"SFC","lowerFt":0,"lowerRef":"SFC","remarks":"Alert","category":"경계구역","source":"국토교통부 공역정보 KMZ","cycle":"AIP 2026년 10차"},"geometry":{"type":"MultiPolygon","coordinates":[[[[124.096944,30.916944],[124.096111,30.083889],[124.888056,30.083889],[124.886667,30.916944],[124.096944,30.916944]]]]}}]}
