{"type":"FeatureCollection","source":"국토교통부 공역정보 KMZ","cycle":"AIP 2026년 10차","features":[{"type":"Feature","properties":{"ident":"ATZ Chuncheon","name":"Chuncheon","type":"ATZ","airspaceClass":null,"upper":"1 500 AGL","upperFt":1500,"upperRef":"AGL","lower":"SFC","lowerFt":0,"lowerRef":"SFC","remarks":"Aerodrome Traffic Zone","category":"비행장교통구역","source":"국토교통부 공역정보 KMZ","cycle":"AIP 2026년 10차"},"geometry":{"type":"MultiPolygon","coordinates":[[[[127.712314,37.964394],[127.710746,37.963094],[127.709239,37.961751],[127.707793,37.960366],[127.706411,37.95894],[127.705094,37.957476],[127.703845,37.955976],[127.702664,37.954441],[127.701554,37.952874],[127.700516,37.951275],[127.699551,37.949649],[127.69866,37.947996],[127.697845,37.946319],[127.697107,37.94462],[127.696446,37.9429],[127.695863,37.941163],[127.69536,37.939411],[127.694936,37.937646],[127.694592,37.935869],[127.69433,37.934084],[127.694148,37.932293],[127.694048,37.930497],[127.694029,37.9287],[127.694092,37.926904],[127.694236,37.92511],[127.694461,37.923322],[127.694767,37.921542],[127.695153,37.919771],[127.69562,37.918012],[127.696166,37.916268],[127.69679,37.91454],[127.697493,37.912831],[127.698272,37.911143],[127.699127,37.909479],[127.700057,37.90784],[127.701061,37.906228],[127.702137,37.904646],[127.703284,37.903096],[127.7045,37.901579],[127.705784,37.900098],[127.707135,37.898654],[127.70855,37.897249],[127.710027,37.895886],[127.711566,37.894566],[127.713163,37.89329],[127.714817,37.89206],[127.716525,37.890878],[127.718286,37.889746],[127.720097,37.888664],[127.721956,37.887635],[127.72386,37.886659],[127.725807,37.885738],[127.727794,37.884872],[127.729819,37.884064],[127.73188,37.883314],[127.733973,37.882623],[127.736096,37.881992],[127.738246,37.881422],[127.740421,37.880913],[127.742617,37.880466],[127.744832,37.880082],[127.747063,37.879762],[127.749307,37.879505],[127.751561,37.879312],[127.753823,37.879183],[127.756089,37.879118],[127.758356,37.879118],[127.760622,37.879183],[127.762883,37.879312],[127.765137,37.879505],[127.767381,37.879762],[127.769612,37.880082],[127.771827,37.880466],[127.774024,37.880913],[127.776198,37.881422],[127.778349,37.881992],[127.780472,37.882623],[127.782565,37.883314],[127.783333,37.883594],[127.784625,37.884064],[127.78665,37.884872],[127.788638,37.885738],[127.790585,37.886659],[127.792489,37.887635],[127.794348,37.888664],[127.796158,37.889746],[127.797919,37.890878],[127.799628,37.89206],[127.801281,37.89329],[127.802879,37.894566],[127.804417,37.895886],[127.805895,37.897249],[127.80731,37.898654],[127.80866,37.900098],[127.809944,37.901579],[127.811161,37.903096],[127.812308,37.904646],[127.813384,37.906228],[127.814387,37.90784],[127.815317,37.909479],[127.816172,37.911143],[127.816952,37.912831],[127.817654,37.91454],[127.818279,37.916268],[127.818825,37.918012],[127.819291,37.919771],[127.819678,37.921542],[127.819984,37.923322],[127.820209,37.92511],[127.820353,37.926904],[127.820415,37.9287],[127.820397,37.930497],[127.820296,37.932293],[127.820115,37.934084],[127.819852,37.935869],[127.819509,37.937646],[127.819085,37.939411],[127.818581,37.941163],[127.817999,37.9429],[127.817338,37.94462],[127.816599,37.946319],[127.815784,37.947996],[127.814894,37.949649],[127.813928,37.951275],[127.81289,37.952874],[127.81178,37.954441],[127.8106,37.955976],[127.809351,37.957476],[127.808034,37.95894],[127.806652,37.960366],[127.805206,37.961751],[127.803698,37.963094],[127.80213,37.964394],[127.800504,37.965648],[127.798823,37.966855],[127.797087,37.968014],[127.7953,37.969122],[127.793464,37.970179],[127.791581,37.971183],[127.789654,37.972133],[127.787685,37.973027],[127.785677,37.973865],[127.783632,37.974645],[127.783333,37.974749],[127.781552,37.975367],[127.779442,37.976029],[127.777302,37.97663],[127.775137,37.977171],[127.772949,37.977649],[127.77074,37.978065],[127.768514,37.978418],[127.766273,37.978707],[127.764021,37.978932],[127.763689,37.978956],[127.731519,37.97489],[127.730813,37.974645],[127.728768,37.973865],[127.726759,37.973027],[127.72479,37.972133],[127.722863,37.971183],[127.72098,37.970179],[127.719144,37.969122],[127.717357,37.968014],[127.715622,37.966855],[127.71394,37.965648],[127.712314,37.964394]]]]}},{"type":"Feature","properties":{"ident":"ATZ Deokso","name":"Deokso","type":"ATZ","airspaceClass":null,"upper":"1 000 AGL","upperFt":1000,"upperRef":"AGL","lower":"SFC","lowerFt":0,"lowerRef":"SFC","remarks":"Aerodrome Traffic Zone","category":"비행장교통구역","source":"국토교통부 공역정보 KMZ","cycle":"AIP 2026년 10차"},"geometry":{"type":"MultiPolygon","coordinates":[[[[127.218889,37.640317],[127.216636,37.640269],[127.21439,37.640125],[127.212157,37.639885],[127.209943,37.63955],[127.207755,37.639121],[127.2056,37.638599],[127.203482,37.637986],[127.201409,37.637283],[127.199387,37.636493],[127.197421,37.635617],[127.195516,37.634659],[127.19368,37.633621],[127.191916,37.632506],[127.19023,37.631318],[127.188626,37.630059],[127.18711,37.628733],[127.185686,37.627344],[127.184357,37.625897],[127.183128,37.624395],[127.182003,37.622843],[127.180983,37.621245],[127.180073,37.619606],[127.179275,37.61793],[127.178592,37.616222],[127.178024,37.614488],[127.177575,37.612732],[127.177244,37.61096],[127.177034,37.609176],[127.176944,37.607385],[127.176975,37.605593],[127.177127,37.603805],[127.1774,37.602027],[127.177792,37.600262],[127.178303,37.598517],[127.17893,37.596796],[127.179673,37.595104],[127.180528,37.593446],[127.181495,37.591828],[127.182569,37.590253],[127.183747,37.588726],[127.185027,37.587251],[127.186405,37.585834],[127.187876,37.584477],[127.189436,37.583185],[127.191081,37.581961],[127.192807,37.58081],[127.194607,37.579734],[127.196477,37.578736],[127.198412,37.57782],[127.200406,37.576987],[127.202453,37.576241],[127.204548,37.575583],[127.206683,37.575016],[127.208854,37.574541],[127.211054,37.574159],[127.213276,37.573872],[127.215515,37.57368],[127.217763,37.573584],[127.220015,37.573584],[127.222263,37.57368],[127.224501,37.573872],[127.226724,37.574159],[127.228923,37.574541],[127.231094,37.575016],[127.23323,37.575583],[127.235324,37.576241],[127.237372,37.576987],[127.239365,37.57782],[127.2413,37.578736],[127.243171,37.579734],[127.244971,37.58081],[127.246696,37.581961],[127.248342,37.583185],[127.249902,37.584477],[127.251373,37.585834],[127.252751,37.587251],[127.25403,37.588726],[127.255209,37.590253],[127.256283,37.591828],[127.257249,37.593446],[127.258105,37.595104],[127.258848,37.596796],[127.259475,37.598517],[127.259986,37.600262],[127.260378,37.602027],[127.26065,37.603805],[127.260802,37.605593],[127.260834,37.607385],[127.260744,37.609176],[127.260534,37.61096],[127.260203,37.612732],[127.259753,37.614488],[127.259186,37.616222],[127.258502,37.61793],[127.257704,37.619606],[127.256794,37.621245],[127.255775,37.622843],[127.254649,37.624395],[127.25342,37.625897],[127.252092,37.627344],[127.250668,37.628733],[127.249151,37.630059],[127.247548,37.631318],[127.245862,37.632506],[127.244098,37.633621],[127.242261,37.634659],[127.240357,37.635617],[127.238391,37.636493],[127.236368,37.637283],[127.234296,37.637986],[127.232178,37.638599],[127.230022,37.639121],[127.227835,37.63955],[127.225621,37.639885],[127.223388,37.640125],[127.221142,37.640269],[127.218889,37.640317]]]]}},{"type":"Feature","properties":{"ident":"ATZ Gapyeong","name":"Gapyeong","type":"ATZ","airspaceClass":null,"upper":"1 500 AGL","upperFt":1500,"upperRef":"AGL","lower":"SFC","lowerFt":0,"lowerRef":"SFC","remarks":"Aerodrome Traffic Zone","category":"비행장교통구역","source":"국토교통부 공역정보 KMZ","cycle":"AIP 2026년 10차"},"geometry":{"type":"MultiPolygon","coordinates":[[[[127.293671,37.808967],[127.29378,37.80761],[127.294005,37.805822],[127.29431,37.804041],[127.294696,37.802271],[127.295162,37.800512],[127.295707,37.798767],[127.296331,37.79704],[127.297032,37.795331],[127.29781,37.793643],[127.298664,37.791979],[127.299592,37.790339],[127.300594,37.788728],[127.301669,37.787146],[127.302814,37.785595],[127.304028,37.784078],[127.30531,37.782597],[127.306659,37.781153],[127.308071,37.779749],[127.309547,37.778386],[127.311083,37.777065],[127.312677,37.775789],[127.314328,37.77456],[127.316034,37.773378],[127.317792,37.772245],[127.3196,37.771164],[127.321456,37.770134],[127.323357,37.769158],[127.325301,37.768237],[127.327285,37.767372],[127.329307,37.766563],[127.331364,37.765813],[127.333454,37.765122],[127.335574,37.764491],[127.337721,37.763921],[127.339892,37.763412],[127.342085,37.762965],[127.344296,37.762581],[127.346523,37.762261],[127.348764,37.762004],[127.351015,37.761811],[127.353273,37.761682],[127.355535,37.761617],[127.357799,37.761617],[127.360061,37.761682],[127.362319,37.761811],[127.364569,37.762004],[127.36681,37.762261],[127.369037,37.762581],[127.371249,37.762965],[127.373442,37.763412],[127.375613,37.763921],[127.37776,37.764491],[127.379879,37.765122],[127.381969,37.765813],[127.384026,37.766563],[127.386048,37.767372],[127.388033,37.768237],[127.389976,37.769158],[127.391877,37.770134],[127.393733,37.771164],[127.395541,37.772245],[127.397299,37.773378],[127.399005,37.77456],[127.400656,37.775789],[127.402251,37.777065],[127.403787,37.778386],[127.405262,37.779749],[127.406675,37.781153],[127.408023,37.782597],[127.409305,37.784078],[127.41052,37.785595],[127.411665,37.787146],[127.412739,37.788728],[127.413741,37.790339],[127.41467,37.791979],[127.415523,37.793643],[127.416302,37.795331],[127.417003,37.79704],[127.417626,37.798767],[127.418171,37.800512],[127.418637,37.802271],[127.419023,37.804041],[127.419328,37.805822],[127.419553,37.80761],[127.419697,37.809404],[127.41976,37.8112],[127.419741,37.812998],[127.419641,37.814793],[127.419459,37.816584],[127.419197,37.818369],[127.418854,37.820146],[127.418431,37.821911],[127.417928,37.823664],[127.417347,37.825401],[127.416687,37.82712],[127.415949,37.828819],[127.415136,37.830496],[127.414246,37.832149],[127.413283,37.833776],[127.412246,37.835374],[127.411138,37.836942],[127.409959,37.838477],[127.408712,37.839977],[127.407398,37.841441],[127.406018,37.842866],[127.404574,37.844252],[127.403069,37.845595],[127.401503,37.846895],[127.39988,37.848149],[127.398201,37.849356],[127.396468,37.850514],[127.394684,37.851623],[127.39445,37.851758],[127.372667,37.842521],[127.315435,37.81822],[127.293671,37.808967]]]]}},{"type":"Feature","properties":{"ident":"ATZ Geumwang","name":"Geumwang","type":"ATZ","airspaceClass":null,"upper":"1 500 AGL","upperFt":1500,"upperRef":"AGL","lower":"SFC","lowerFt":0,"lowerRef":"SFC","remarks":"Aerodrome Traffic Zone","category":"비행장교통구역","source":"국토교통부 공역정보 KMZ","cycle":"AIP 2026년 10차"},"geometry":{"type":"MultiPolygon","coordinates":[[[[127.5625,37.052286],[127.560258,37.052254],[127.558019,37.052157],[127.555785,37.051996],[127.55356,37.05177],[127.551347,37.051481],[127.549148,37.051128],[127.546967,37.050712],[127.544805,37.050234],[127.542667,37.049693],[127.540553,37.049092],[127.538469,37.04843],[127.536415,37.047708],[127.534395,37.046928],[127.532411,37.04609],[127.530466,37.045195],[127.528563,37.044245],[127.526703,37.043241],[127.52489,37.042184],[127.523125,37.041076],[127.521411,37.039917],[127.51975,37.03871],[127.518144,37.037455],[127.516595,37.036156],[127.515106,37.034812],[127.513678,37.033427],[127.512312,37.032001],[127.511012,37.030537],[127.509778,37.029036],[127.508612,37.027501],[127.507516,37.025933],[127.50649,37.024335],[127.505537,37.022708],[127.504657,37.021055],[127.503852,37.019378],[127.503122,37.017678],[127.50247,37.015959],[127.501894,37.014221],[127.501397,37.012469],[127.500978,37.010703],[127.500639,37.008926],[127.500379,37.007141],[127.5002,37.005349],[127.500101,37.003554],[127.500082,37.001756],[127.500144,36.99996],[127.500286,36.998166],[127.500509,36.996377],[127.500811,36.994596],[127.501193,36.992825],[127.501653,36.991066],[127.502192,36.989322],[127.502809,36.987594],[127.503503,36.985885],[127.504273,36.984197],[127.505117,36.982532],[127.506036,36.980892],[127.507027,36.979281],[127.50809,36.977698],[127.509223,36.976148],[127.510424,36.974631],[127.511693,36.973149],[127.513027,36.971705],[127.514424,36.9703],[127.515884,36.968937],[127.517403,36.967616],[127.518981,36.96634],[127.520614,36.96511],[127.522302,36.963928],[127.524041,36.962796],[127.52583,36.961714],[127.527665,36.960684],[127.529546,36.959708],[127.531469,36.958787],[127.533432,36.957921],[127.535433,36.957113],[127.537468,36.956363],[127.539535,36.955671],[127.541632,36.95504],[127.543756,36.95447],[127.545904,36.953961],[127.548074,36.953514],[127.550262,36.95313],[127.552465,36.952809],[127.554682,36.952552],[127.556908,36.952359],[127.559142,36.95223],[127.56138,36.952166],[127.56362,36.952166],[127.565858,36.95223],[127.568092,36.952359],[127.570318,36.952552],[127.572535,36.952809],[127.574738,36.95313],[127.576926,36.953514],[127.579096,36.953961],[127.581244,36.95447],[127.583368,36.95504],[127.585465,36.955671],[127.587532,36.956363],[127.589567,36.957113],[127.591568,36.957921],[127.593531,36.958787],[127.595454,36.959708],[127.597335,36.960684],[127.59917,36.961714],[127.600959,36.962796],[127.602698,36.963928],[127.604386,36.96511],[127.606019,36.96634],[127.607597,36.967616],[127.609116,36.968937],[127.610576,36.9703],[127.611973,36.971705],[127.613307,36.973149],[127.614576,36.974631],[127.615777,36.976148],[127.61691,36.977698],[127.617973,36.979281],[127.618964,36.980892],[127.619883,36.982532],[127.620727,36.984197],[127.621497,36.985885],[127.622191,36.987594],[127.622808,36.989322],[127.623347,36.991066],[127.623807,36.992825],[127.624189,36.994596],[127.624491,36.996377],[127.624714,36.998166],[127.624856,36.99996],[127.624918,37.001756],[127.624899,37.003554],[127.6248,37.005349],[127.624621,37.007141],[127.624361,37.008926],[127.624022,37.010703],[127.623603,37.012469],[127.623106,37.014221],[127.62253,37.015959],[127.621878,37.017678],[127.621148,37.019378],[127.620343,37.021055],[127.619463,37.022708],[127.61851,37.024335],[127.617484,37.025933],[127.616388,37.027501],[127.615222,37.029036],[127.613988,37.030537],[127.612688,37.032001],[127.611322,37.033427],[127.609894,37.034812],[127.608405,37.036156],[127.606856,37.037455],[127.60525,37.03871],[127.603589,37.039917],[127.601875,37.041076],[127.60011,37.042184],[127.598297,37.043241],[127.596437,37.044245],[127.594534,37.045195],[127.592589,37.04609],[127.590605,37.046928],[127.588585,37.047708],[127.586531,37.04843],[127.584447,37.049092],[127.582333,37.049693],[127.580195,37.050234],[127.578033,37.050712],[127.575852,37.051128],[127.573653,37.051481],[127.57144,37.05177],[127.569215,37.051996],[127.566981,37.052157],[127.564742,37.052254],[127.5625,37.052286]]]]}},{"type":"Feature","properties":{"ident":"ATZ Hongcheon","name":"Hongcheon","type":"ATZ","airspaceClass":null,"upper":"1 500 AGL","upperFt":1500,"upperRef":"AGL","lower":"SFC","lowerFt":0,"lowerRef":"SFC","remarks":"Aerodrome Traffic Zone","category":"비행장교통구역","source":"국토교통부 공역정보 KMZ","cycle":"AIP 2026년 10차"},"geometry":{"type":"MultiPolygon","coordinates":[[[[127.905833,37.736705],[127.903578,37.736657],[127.901329,37.736513],[127.899093,37.736273],[127.896876,37.735938],[127.894685,37.735509],[127.892527,37.734987],[127.890407,37.734374],[127.888331,37.733671],[127.886306,37.732881],[127.884337,37.732006],[127.882431,37.731048],[127.880592,37.73001],[127.878825,37.728895],[127.877137,37.727706],[127.875532,37.726447],[127.874014,37.725121],[127.872587,37.723733],[127.871257,37.722286],[127.870027,37.720784],[127.868899,37.719232],[127.867879,37.717634],[127.866968,37.715994],[127.866169,37.714319],[127.865484,37.712611],[127.864916,37.710877],[127.864466,37.709121],[127.864135,37.707349],[127.863924,37.705564],[127.863834,37.703774],[127.863866,37.701982],[127.864018,37.700194],[127.864291,37.698415],[127.864683,37.696651],[127.865195,37.694906],[127.865823,37.693185],[127.866567,37.691493],[127.867423,37.689835],[127.868391,37.688217],[127.869466,37.686642],[127.870646,37.685115],[127.871928,37.68364],[127.873307,37.682223],[127.87478,37.680866],[127.876342,37.679574],[127.87799,37.678351],[127.879717,37.677199],[127.88152,37.676123],[127.883393,37.675125],[127.88533,37.674209],[127.887327,37.673377],[127.889377,37.67263],[127.891474,37.671973],[127.893612,37.671406],[127.895786,37.67093],[127.897988,37.670549],[127.900214,37.670261],[127.902455,37.670069],[127.904706,37.669973],[127.906961,37.669973],[127.909212,37.670069],[127.911453,37.670261],[127.913678,37.670549],[127.915881,37.67093],[127.918055,37.671406],[127.920193,37.671973],[127.92229,37.67263],[127.92434,37.673377],[127.926336,37.674209],[127.928274,37.675125],[127.930147,37.676123],[127.931949,37.677199],[127.933677,37.678351],[127.935324,37.679574],[127.936887,37.680866],[127.938359,37.682223],[127.939739,37.68364],[127.94102,37.685115],[127.9422,37.686642],[127.943276,37.688217],[127.944243,37.689835],[127.9451,37.691493],[127.945844,37.693185],[127.946472,37.694906],[127.946983,37.696651],[127.947376,37.698415],[127.947649,37.700194],[127.947801,37.701982],[127.947832,37.703774],[127.947743,37.705564],[127.947532,37.707349],[127.947201,37.709121],[127.946751,37.710877],[127.946183,37.712611],[127.945498,37.714319],[127.944699,37.715994],[127.943788,37.717634],[127.942767,37.719232],[127.94164,37.720784],[127.94041,37.722286],[127.939079,37.723733],[127.937653,37.725121],[127.936135,37.726447],[127.93453,37.727706],[127.932841,37.728895],[127.931075,37.73001],[127.929236,37.731048],[127.927329,37.732006],[127.925361,37.732881],[127.923336,37.733671],[127.92126,37.734374],[127.91914,37.734987],[127.916981,37.735509],[127.914791,37.735938],[127.912574,37.736273],[127.910338,37.736513],[127.908089,37.736657],[127.905833,37.736705]]]]}},{"type":"Feature","properties":{"ident":"ATZ Hyeonri","name":"Hyeonri","type":"ATZ","airspaceClass":null,"upper":"1 500 AGL","upperFt":1500,"upperRef":"AGL","lower":"SFC","lowerFt":0,"lowerRef":"SFC","remarks":"Aerodrome Traffic Zone","category":"비행장교통구역","source":"국토교통부 공역정보 KMZ","cycle":"AIP 2026년 10차"},"geometry":{"type":"MultiPolygon","coordinates":[[[[128.316389,38.006445],[128.314118,38.006412],[128.31185,38.006316],[128.309588,38.006154],[128.307335,38.005929],[128.305093,38.00564],[128.302866,38.005287],[128.300657,38.004871],[128.298467,38.004393],[128.296301,38.003852],[128.294161,38.003251],[128.29205,38.002589],[128.28997,38.001867],[128.287924,38.001087],[128.285915,38.000249],[128.283945,37.999355],[128.282017,37.998405],[128.280133,37.997401],[128.278297,37.996344],[128.276509,37.995236],[128.274773,37.994077],[128.273091,37.99287],[128.271464,37.991616],[128.269896,37.990316],[128.268388,37.988973],[128.266941,37.987588],[128.265558,37.986162],[128.264241,37.984698],[128.262992,37.983198],[128.261811,37.981663],[128.2607,37.980096],[128.259662,37.978498],[128.258696,37.976871],[128.257805,37.975218],[128.25699,37.973541],[128.256251,37.971842],[128.25559,37.970122],[128.255007,37.968386],[128.254503,37.966633],[128.254079,37.964868],[128.253736,37.963091],[128.253473,37.961306],[128.253292,37.959515],[128.253191,37.95772],[128.253172,37.955923],[128.253235,37.954126],[128.253379,37.952333],[128.253604,37.950544],[128.253911,37.948764],[128.254297,37.946993],[128.254764,37.945234],[128.25531,37.94349],[128.255935,37.941762],[128.256637,37.940053],[128.257417,37.938366],[128.258272,37.936701],[128.259203,37.935062],[128.260207,37.933451],[128.261283,37.931869],[128.262431,37.930318],[128.263647,37.928801],[128.264932,37.92732],[128.266283,37.925876],[128.267699,37.924472],[128.269177,37.923109],[128.270716,37.921788],[128.272313,37.920512],[128.273968,37.919283],[128.275677,37.918101],[128.277438,37.916968],[128.27925,37.915887],[128.281109,37.914857],[128.283014,37.913881],[128.284962,37.91296],[128.28695,37.912095],[128.288976,37.911287],[128.291037,37.910537],[128.293131,37.909845],[128.295255,37.909214],[128.297406,37.908644],[128.299581,37.908135],[128.301778,37.907689],[128.303994,37.907305],[128.306226,37.906984],[128.308471,37.906727],[128.310726,37.906534],[128.312988,37.906405],[128.315255,37.906341],[128.317523,37.906341],[128.31979,37.906405],[128.322052,37.906534],[128.324307,37.906727],[128.326552,37.906984],[128.328784,37.907305],[128.331,37.907689],[128.333197,37.908135],[128.335372,37.908644],[128.337523,37.909214],[128.339647,37.909845],[128.341741,37.910537],[128.343802,37.911287],[128.345828,37.912095],[128.347816,37.91296],[128.349764,37.913881],[128.351669,37.914857],[128.353528,37.915887],[128.355339,37.916968],[128.357101,37.918101],[128.35881,37.919283],[128.360464,37.920512],[128.362062,37.921788],[128.363601,37.923109],[128.365079,37.924472],[128.366495,37.925876],[128.367846,37.92732],[128.36913,37.928801],[128.370347,37.930318],[128.371495,37.931869],[128.372571,37.933451],[128.373575,37.935062],[128.374505,37.936701],[128.375361,37.938366],[128.37614,37.940053],[128.376843,37.941762],[128.377468,37.94349],[128.378014,37.945234],[128.378481,37.946993],[128.378867,37.948764],[128.379173,37.950544],[128.379399,37.952333],[128.379543,37.954126],[128.379605,37.955923],[128.379586,37.95772],[128.379486,37.959515],[128.379305,37.961306],[128.379042,37.963091],[128.378698,37.964868],[128.378274,37.966633],[128.377771,37.968386],[128.377188,37.970122],[128.376527,37.971842],[128.375788,37.973541],[128.374972,37.975218],[128.374081,37.976871],[128.373116,37.978498],[128.372077,37.980096],[128.370967,37.981663],[128.369786,37.983198],[128.368536,37.984698],[128.367219,37.986162],[128.365837,37.987588],[128.36439,37.988973],[128.362882,37.990316],[128.361313,37.991616],[128.359687,37.99287],[128.358005,37.994077],[128.356269,37.995236],[128.354481,37.996344],[128.352644,37.997401],[128.350761,37.998405],[128.348833,37.999355],[128.346863,38.000249],[128.344854,38.001087],[128.342808,38.001867],[128.340728,38.002589],[128.338617,38.003251],[128.336477,38.003852],[128.33431,38.004393],[128.332121,38.004871],[128.329912,38.005287],[128.327685,38.00564],[128.325443,38.005929],[128.32319,38.006154],[128.320928,38.006316],[128.31866,38.006412],[128.316389,38.006445]]]]}},{"type":"Feature","properties":{"ident":"ATZ Jeonju","name":"Jeonju","type":"ATZ","airspaceClass":null,"upper":"1 500 AGL","upperFt":1500,"upperRef":"AGL","lower":"SFC","lowerFt":0,"lowerRef":"SFC","remarks":"Aerodrome Traffic Zone","category":"비행장교통구역","source":"국토교통부 공역정보 KMZ","cycle":"AIP 2026년 10차"},"geometry":{"type":"MultiPolygon","coordinates":[[[[127.016937,35.831323],[127.019143,35.831388],[127.021345,35.831517],[127.02354,35.83171],[127.025725,35.831967],[127.027897,35.832288],[127.030054,35.832672],[127.032192,35.833119],[127.03431,35.833628],[127.036403,35.834198],[127.038471,35.834829],[127.040509,35.835521],[127.042515,35.836271],[127.044487,35.83708],[127.046422,35.837945],[127.048317,35.838867],[127.050171,35.839843],[127.051981,35.840873],[127.053744,35.841955],[127.055458,35.843088],[127.057122,35.84427],[127.058732,35.8455],[127.060287,35.846777],[127.061785,35.848098],[127.063223,35.849461],[127.064601,35.850866],[127.065916,35.852311],[127.067166,35.853792],[127.06835,35.85531],[127.069467,35.856861],[127.070515,35.858443],[127.071492,35.860056],[127.072397,35.861695],[127.07323,35.86336],[127.073988,35.865049],[127.074672,35.866758],[127.07528,35.868487],[127.075812,35.870231],[127.076266,35.871991],[127.076642,35.873762],[127.07694,35.875544],[127.077159,35.877333],[127.077299,35.879127],[127.07736,35.880924],[127.077341,35.882721],[127.077244,35.884517],[127.077067,35.886309],[127.076811,35.888095],[127.076476,35.889872],[127.076064,35.891638],[127.075573,35.893391],[127.075006,35.895128],[127.074363,35.896848],[127.073643,35.898548],[127.07285,35.900226],[127.071982,35.901879],[127.071043,35.903506],[127.070032,35.905105],[127.068951,35.906673],[127.067802,35.908208],[127.066585,35.909709],[127.065303,35.911174],[127.063958,35.9126],[127.06255,35.913985],[127.061082,35.915329],[127.059555,35.916629],[127.057972,35.917883],[127.056335,35.919091],[127.054645,35.92025],[127.052906,35.921359],[127.051118,35.922416],[127.049285,35.92342],[127.047409,35.92437],[127.045492,35.925265],[127.043536,35.926103],[127.041545,35.926883],[127.039521,35.927605],[127.037466,35.928267],[127.035383,35.928869],[127.033275,35.92941],[127.031144,35.929888],[127.028994,35.930304],[127.026827,35.930657],[127.024645,35.930946],[127.022452,35.931172],[127.020251,35.931333],[127.018043,35.93143],[127.015833,35.931462],[127.013623,35.93143],[127.011416,35.931333],[127.009215,35.931172],[127.007022,35.930946],[127.00484,35.930657],[127.002673,35.930304],[127.000522,35.929888],[126.998392,35.92941],[126.996284,35.928869],[126.994201,35.928267],[126.992146,35.927605],[126.990122,35.926883],[126.98813,35.926103],[126.986175,35.925265],[126.984258,35.92437],[126.982382,35.92342],[126.980549,35.922416],[126.978761,35.921359],[126.977021,35.92025],[126.975332,35.919091],[126.973694,35.917883],[126.972111,35.916629],[126.970585,35.915329],[126.969117,35.913985],[126.967709,35.9126],[126.966363,35.911174],[126.965081,35.909709],[126.963865,35.908208],[126.962716,35.906673],[126.961635,35.905105],[126.960624,35.903506],[126.959684,35.901879],[126.958817,35.900226],[126.958023,35.898548],[126.957304,35.896848],[126.956661,35.895128],[126.956093,35.893391],[126.955603,35.891638],[126.95519,35.889872],[126.954856,35.888095],[126.9546,35.886309],[126.954423,35.884517],[126.954325,35.882721],[126.954307,35.880924],[126.954368,35.879127],[126.954508,35.877333],[126.954727,35.875544],[126.955025,35.873762],[126.955401,35.871991],[126.955855,35.870231],[126.956387,35.868487],[126.956994,35.866758],[126.957678,35.865049],[126.958437,35.86336],[126.959269,35.861695],[126.960175,35.860056],[126.961152,35.858443],[126.9622,35.856861],[126.963316,35.85531],[126.9645,35.853792],[126.965751,35.852311],[126.967066,35.850866],[126.968443,35.849461],[126.969882,35.848098],[126.97138,35.846777],[126.972935,35.8455],[126.974545,35.84427],[126.976208,35.843088],[126.977923,35.841955],[126.979686,35.840873],[126.981495,35.839843],[126.983349,35.838867],[126.985245,35.837945],[126.98718,35.83708],[126.989152,35.836271],[126.991158,35.835521],[126.993196,35.834829],[126.995263,35.834198],[126.997357,35.833628],[126.999474,35.833119],[127.001613,35.832672],[127.003769,35.832288],[127.005942,35.831967],[127.008126,35.83171],[127.010321,35.831517],[127.012523,35.831388],[127.01473,35.831323],[127.016937,35.831323]]]]}},{"type":"Feature","properties":{"ident":"ATZ Jochiwon","name":"Jochiwon","type":"ATZ","airspaceClass":null,"upper":"1 500 AGL","upperFt":1500,"upperRef":"AGL","lower":"SFC","lowerFt":0,"lowerRef":"SFC","remarks":"Aerodrome Traffic Zone","category":"비행장교통구역","source":"국토교통부 공역정보 KMZ","cycle":"AIP 2026년 10차"},"geometry":{"type":"MultiPolygon","coordinates":[[[[127.264913,36.617704],[127.265429,36.615742],[127.265829,36.611097],[127.265424,36.606452],[127.264221,36.601897],[127.262243,36.597522],[127.25953,36.593411],[127.256134,36.589645],[127.252122,36.586296],[127.247571,36.58343],[127.247508,36.5834],[127.24257,36.581102],[127.237216,36.579359],[127.233737,36.578659],[127.233601,36.577294],[127.233503,36.575499],[127.233484,36.573701],[127.233546,36.571904],[127.233687,36.57011],[127.233908,36.568322],[127.234209,36.566541],[127.234588,36.564769],[127.235046,36.56301],[127.235582,36.561265],[127.236196,36.559537],[127.236886,36.557828],[127.237651,36.55614],[127.238491,36.554475],[127.239404,36.552836],[127.24039,36.551224],[127.241447,36.549641],[127.242574,36.54809],[127.243768,36.546573],[127.24503,36.545092],[127.246356,36.543647],[127.247746,36.542243],[127.249197,36.540879],[127.250709,36.539558],[127.252277,36.538282],[127.253902,36.537052],[127.25558,36.53587],[127.257309,36.534737],[127.259088,36.533655],[127.259431,36.533462],[127.260914,36.532626],[127.262784,36.531649],[127.264697,36.530728],[127.266649,36.529862],[127.268638,36.529054],[127.270662,36.528304],[127.272718,36.527612],[127.274804,36.526981],[127.276916,36.526411],[127.279052,36.525902],[127.281209,36.525455],[127.283385,36.525071],[127.285576,36.52475],[127.287781,36.524493],[127.289995,36.5243],[127.292216,36.524171],[127.294442,36.524107],[127.296669,36.524107],[127.298895,36.524171],[127.301116,36.5243],[127.303331,36.524493],[127.305535,36.52475],[127.307726,36.525071],[127.309902,36.525455],[127.312059,36.525902],[127.314195,36.526411],[127.316308,36.526981],[127.318393,36.527612],[127.320449,36.528304],[127.322473,36.529054],[127.324462,36.529862],[127.326414,36.530728],[127.328327,36.531649],[127.330197,36.532626],[127.332023,36.533655],[127.333802,36.534737],[127.335531,36.53587],[127.337209,36.537052],[127.338834,36.538282],[127.340403,36.539558],[127.341914,36.540879],[127.343365,36.542243],[127.344755,36.543647],[127.346081,36.545092],[127.347343,36.546573],[127.348537,36.54809],[127.349664,36.549641],[127.350721,36.551224],[127.351707,36.552836],[127.35262,36.554475],[127.35346,36.55614],[127.354226,36.557828],[127.354915,36.559537],[127.355529,36.561265],[127.356065,36.56301],[127.356523,36.564769],[127.356903,36.566541],[127.357203,36.568322],[127.357424,36.57011],[127.357566,36.571904],[127.357627,36.573701],[127.357608,36.575499],[127.35751,36.577294],[127.357331,36.579086],[127.357073,36.580872],[127.356736,36.582648],[127.356572,36.583344],[127.35632,36.584414],[127.355825,36.586167],[127.355253,36.587904],[127.354604,36.589624],[127.353878,36.591323],[127.353077,36.593001],[127.352202,36.594654],[127.351254,36.596281],[127.350235,36.59788],[127.349144,36.599447],[127.348477,36.600331],[127.347985,36.600983],[127.346758,36.602483],[127.345464,36.603948],[127.344107,36.605373],[127.342686,36.606759],[127.341205,36.608103],[127.339665,36.609402],[127.338068,36.610657],[127.336417,36.611864],[127.334712,36.613023],[127.332957,36.614132],[127.331153,36.615189],[127.329304,36.616193],[127.327411,36.617143],[127.325477,36.618037],[127.323504,36.618875],[127.321496,36.619656],[127.319453,36.620378],[127.31738,36.62104],[127.315279,36.621641],[127.313152,36.622182],[127.311002,36.62266],[127.308833,36.623076],[127.306646,36.623429],[127.304445,36.623718],[127.302233,36.623944],[127.300012,36.624105],[127.297785,36.624202],[127.295556,36.624234],[127.293326,36.624202],[127.291099,36.624105],[127.288878,36.623944],[127.286666,36.623718],[127.284465,36.623429],[127.282278,36.623076],[127.280109,36.62266],[127.277959,36.622182],[127.275832,36.621641],[127.273731,36.62104],[127.271658,36.620378],[127.269616,36.619656],[127.267607,36.618875],[127.265634,36.618037],[127.264913,36.617704]]]]}},{"type":"Feature","properties":{"ident":"ATZ Poseung","name":"Poseung","type":"ATZ","airspaceClass":null,"upper":"1 000 AGL","upperFt":1000,"upperRef":"AGL","lower":"SFC","lowerFt":0,"lowerRef":"SFC","remarks":"Aerodrome Traffic Zone","category":"비행장교통구역","source":"국토교통부 공역정보 KMZ","cycle":"AIP 2026년 10차"},"geometry":{"type":"MultiPolygon","coordinates":[[[[126.8075,37.041453],[126.805258,37.041421],[126.803019,37.041324],[126.800786,37.041163],[126.798562,37.040937],[126.796349,37.040648],[126.79415,37.040295],[126.791969,37.039879],[126.789808,37.039401],[126.787669,37.03886],[126.785557,37.038259],[126.783472,37.037596],[126.781419,37.036875],[126.779399,37.036094],[126.777416,37.035257],[126.775471,37.034362],[126.773568,37.033412],[126.771708,37.032408],[126.769895,37.031351],[126.76813,37.030242],[126.766417,37.029084],[126.764756,37.027876],[126.76315,37.026622],[126.761602,37.025322],[126.760113,37.023979],[126.758685,37.022593],[126.75732,37.021168],[126.756019,37.019703],[126.754786,37.018203],[126.75362,37.016668],[126.752523,37.0151],[126.751498,37.013502],[126.750545,37.011875],[126.749665,37.010222],[126.74886,37.008544],[126.748131,37.006845],[126.747478,37.005125],[126.746903,37.003388],[126.746405,37.001636],[126.745987,36.99987],[126.745648,36.998093],[126.745388,36.996308],[126.745209,36.994516],[126.74511,36.99272],[126.745091,36.990923],[126.745153,36.989126],[126.745295,36.987333],[126.745517,36.985544],[126.74582,36.983763],[126.746201,36.981992],[126.746662,36.980233],[126.747201,36.978488],[126.747818,36.97676],[126.748511,36.975051],[126.749281,36.973363],[126.750125,36.971699],[126.751044,36.970059],[126.752035,36.968447],[126.753098,36.966865],[126.75423,36.965314],[126.755432,36.963797],[126.7567,36.962316],[126.758034,36.960872],[126.759431,36.959467],[126.76089,36.958103],[126.76241,36.956783],[126.763987,36.955507],[126.76562,36.954277],[126.767307,36.953095],[126.769046,36.951962],[126.770835,36.95088],[126.77267,36.949851],[126.774551,36.948874],[126.776474,36.947953],[126.778436,36.947088],[126.780437,36.946279],[126.782472,36.945529],[126.784539,36.944838],[126.786635,36.944207],[126.788759,36.943636],[126.790907,36.943127],[126.793076,36.942681],[126.795263,36.942297],[126.797467,36.941976],[126.799683,36.941719],[126.801909,36.941526],[126.804143,36.941397],[126.80638,36.941333],[126.80862,36.941333],[126.810857,36.941397],[126.813091,36.941526],[126.815317,36.941719],[126.817533,36.941976],[126.819737,36.942297],[126.821924,36.942681],[126.824093,36.943127],[126.826241,36.943636],[126.828365,36.944207],[126.830461,36.944838],[126.832528,36.945529],[126.834563,36.946279],[126.836564,36.947088],[126.838526,36.947953],[126.840449,36.948874],[126.84233,36.949851],[126.844165,36.95088],[126.845954,36.951962],[126.847693,36.953095],[126.84938,36.954277],[126.851013,36.955507],[126.85259,36.956783],[126.85411,36.958103],[126.855569,36.959467],[126.856966,36.960872],[126.8583,36.962316],[126.859568,36.963797],[126.86077,36.965314],[126.861902,36.966865],[126.862965,36.968447],[126.863956,36.970059],[126.864875,36.971699],[126.865719,36.973363],[126.866489,36.975051],[126.867182,36.97676],[126.867799,36.978488],[126.868338,36.980233],[126.868799,36.981992],[126.86918,36.983763],[126.869483,36.985544],[126.869705,36.987333],[126.869847,36.989126],[126.869909,36.990923],[126.86989,36.99272],[126.869791,36.994516],[126.869612,36.996308],[126.869352,36.998093],[126.869013,36.99987],[126.868595,37.001636],[126.868097,37.003388],[126.867522,37.005125],[126.866869,37.006845],[126.86614,37.008544],[126.865335,37.010222],[126.864455,37.011875],[126.863502,37.013502],[126.862477,37.0151],[126.86138,37.016668],[126.860214,37.018203],[126.858981,37.019703],[126.85768,37.021168],[126.856315,37.022593],[126.854887,37.023979],[126.853398,37.025322],[126.85185,37.026622],[126.850244,37.027876],[126.848583,37.029084],[126.84687,37.030242],[126.845105,37.031351],[126.843292,37.032408],[126.841432,37.033412],[126.839529,37.034362],[126.837584,37.035257],[126.835601,37.036094],[126.833581,37.036875],[126.831528,37.037596],[126.829443,37.038259],[126.827331,37.03886],[126.825192,37.039401],[126.823031,37.039879],[126.82085,37.040295],[126.818651,37.040648],[126.816438,37.040937],[126.814214,37.041163],[126.811981,37.041324],[126.809742,37.041421],[126.8075,37.041453]]]]}},{"type":"Feature","properties":{"ident":"ATZ Taean","name":"Taean","type":"ATZ","airspaceClass":null,"upper":"1 500 AGL","upperFt":1500,"upperRef":"AGL","lower":"SFC","lowerFt":0,"lowerRef":"SFC","remarks":"Aerodrome Traffic Zone","category":"비행장교통구역","source":"국토교통부 공역정보 KMZ","cycle":"AIP 2026년 10차"},"geometry":{"type":"MultiPolygon","coordinates":[[[[126.252778,36.629444],[126.254861,36.627176],[126.256944,36.624907],[126.259028,36.622639],[126.261111,36.62037],[126.263194,36.618102],[126.265278,36.615833],[126.265278,36.612824],[126.265278,36.609815],[126.265278,36.606806],[126.265278,36.603796],[126.265278,36.600787],[126.265278,36.597778],[126.267619,36.595754],[126.26996,36.59373],[126.272302,36.591706],[126.274643,36.589683],[126.276984,36.587659],[126.279325,36.585635],[126.281667,36.583611],[126.284008,36.581587],[126.286349,36.579563],[126.28869,36.57754],[126.291032,36.575516],[126.293373,36.573492],[126.295714,36.571468],[126.298056,36.569444],[126.297561,36.566636],[126.297066,36.563828],[126.296572,36.56102],[126.296077,36.558212],[126.295583,36.555404],[126.295088,36.552596],[126.294593,36.549788],[126.294099,36.54698],[126.293604,36.544171],[126.29673,36.543976],[126.299861,36.543932],[126.30299,36.544041],[126.306111,36.544302],[126.309215,36.544714],[126.312296,36.545277],[126.315345,36.545989],[126.318356,36.546849],[126.321322,36.547854],[126.324235,36.549002],[126.32709,36.55029],[126.329878,36.551715],[126.332593,36.553275],[126.33523,36.554964],[126.337781,36.55678],[126.340241,36.558718],[126.342604,36.560773],[126.344864,36.562941],[126.347016,36.565216],[126.349054,36.567593],[126.350975,36.570066],[126.352773,36.57263],[126.354444,36.575278],[126.351759,36.57679],[126.349074,36.578302],[126.346389,36.579815],[126.343704,36.581327],[126.341019,36.58284],[126.338333,36.584352],[126.335648,36.585864],[126.332963,36.587377],[126.330278,36.588889],[126.328254,36.59121],[126.32623,36.593532],[126.324206,36.595853],[126.322183,36.598175],[126.320159,36.600496],[126.318135,36.602817],[126.316111,36.605139],[126.314087,36.60746],[126.312063,36.609782],[126.31004,36.612103],[126.308016,36.614425],[126.305992,36.616746],[126.303968,36.619067],[126.301944,36.621389],[126.300799,36.624236],[126.299653,36.627083],[126.298507,36.629931],[126.297361,36.632778],[126.296215,36.635625],[126.295069,36.638472],[126.293924,36.641319],[126.292778,36.644167],[126.289693,36.643956],[126.286619,36.643611],[126.283564,36.643131],[126.280533,36.642518],[126.277532,36.641774],[126.274566,36.640898],[126.271641,36.639894],[126.268763,36.638762],[126.265937,36.637506],[126.263169,36.636128],[126.260464,36.634629],[126.257827,36.633014],[126.255263,36.631284],[126.252778,36.629444]]]]}},{"type":"Feature","properties":{"ident":"ATZ Taean","name":"Taean","type":"ATZ","airspaceClass":null,"upper":"1 000 AGL","upperFt":1000,"upperRef":"AGL","lower":"SFC","lowerFt":0,"lowerRef":"SFC","remarks":"Aerodrome Traffic Zone","category":"비행장교통구역","source":"국토교통부 공역정보 KMZ","cycle":"AIP 2026년 10차"},"geometry":{"type":"MultiPolygon","coordinates":[[[[126.292778,36.644167],[126.293542,36.642269],[126.294306,36.64037],[126.295069,36.638472],[126.295833,36.636574],[126.296597,36.634676],[126.297361,36.632778],[126.298125,36.63088],[126.298889,36.628981],[126.299653,36.627083],[126.300417,36.625185],[126.301181,36.623287],[126.301944,36.621389],[126.303294,36.619841],[126.304643,36.618294],[126.305992,36.616746],[126.307341,36.615198],[126.30869,36.613651],[126.31004,36.612103],[126.311389,36.610556],[126.312738,36.609008],[126.314087,36.60746],[126.315437,36.605913],[126.316786,36.604365],[126.318135,36.602817],[126.319484,36.60127],[126.320833,36.599722],[126.322183,36.598175],[126.323532,36.596627],[126.324881,36.595079],[126.32623,36.593532],[126.327579,36.591984],[126.328929,36.590437],[126.330278,36.588889],[126.332004,36.587917],[126.33373,36.586944],[126.335456,36.585972],[126.337183,36.585],[126.338909,36.584028],[126.340635,36.583056],[126.342361,36.582083],[126.344087,36.581111],[126.345813,36.580139],[126.34754,36.579167],[126.349266,36.578194],[126.350992,36.577222],[126.352718,36.57625],[126.354444,36.575278],[126.35507,36.577223],[126.35562,36.57919],[126.356094,36.581178],[126.356491,36.583182],[126.356811,36.5852],[126.357052,36.587228],[126.357215,36.589265],[126.357299,36.591306],[126.357305,36.593349],[126.357231,36.595391],[126.357079,36.597428],[126.356849,36.599458],[126.35654,36.601478],[126.356154,36.603484],[126.355691,36.605474],[126.355151,36.607444],[126.354536,36.609393],[126.353846,36.611316],[126.353083,36.613211],[126.352247,36.615075],[126.35134,36.616905],[126.350362,36.6187],[126.349317,36.620455],[126.348204,36.622168],[126.347026,36.623838],[126.345785,36.62546],[126.344482,36.627034],[126.343119,36.628556],[126.341699,36.630025],[126.340223,36.631438],[126.338694,36.632792],[126.337114,36.634087],[126.335484,36.63532],[126.333809,36.636489],[126.33209,36.637593],[126.330329,36.638629],[126.32853,36.639597],[126.326695,36.640495],[126.324826,36.641321],[126.322927,36.642075],[126.321001,36.642755],[126.319049,36.64336],[126.317076,36.643889],[126.315084,36.644342],[126.313076,36.644718],[126.311054,36.645016],[126.309023,36.645236],[126.306985,36.645377],[126.304943,36.64544],[126.3029,36.645424],[126.300859,36.645329],[126.298824,36.645156],[126.296796,36.644904],[126.29478,36.644574],[126.292778,36.644167]]]]}},{"type":"Feature","properties":{"ident":"ATZ Yangpyeong","name":"Yangpyeong","type":"ATZ","airspaceClass":null,"upper":"1 500 AGL","upperFt":1500,"upperRef":"AGL","lower":"SFC","lowerFt":0,"lowerRef":"SFC","remarks":"Aerodrome Traffic Zone","category":"비행장교통구역","source":"국토교통부 공역정보 KMZ","cycle":"AIP 2026년 10차"},"geometry":{"type":"MultiPolygon","coordinates":[[[[127.63,37.533095],[127.627751,37.533047],[127.625508,37.532903],[127.623278,37.532663],[127.621067,37.532328],[127.618882,37.531899],[127.61673,37.531377],[127.614615,37.530764],[127.612545,37.530061],[127.610526,37.529271],[127.608563,37.528396],[127.606661,37.527438],[127.604827,37.526399],[127.603066,37.525285],[127.601382,37.524096],[127.599781,37.522837],[127.598267,37.521511],[127.596845,37.520123],[127.595518,37.518675],[127.594291,37.517173],[127.593167,37.515621],[127.592149,37.514023],[127.59124,37.512384],[127.590443,37.510708],[127.589761,37.509],[127.589194,37.507266],[127.588745,37.50551],[127.588415,37.503738],[127.588205,37.501953],[127.588115,37.500163],[127.588146,37.498371],[127.588298,37.496583],[127.58857,37.494804],[127.588962,37.49304],[127.589472,37.491294],[127.590098,37.489573],[127.59084,37.487881],[127.591694,37.486224],[127.592659,37.484605],[127.593732,37.48303],[127.594909,37.481503],[127.596187,37.480029],[127.597562,37.478611],[127.599031,37.477254],[127.600589,37.475962],[127.602232,37.474739],[127.603955,37.473587],[127.605753,37.472511],[127.607621,37.471513],[127.609553,37.470597],[127.611544,37.469764],[127.613588,37.469018],[127.615679,37.468361],[127.617812,37.467793],[127.61998,37.467318],[127.622176,37.466936],[127.624396,37.466649],[127.626631,37.466457],[127.628876,37.466361],[127.631124,37.466361],[127.633369,37.466457],[127.635604,37.466649],[127.637824,37.466936],[127.64002,37.467318],[127.642188,37.467793],[127.644321,37.468361],[127.646412,37.469018],[127.648456,37.469764],[127.650447,37.470597],[127.652379,37.471513],[127.654247,37.472511],[127.656045,37.473587],[127.657768,37.474739],[127.659411,37.475962],[127.660969,37.477254],[127.662438,37.478611],[127.663813,37.480029],[127.665091,37.481503],[127.666268,37.48303],[127.667341,37.484605],[127.668306,37.486224],[127.66916,37.487881],[127.669902,37.489573],[127.670528,37.491294],[127.671038,37.49304],[127.67143,37.494804],[127.671702,37.496583],[127.671854,37.498371],[127.671885,37.500163],[127.671795,37.501953],[127.671585,37.503738],[127.671255,37.50551],[127.670806,37.507266],[127.670239,37.509],[127.669557,37.510708],[127.66876,37.512384],[127.667851,37.514023],[127.666833,37.515621],[127.665709,37.517173],[127.664482,37.518675],[127.663155,37.520123],[127.661733,37.521511],[127.660219,37.522837],[127.658618,37.524096],[127.656934,37.525285],[127.655173,37.526399],[127.653339,37.527438],[127.651437,37.528396],[127.649474,37.529271],[127.647455,37.530061],[127.645385,37.530764],[127.64327,37.531377],[127.641118,37.531899],[127.638933,37.532328],[127.636722,37.532663],[127.634492,37.532903],[127.632249,37.533047],[127.63,37.533095]]]]}},{"type":"Feature","properties":{"ident":"ATZ Yongin","name":"Yongin","type":"ATZ","airspaceClass":null,"upper":"1 500 AGL","upperFt":1500,"upperRef":"AGL","lower":"SFC","lowerFt":0,"lowerRef":"SFC","remarks":"Aerodrome Traffic Zone","category":"비행장교통구역","source":"국토교통부 공역정보 KMZ","cycle":"AIP 2026년 10차"},"geometry":{"type":"MultiPolygon","coordinates":[[[[127.284986,37.302795],[127.284424,37.304099],[127.283616,37.305776],[127.282733,37.307429],[127.281776,37.309056],[127.280747,37.310654],[127.279646,37.312222],[127.278476,37.313757],[127.277237,37.315257],[127.275932,37.316722],[127.274561,37.318147],[127.273128,37.319533],[127.271633,37.320876],[127.270078,37.322176],[127.268467,37.32343],[127.266799,37.324637],[127.265079,37.325796],[127.263307,37.326904],[127.26218,37.327559],[127.257829,37.327194],[127.252002,37.327357],[127.24626,37.328165],[127.240714,37.329603],[127.235473,37.331644],[127.230638,37.334246],[127.226822,37.336988],[127.225556,37.337006],[127.223305,37.336974],[127.221057,37.336877],[127.218815,37.336716],[127.216582,37.33649],[127.214361,37.336201],[127.212154,37.335848],[127.209964,37.335432],[127.207794,37.334954],[127.205648,37.334413],[127.203526,37.333812],[127.201434,37.33315],[127.199373,37.332428],[127.197345,37.331648],[127.195354,37.33081],[127.193402,37.329915],[127.191491,37.328965],[127.189624,37.327961],[127.187804,37.326904],[127.186032,37.325796],[127.184312,37.324637],[127.182645,37.32343],[127.181033,37.322176],[127.179478,37.320876],[127.177983,37.319533],[127.17655,37.318147],[127.175179,37.316722],[127.173874,37.315257],[127.172635,37.313757],[127.171465,37.312222],[127.170365,37.310654],[127.169335,37.309056],[127.168378,37.307429],[127.167495,37.305776],[127.166687,37.304099],[127.166123,37.30279],[127.165955,37.302399],[127.1653,37.30068],[127.164722,37.298943],[127.164223,37.29719],[127.163803,37.295425],[127.163462,37.293648],[127.163202,37.291863],[127.163022,37.290071],[127.162922,37.288276],[127.162903,37.286479],[127.162966,37.284682],[127.163108,37.282888],[127.163331,37.2811],[127.163635,37.279319],[127.164018,37.277548],[127.16448,37.275789],[127.165022,37.274044],[127.165641,37.272317],[127.166337,37.270608],[127.16711,37.26892],[127.167958,37.267255],[127.16888,37.265616],[127.169875,37.264004],[127.170941,37.262422],[127.172078,37.260871],[127.173284,37.259354],[127.174558,37.257873],[127.175897,37.256429],[127.177299,37.255024],[127.178764,37.253661],[127.179714,37.252839],[127.18029,37.25234],[127.181873,37.251064],[127.183513,37.249834],[127.185206,37.248652],[127.186952,37.24752],[127.188748,37.246438],[127.19059,37.245408],[127.192478,37.244432],[127.194408,37.243511],[127.196379,37.242645],[127.198387,37.241837],[127.20043,37.241087],[127.202505,37.240396],[127.20461,37.239765],[127.206742,37.239194],[127.208898,37.238685],[127.211075,37.238239],[127.213271,37.237855],[127.215483,37.237534],[127.217708,37.237277],[127.219943,37.237084],[127.222185,37.236955],[127.224432,37.236891],[127.22668,37.236891],[127.228926,37.236955],[127.231168,37.237084],[127.233403,37.237277],[127.235628,37.237534],[127.23784,37.237855],[127.240036,37.238239],[127.242213,37.238685],[127.244369,37.239194],[127.246501,37.239765],[127.248606,37.240396],[127.250681,37.241087],[127.252724,37.241837],[127.254732,37.242645],[127.256703,37.243511],[127.258633,37.244432],[127.260521,37.245408],[127.262364,37.246438],[127.264159,37.24752],[127.265905,37.248652],[127.267598,37.249834],[127.269238,37.251064],[127.270822,37.25234],[127.271425,37.252862],[127.272347,37.253661],[127.273812,37.255024],[127.275215,37.256429],[127.276553,37.257873],[127.277827,37.259354],[127.279033,37.260871],[127.28017,37.262422],[127.281236,37.264004],[127.282232,37.265616],[127.283154,37.267255],[127.284001,37.26892],[127.284774,37.270608],[127.28547,37.272317],[127.28609,37.274044],[127.286631,37.275789],[127.287093,37.277548],[127.287476,37.279319],[127.28778,37.2811],[127.288003,37.282888],[127.288146,37.284682],[127.288208,37.286479],[127.288189,37.288276],[127.28809,37.290071],[127.287909,37.291863],[127.287649,37.293648],[127.287309,37.295425],[127.286888,37.29719],[127.286389,37.298943],[127.285812,37.30068],[127.285156,37.302399],[127.284986,37.302795]]]]}},{"type":"Feature","properties":{"ident":"ATZ Youngcheon","name":"Youngcheon(overlap)","type":"ATZ","airspaceClass":null,"upper":"1 000 AGL","upperFt":1000,"upperRef":"AGL","lower":"SFC","lowerFt":0,"lowerRef":"SFC","remarks":"Aerodrome Traffic Zone","category":"비행장교통구역","source":"국토교통부 공역정보 KMZ","cycle":"AIP 2026년 10차"},"geometry":{"type":"MultiPolygon","coordinates":[[[[128.757271,36.027616],[128.757274,36.02329],[128.757634,36.019705],[128.758765,36.014389],[128.759907,36.010914],[128.762187,36.005848],[128.765843,36.000014],[128.768684,35.996458],[128.772826,35.992242],[128.775886,35.989643],[128.780886,35.986096],[128.784468,35.983982],[128.790166,35.981217],[128.794154,35.979657],[128.800368,35.977763],[128.806796,35.976422],[128.813364,35.975651],[128.819996,35.975457],[128.824416,35.975651],[128.830984,35.976422],[128.836649,35.97758],[128.836538,35.977738],[128.835419,35.979293],[128.83428,35.980839],[128.833121,35.982375],[128.83194,35.9839],[128.83074,35.985415],[128.82952,35.986919],[128.82828,35.988413],[128.827019,35.989895],[128.82574,35.991366],[128.82444,35.992826],[128.823122,35.994275],[128.821784,35.995712],[128.820427,35.997137],[128.819051,35.99855],[128.817656,35.99995],[128.816243,36.001339],[128.814811,36.002715],[128.813362,36.004078],[128.811894,36.005429],[128.810408,36.006766],[128.808904,36.00809],[128.807383,36.009402],[128.805845,36.010699],[128.804289,36.011983],[128.802716,36.013254],[128.801127,36.01451],[128.79952,36.015753],[128.797898,36.016981],[128.796259,36.018195],[128.794604,36.019394],[128.792933,36.020579],[128.791246,36.021749],[128.789544,36.022904],[128.787827,36.024044],[128.786094,36.025169],[128.784347,36.026279],[128.782584,36.027373],[128.780808,36.028452],[128.779017,36.029515],[128.777212,36.030563],[128.775393,36.031594],[128.773561,36.032609],[128.771715,36.033609],[128.769855,36.034592],[128.767983,36.035558],[128.766098,36.036508],[128.764201,36.037442],[128.762291,36.038358],[128.760369,36.039258],[128.759675,36.039575],[128.758098,36.034042],[128.757271,36.027616]]]]}},{"type":"Feature","properties":{"ident":"ATZ Youngcheon","name":"Youngcheon","type":"ATZ","airspaceClass":null,"upper":"1 500 AGL","upperFt":1500,"upperRef":"AGL","lower":"SFC","lowerFt":0,"lowerRef":"SFC","remarks":"Aerodrome Traffic Zone","category":"비행장교통구역","source":"국토교통부 공역정보 KMZ","cycle":"AIP 2026년 10차"},"geometry":{"type":"MultiPolygon","coordinates":[[[[128.81889,36.075657],[128.816675,36.075624],[128.814462,36.075527],[128.812255,36.075366],[128.810057,36.075141],[128.80787,36.074851],[128.805697,36.074498],[128.803542,36.074082],[128.801406,36.073603],[128.799293,36.073062],[128.797205,36.07246],[128.795145,36.071797],[128.793115,36.071075],[128.791119,36.070294],[128.789159,36.069456],[128.787238,36.06856],[128.785357,36.06761],[128.783519,36.066605],[128.781727,36.065547],[128.779983,36.064438],[128.778289,36.063278],[128.776648,36.06207],[128.775061,36.060815],[128.773531,36.059514],[128.772059,36.058169],[128.770648,36.056783],[128.769299,36.055356],[128.768014,36.053891],[128.766795,36.052389],[128.765642,36.050853],[128.764559,36.049284],[128.763546,36.047684],[128.762604,36.046056],[128.761734,36.044402],[128.760939,36.042723],[128.760218,36.041022],[128.759572,36.039301],[128.759004,36.037563],[128.758512,36.035809],[128.758098,36.034042],[128.757763,36.032264],[128.757507,36.030477],[128.757329,36.028684],[128.757231,36.026887],[128.757213,36.025088],[128.757274,36.02329],[128.757414,36.021495],[128.757634,36.019705],[128.757932,36.017922],[128.75831,36.01615],[128.758765,36.014389],[128.759297,36.012643],[128.759907,36.010914],[128.760592,36.009204],[128.761353,36.007514],[128.762187,36.005848],[128.763095,36.004207],[128.764074,36.002594],[128.765125,36.001011],[128.766244,35.999459],[128.767431,35.99794],[128.768684,35.996458],[128.770002,35.995012],[128.771383,35.993607],[128.772826,35.992242],[128.774327,35.99092],[128.775886,35.989643],[128.7775,35.988412],[128.779167,35.987229],[128.780886,35.986096],[128.782654,35.985013],[128.784468,35.983982],[128.786326,35.983005],[128.788226,35.982083],[128.790166,35.981217],[128.792143,35.980408],[128.794154,35.979657],[128.796197,35.978965],[128.798269,35.978334],[128.800368,35.977763],[128.802491,35.977253],[128.804634,35.976806],[128.806796,35.976422],[128.808974,35.976101],[128.811164,35.975844],[128.813364,35.975651],[128.815572,35.975522],[128.817783,35.975457],[128.819996,35.975457],[128.822208,35.975522],[128.824416,35.975651],[128.826616,35.975844],[128.828806,35.976101],[128.830984,35.976422],[128.833146,35.976806],[128.835289,35.977253],[128.837412,35.977763],[128.839511,35.978334],[128.841583,35.978965],[128.843626,35.979657],[128.845637,35.980408],[128.847614,35.981217],[128.849554,35.982083],[128.851454,35.983005],[128.853312,35.983982],[128.855126,35.985013],[128.856894,35.986096],[128.858612,35.987229],[128.86028,35.988412],[128.861894,35.989643],[128.863453,35.99092],[128.864954,35.992242],[128.866396,35.993607],[128.867777,35.995012],[128.869095,35.996458],[128.870349,35.99794],[128.871536,35.999459],[128.872655,36.001011],[128.873705,36.002594],[128.874685,36.004207],[128.875593,36.005848],[128.876427,36.007514],[128.877188,36.009204],[128.877873,36.010914],[128.878483,36.012643],[128.879015,36.014389],[128.87947,36.01615],[128.879847,36.017922],[128.880146,36.019705],[128.880366,36.021495],[128.880506,36.02329],[128.880567,36.025088],[128.880549,36.026887],[128.880451,36.028684],[128.880273,36.030477],[128.880017,36.032264],[128.879681,36.034042],[128.879268,36.035809],[128.878776,36.037563],[128.878208,36.039301],[128.877562,36.041022],[128.876841,36.042723],[128.876046,36.044402],[128.875176,36.046056],[128.874234,36.047684],[128.873221,36.049284],[128.872137,36.050853],[128.870985,36.052389],[128.869766,36.053891],[128.868481,36.055356],[128.867132,36.056783],[128.865721,36.058169],[128.864249,36.059514],[128.862719,36.060815],[128.861132,36.06207],[128.85949,36.063278],[128.857797,36.064438],[128.856053,36.065547],[128.854261,36.066605],[128.852423,36.06761],[128.850542,36.06856],[128.848621,36.069456],[128.84666,36.070294],[128.844664,36.071075],[128.842635,36.071797],[128.840575,36.07246],[128.838487,36.073062],[128.836374,36.073603],[128.834238,36.074082],[128.832083,36.074498],[128.82991,36.074851],[128.827723,36.075141],[128.825525,36.075366],[128.823318,36.075527],[128.821105,36.075624],[128.81889,36.075657]]]]}}]}
