{"type":"FeatureCollection","source":"국토교통부 공역정보 KMZ","cycle":"AIP 2026년 10차","features":[{"type":"Feature","properties":{"ident":"RK D1","name":"GORI","type":"Danger Area","airspaceClass":null,"upper":"10 000 AGL","upperFt":10000,"upperRef":"AGL","lower":"GND","lowerFt":0,"lowerRef":"GND","remarks":"Danger","dng_lbl_1":"D1","dng_lbl_2":"10 000 AGL","dng_lbl_3":"GND","category":"위험구역","source":"국토교통부 공역정보 KMZ","cycle":"AIP 2026년 10차"},"geometry":{"type":"MultiPolygon","coordinates":[[[[129.306328,35.291531],[129.310124,35.292017],[129.314371,35.292929],[129.31797,35.29403],[129.321427,35.295404],[129.325164,35.297294],[129.328214,35.299209],[129.331031,35.301352],[129.333589,35.303702],[129.336166,35.306616],[129.338096,35.30934],[129.339704,35.312201],[129.340977,35.315173],[129.341902,35.31823],[129.342523,35.321793],[129.34268,35.32494],[129.342474,35.328086],[129.341908,35.331201],[129.340986,35.334259],[129.339507,35.337648],[129.337853,35.340492],[129.33588,35.343195],[129.333605,35.345734],[129.330661,35.348405],[129.327809,35.350518],[129.324727,35.352401],[129.320957,35.35425],[129.317476,35.355587],[129.313856,35.356649],[129.309592,35.357514],[129.305785,35.357959],[129.301395,35.358105],[129.297557,35.357913],[129.293221,35.357333],[129.288986,35.356374],[129.285403,35.355232],[129.28149,35.353595],[129.27826,35.351887],[129.275241,35.349937],[129.27246,35.347762],[129.269941,35.345382],[129.267708,35.342818],[129.265779,35.340094],[129.263971,35.336813],[129.262604,35.333393],[129.261782,35.330316],[129.261319,35.327189],[129.261217,35.32404],[129.261477,35.320898],[129.262098,35.317789],[129.263241,35.314314],[129.264611,35.311371],[129.266312,35.308547],[129.268331,35.305867],[129.270649,35.303354],[129.273637,35.300717],[129.276955,35.298359],[129.280097,35.296546],[129.283433,35.294984],[129.286934,35.293687],[129.291096,35.292543],[129.294843,35.291848],[129.298654,35.291446],[129.302493,35.29134],[129.306328,35.291531]]]]}},{"type":"Feature","properties":{"ident":"RK D115","name":"DONGHAE","type":"Danger Area","airspaceClass":null,"upper":"FL 380","upperFt":38000,"upperRef":"FL","lower":"GND","lowerFt":0,"lowerRef":"GND","remarks":null,"dng_lbl_1":"D115","dng_lbl_2":"FL 380","dng_lbl_3":"GND","category":"위험구역","source":"국토교통부 공역정보 KMZ","cycle":"AIP 2026년 10차"},"geometry":{"type":"MultiPolygon","coordinates":[[[[131.0,37.225],[129.75,37.4],[131.0,36.816667],[131.0,37.225]]]]}},{"type":"Feature","properties":{"ident":"RK D118","name":"JEJU","type":"Danger Area","airspaceClass":null,"upper":"2 500 AGL","upperFt":2500,"upperRef":"AGL","lower":"GND","lowerFt":0,"lowerRef":"GND","remarks":null,"dng_lbl_1":"D118","dng_lbl_2":"2 500 AGL","dng_lbl_3":"GND","category":"위험구역","source":"국토교통부 공역정보 KMZ","cycle":"AIP 2026년 10차"},"geometry":{"type":"MultiPolygon","coordinates":[[[[128.5,34.0],[127.666667,34.0],[127.666667,33.166667],[127.833333,33.166667],[128.5,34.0]]]]}},{"type":"Feature","properties":{"ident":"RK D119","name":"ULSAN","type":"Danger Area","airspaceClass":null,"upper":"2 500 AGL","upperFt":2500,"upperRef":"AGL","lower":"GND","lowerFt":0,"lowerRef":"GND","remarks":null,"dng_lbl_1":"D119","dng_lbl_2":"2 500 AGL","dng_lbl_3":"GND","category":"위험구역","source":"국토교통부 공역정보 KMZ","cycle":"AIP 2026년 10차"},"geometry":{"type":"MultiPolygon","coordinates":[[[[130.203333,35.716667],[129.668056,35.783333],[129.668056,35.466667],[129.863333,35.465556],[130.203333,35.626667],[130.203333,35.716667]]]]}},{"type":"Feature","properties":{"ident":"RK D120","name":"DONG-HAE-DONG-BU","type":"Danger Area","airspaceClass":null,"upper":"FL 380","upperFt":38000,"upperRef":"FL","lower":"GND","lowerFt":0,"lowerRef":"GND","remarks":null,"dng_lbl_1":"D120","dng_lbl_2":"FL 380","dng_lbl_3":"GND","category":"위험구역","source":"국토교통부 공역정보 KMZ","cycle":"AIP 2026년 10차"},"geometry":{"type":"MultiPolygon","coordinates":[[[[130.916667,36.416667],[130.416667,36.733333],[130.416667,36.033333],[130.483333,36.033333],[130.916667,36.283333],[130.916667,36.416667]]]]}},{"type":"Feature","properties":{"ident":"RK D121","name":"SOKCHO","type":"Danger Area","airspaceClass":null,"upper":"2 500 AGL","upperFt":2500,"upperRef":"AGL","lower":"GND","lowerFt":0,"lowerRef":"GND","remarks":null,"dng_lbl_1":"D121","dng_lbl_2":"2 500 AGL","dng_lbl_3":"GND","category":"위험구역","source":"국토교통부 공역정보 KMZ","cycle":"AIP 2026년 10차"},"geometry":{"type":"MultiPolygon","coordinates":[[[[129.5,38.416667],[128.75,38.416667],[128.75,38.283333],[129.0,38.283333],[129.0,38.166667],[129.5,38.166667],[129.5,38.416667]]]]}},{"type":"Feature","properties":{"ident":"RK D123","name":"EOCHUNGDO","type":"Danger Area","airspaceClass":null,"upper":"3 700 AGL","upperFt":3700,"upperRef":"AGL","lower":"GND","lowerFt":0,"lowerRef":"GND","remarks":null,"dng_lbl_1":"D123","dng_lbl_2":"3 700 AGL","dng_lbl_3":"GND","category":"위험구역","source":"국토교통부 공역정보 KMZ","cycle":"AIP 2026년 10차"},"geometry":{"type":"MultiPolygon","coordinates":[[[[125.5,36.0],[125.0,36.0],[125.0,35.583333],[125.5,35.583333],[125.5,36.0]]]]}},{"type":"Feature","properties":{"ident":"RK D126","name":"CHUJADO","type":"Danger Area","airspaceClass":null,"upper":"3 000 AGL","upperFt":3000,"upperRef":"AGL","lower":"GND","lowerFt":0,"lowerRef":"GND","remarks":null,"dng_lbl_1":"D126","dng_lbl_2":"3 000 AGL","dng_lbl_3":"GND","category":"위험구역","source":"국토교통부 공역정보 KMZ","cycle":"AIP 2026년 10차"},"geometry":{"type":"MultiPolygon","coordinates":[[[[126.0,34.0],[125.8,34.0],[125.8,33.5],[126.0,33.5],[126.0,34.0]]]]}},{"type":"Feature","properties":{"ident":"RK D128","name":"CHUJADO","type":"Danger Area","airspaceClass":null,"upper":"7 000 AGL","upperFt":7000,"upperRef":"AGL","lower":"GND","lowerFt":0,"lowerRef":"GND","remarks":null,"dng_lbl_1":"D128","dng_lbl_2":"7 000 AGL","dng_lbl_3":"GND","category":"위험구역","source":"국토교통부 공역정보 KMZ","cycle":"AIP 2026년 10차"},"geometry":{"type":"MultiPolygon","coordinates":[[[[126.616667,33.0],[126.466667,32.666667],[126.75,32.666667],[126.616667,33.0]]]]}},{"type":"Feature","properties":{"ident":"RK D13","name":"IPCHANG","type":"Danger Area","airspaceClass":null,"upper":"3 000 AGL","upperFt":3000,"upperRef":"AGL","lower":"GND","lowerFt":0,"lowerRef":"GND","remarks":"Danger","dng_lbl_1":"D13","dng_lbl_2":"3 000 AGL","dng_lbl_3":"GND","category":"위험구역","source":"국토교통부 공역정보 KMZ","cycle":"AIP 2026년 10차"},"geometry":{"type":"MultiPolygon","coordinates":[[[[127.163049,36.908053],[127.165247,36.908224],[127.167415,36.908565],[127.169532,36.909072],[127.171578,36.909741],[127.173534,36.910565],[127.175381,36.911537],[127.177104,36.912647],[127.178685,36.913886],[127.18011,36.915242],[127.181365,36.916701],[127.182439,36.918251],[127.183322,36.919877],[127.184005,36.921564],[127.184482,36.923296],[127.184749,36.925057],[127.184803,36.92683],[127.184643,36.928599],[127.184272,36.930348],[127.183692,36.93206],[127.182909,36.933718],[127.18193,36.935308],[127.180764,36.936815],[127.179423,36.938225],[127.177919,36.939524],[127.176265,36.940701],[127.174477,36.941743],[127.172573,36.942643],[127.170569,36.94339],[127.168484,36.943979],[127.166338,36.944404],[127.164152,36.94466],[127.161944,36.944746],[127.159737,36.94466],[127.15755,36.944404],[127.155405,36.943979],[127.15332,36.94339],[127.151316,36.942643],[127.149412,36.941743],[127.147624,36.940701],[127.14597,36.939524],[127.144466,36.938225],[127.143124,36.936815],[127.141959,36.935308],[127.14098,36.933718],[127.140197,36.93206],[127.139617,36.930348],[127.139246,36.928599],[127.139086,36.92683],[127.13914,36.925057],[127.139407,36.923296],[127.139884,36.921564],[127.140567,36.919877],[127.14145,36.918251],[127.142524,36.916701],[127.143779,36.915242],[127.145204,36.913886],[127.146785,36.912647],[127.148507,36.911537],[127.150355,36.910565],[127.152311,36.909741],[127.154357,36.909072],[127.156474,36.908565],[127.158642,36.908224],[127.16084,36.908053],[127.163049,36.908053]]]]}},{"type":"Feature","properties":{"ident":"RK D131","name":"BAENGNYEONG","type":"Danger Area","airspaceClass":null,"upper":"5 000 AMSL","upperFt":5000,"upperRef":"AMSL","lower":"SFC","lowerFt":0,"lowerRef":"SFC","remarks":null,"dng_lbl_1":"D131","dng_lbl_2":"5 000 AMSL","dng_lbl_3":"SFC","category":"위험구역","source":"국토교통부 공역정보 KMZ","cycle":"AIP 2026년 10차"},"geometry":{"type":"MultiPolygon","coordinates":[[[[124.708333,37.989167],[124.636111,37.983333],[124.069444,37.983333],[124.069444,37.9],[124.636111,37.9],[124.708333,37.9],[124.708333,37.989167]]]]}},{"type":"Feature","properties":{"ident":"RK D134","name":"YEONPYONGDO","type":"Danger Area","airspaceClass":null,"upper":"5 000 AGL","upperFt":5000,"upperRef":"AGL","lower":"GND","lowerFt":0,"lowerRef":"GND","remarks":null,"dng_lbl_1":"D134","dng_lbl_2":"5 000 AGL","dng_lbl_3":"GND","category":"위험구역","source":"국토교통부 공역정보 KMZ","cycle":"AIP 2026년 10차"},"geometry":{"type":"MultiPolygon","coordinates":[[[[124.933333,37.7],[124.75,37.7],[124.75,37.644444],[124.8,37.5375],[125.066667,37.433333],[125.4,37.433333],[125.4,37.5125],[125.65,37.622222],[125.694444,37.622222],[125.694444,37.683333],[125.658333,37.683333],[125.533333,37.666667],[125.245833,37.566667],[125.025,37.625],[124.933333,37.7]]]]}},{"type":"Feature","properties":{"ident":"RK D135","name":"GISAMUN","type":"Danger Area","airspaceClass":null,"upper":"500 AGL","upperFt":500,"upperRef":"AGL","lower":"GND","lowerFt":0,"lowerRef":"GND","remarks":null,"dng_lbl_1":"D135","dng_lbl_2":"500 AGL","dng_lbl_3":"GND","category":"위험구역","source":"국토교통부 공역정보 KMZ","cycle":"AIP 2026년 10차"},"geometry":{"type":"MultiPolygon","coordinates":[[[[129.066667,38.158333],[128.9625,38.1],[129.404167,37.558333],[129.505556,37.616667],[129.066667,38.158333]]]]}},{"type":"Feature","properties":{"ident":"RK D136","name":"SAMCHEOK","type":"Danger Area","airspaceClass":null,"upper":"500 AGL","upperFt":500,"upperRef":"AGL","lower":"GND","lowerFt":0,"lowerRef":"GND","remarks":null,"dng_lbl_1":"D136","dng_lbl_2":"500 AGL","dng_lbl_3":"GND","category":"위험구역","source":"국토교통부 공역정보 KMZ","cycle":"AIP 2026년 10차"},"geometry":{"type":"MultiPolygon","coordinates":[[[[129.616667,37.469444],[129.5125,37.416667],[129.666667,37.075],[129.786111,37.108333],[129.616667,37.469444]]]]}},{"type":"Feature","properties":{"ident":"RK D14","name":"JAECHEON","type":"Danger Area","airspaceClass":null,"upper":"3 000 AGL","upperFt":3000,"upperRef":"AGL","lower":"GND","lowerFt":0,"lowerRef":"GND","remarks":"Danger","dng_lbl_1":"D14","dng_lbl_2":"3 000 AGL","dng_lbl_3":"GND","category":"위험구역","source":"국토교통부 공역정보 KMZ","cycle":"AIP 2026년 10차"},"geometry":{"type":"MultiPolygon","coordinates":[[[[128.248066,37.071364],[128.250305,37.071472],[128.252532,37.071686],[128.254738,37.072007],[128.256917,37.072433],[128.259061,37.072962],[128.261161,37.073594],[128.26321,37.074324],[128.265201,37.075152],[128.267126,37.076073],[128.26898,37.077086],[128.270755,37.078185],[128.272444,37.079367],[128.274043,37.080628],[128.275544,37.081963],[128.276943,37.083368],[128.278235,37.084837],[128.279415,37.086365],[128.280479,37.087948],[128.281422,37.089578],[128.282243,37.091251],[128.282937,37.09296],[128.283502,37.094699],[128.283937,37.096462],[128.284239,37.098243],[128.284407,37.100035],[128.284442,37.101832],[128.284342,37.103628],[128.284108,37.105415],[128.283741,37.107188],[128.283243,37.10894],[128.282614,37.110666],[128.281858,37.112358],[128.280977,37.114011],[128.279974,37.115618],[128.278853,37.117175],[128.277617,37.118675],[128.276271,37.120114],[128.274821,37.121485],[128.27327,37.122784],[128.271625,37.124007],[128.269892,37.125149],[128.268076,37.126205],[128.266185,37.127173],[128.264225,37.128049],[128.262203,37.128829],[128.260126,37.129511],[128.258002,37.130092],[128.255839,37.13057],[128.253643,37.130944],[128.251424,37.131212],[128.249188,37.131373],[128.246944,37.131427],[128.244701,37.131373],[128.242465,37.131212],[128.240246,37.130944],[128.23805,37.13057],[128.235887,37.130092],[128.233763,37.129511],[128.231686,37.128829],[128.229664,37.128049],[128.227704,37.127173],[128.225812,37.126205],[128.223997,37.125149],[128.222264,37.124007],[128.220619,37.122784],[128.219068,37.121485],[128.217618,37.120114],[128.216272,37.118675],[128.215036,37.117175],[128.213915,37.115618],[128.212912,37.114011],[128.212031,37.112358],[128.211274,37.110666],[128.210646,37.10894],[128.210147,37.107188],[128.209781,37.105415],[128.209547,37.103628],[128.209447,37.101832],[128.209482,37.100035],[128.20965,37.098243],[128.209952,37.096462],[128.210387,37.094699],[128.210952,37.09296],[128.211646,37.091251],[128.212466,37.089578],[128.21341,37.087948],[128.214474,37.086365],[128.215654,37.084837],[128.216946,37.083368],[128.218345,37.081963],[128.219846,37.080628],[128.221445,37.079367],[128.223134,37.078185],[128.224909,37.077086],[128.226762,37.076073],[128.228688,37.075152],[128.230679,37.074324],[128.232728,37.073594],[128.234828,37.072962],[128.236972,37.072433],[128.239151,37.072007],[128.241357,37.071686],[128.243584,37.071472],[128.245823,37.071364],[128.248066,37.071364]]]]}},{"type":"Feature","properties":{"ident":"RK D140","name":"Sokcho KCG","type":"Danger Area","airspaceClass":null,"upper":"300 AMSL","upperFt":300,"upperRef":"AMSL","lower":"SFC","lowerFt":0,"lowerRef":"SFC","remarks":null,"dng_lbl_1":"D140","dng_lbl_2":"300 AMSL","dng_lbl_3":"SFC","category":"위험구역","source":"국토교통부 공역정보 KMZ","cycle":"AIP 2026년 10차"},"geometry":{"type":"MultiPolygon","coordinates":[[[[128.85,38.216739],[128.842019,38.216441],[128.83355,38.215463],[128.825795,38.213946],[128.817729,38.211686],[128.810498,38.209007],[128.803144,38.205552],[128.796713,38.201814],[128.790352,38.197296],[128.784966,38.192641],[128.779842,38.187233],[128.775707,38.18184],[128.772014,38.175748],[128.769288,38.169823],[128.767168,38.163281],[128.765954,38.157051],[128.765486,38.150307],[128.76583,38.14401],[128.767031,38.137323],[128.768918,38.131199],[128.771742,38.124825],[128.775101,38.119107],[128.779439,38.113288],[128.784139,38.108194],[128.789825,38.103152],[128.795689,38.098878],[128.802505,38.094805],[128.809307,38.091513],[128.816995,38.088565],[128.824476,38.08638],[128.832741,38.084668],[128.841183,38.083625],[128.849715,38.083261],[128.85825,38.083579],[128.8667,38.084578],[128.87498,38.086245],[128.88248,38.08839],[128.890192,38.091297],[128.897022,38.094554],[128.903874,38.09859],[128.909773,38.102833],[128.915502,38.107844],[128.920246,38.112912],[128.924633,38.118708],[128.928041,38.124408],[128.930919,38.130767],[128.932859,38.136882],[128.934117,38.143561],[128.934515,38.149857],[128.934104,38.156603],[128.932832,38.163281],[128.930712,38.169823],[128.927986,38.175748],[128.924293,38.18184],[128.920158,38.187233],[128.915034,38.192641],[128.909648,38.197296],[128.903287,38.201814],[128.896856,38.205552],[128.889502,38.209007],[128.882271,38.211686],[128.874205,38.213946],[128.86645,38.215463],[128.857981,38.216441],[128.85,38.216739]]]]}},{"type":"Feature","properties":{"ident":"RK D141","name":"Donghae KCG","type":"Danger Area","airspaceClass":null,"upper":"300 AMSL","upperFt":300,"upperRef":"AMSL","lower":"SFC","lowerFt":0,"lowerRef":"SFC","remarks":null,"dng_lbl_1":"D141","dng_lbl_2":"300 AMSL","dng_lbl_3":"SFC","category":"위험구역","source":"국토교통부 공역정보 KMZ","cycle":"AIP 2026년 10차"},"geometry":{"type":"MultiPolygon","coordinates":[[[[131.416667,37.668056],[131.2,37.668056],[131.2,37.501389],[131.416667,37.501389],[131.416667,37.668056]]]]}},{"type":"Feature","properties":{"ident":"RK D142B","name":"Pohang KCG B","type":"Danger Area","airspaceClass":null,"upper":"300 AMSL","upperFt":300,"upperRef":"AMSL","lower":"SFC","lowerFt":0,"lowerRef":"SFC","remarks":null,"dng_lbl_1":"D142B","dng_lbl_2":"300 AMSL","dng_lbl_3":"SFC","category":"위험구역","source":"국토교통부 공역정보 KMZ","cycle":"AIP 2026년 10차"},"geometry":{"type":"MultiPolygon","coordinates":[[[[129.833333,36.416782],[129.827763,36.416661],[129.822763,36.416343],[129.817788,36.41583],[129.81285,36.415122],[129.80796,36.41422],[129.80313,36.413128],[129.798372,36.411847],[129.793697,36.41038],[129.788612,36.408538],[129.784147,36.406692],[129.779799,36.404673],[129.775578,36.402485],[129.771493,36.400134],[129.767554,36.397625],[129.763771,36.394965],[129.760152,36.392159],[129.756335,36.388879],[129.753091,36.385788],[129.750037,36.382573],[129.74718,36.379242],[129.744527,36.375803],[129.742084,36.372263],[129.739856,36.368632],[129.737849,36.364918],[129.736067,36.361129],[129.734516,36.357274],[129.733198,36.353363],[129.732116,36.349405],[129.731273,36.345409],[129.730671,36.341385],[129.730312,36.337341],[129.730195,36.333289],[129.730352,36.328787],[129.730749,36.324746],[129.731388,36.320725],[129.732267,36.316734],[129.733385,36.312783],[129.734738,36.30888],[129.736324,36.305035],[129.738139,36.301257],[129.740418,36.297148],[129.7427,36.29354],[129.745196,36.290025],[129.7479,36.286613],[129.750805,36.283312],[129.753904,36.280128],[129.75719,36.27707],[129.760656,36.274144],[129.764707,36.271058],[129.768524,36.268435],[129.772493,36.265965],[129.776605,36.263653],[129.780851,36.261507],[129.785221,36.259529],[129.789703,36.257726],[129.794289,36.2561],[129.798966,36.254657],[129.803724,36.2534],[129.808552,36.25233],[129.813438,36.251452],[129.818371,36.250767],[129.823339,36.250276],[129.82833,36.249982],[129.833333,36.249883],[129.838337,36.249982],[129.843328,36.250276],[129.848296,36.250767],[129.853229,36.251452],[129.858115,36.25233],[129.862943,36.2534],[129.867701,36.254657],[129.872378,36.2561],[129.876963,36.257726],[129.881446,36.259529],[129.885815,36.261507],[129.890061,36.263653],[129.894174,36.265965],[129.898143,36.268435],[129.90196,36.271058],[129.906011,36.274144],[129.909476,36.27707],[129.912763,36.280128],[129.915862,36.283312],[129.918767,36.286613],[129.92147,36.290025],[129.923966,36.29354],[129.926249,36.297148],[129.928528,36.301257],[129.930342,36.305035],[129.931928,36.30888],[129.933282,36.312783],[129.9344,36.316734],[129.935279,36.320725],[129.935918,36.324746],[129.936315,36.328787],[129.936471,36.333289],[129.936355,36.337341],[129.935995,36.341385],[129.935394,36.345409],[129.934551,36.349405],[129.933469,36.353363],[129.932151,36.357274],[129.930599,36.361129],[129.928818,36.364918],[129.926811,36.368632],[129.924583,36.372263],[129.92214,36.375803],[129.919486,36.379242],[129.916629,36.382573],[129.913575,36.385788],[129.910332,36.388879],[129.906514,36.392159],[129.902896,36.394965],[129.899113,36.397625],[129.895174,36.400134],[129.891089,36.402485],[129.886868,36.404673],[129.882519,36.406692],[129.878055,36.408538],[129.87297,36.41038],[129.868295,36.411847],[129.863536,36.413128],[129.858707,36.41422],[129.853817,36.415122],[129.848879,36.41583],[129.843904,36.416343],[129.838904,36.416661],[129.833333,36.416782]]]]}},{"type":"Feature","properties":{"ident":"RK D142C","name":"Pohang KCG C","type":"Danger Area","airspaceClass":null,"upper":"300 AMSL","upperFt":300,"upperRef":"AMSL","lower":"SFC","lowerFt":0,"lowerRef":"SFC","remarks":null,"dng_lbl_1":"D142C","dng_lbl_2":"300 AMSL","dng_lbl_3":"SFC","category":"위험구역","source":"국토교통부 공역정보 KMZ","cycle":"AIP 2026년 10차"},"geometry":{"type":"MultiPolygon","coordinates":[[[[129.75,36.166786],[129.744447,36.166664],[129.739463,36.166347],[129.734504,36.165833],[129.729581,36.165125],[129.724707,36.164224],[129.719893,36.163131],[129.71515,36.16185],[129.710489,36.160384],[129.705421,36.158541],[129.700971,36.156695],[129.696636,36.154676],[129.692428,36.152488],[129.688356,36.150137],[129.68443,36.147628],[129.680659,36.144968],[129.677052,36.142162],[129.673247,36.138881],[129.670013,36.13579],[129.666969,36.132575],[129.664121,36.129244],[129.661476,36.125805],[129.65904,36.122265],[129.65682,36.118634],[129.654819,36.114919],[129.653043,36.11113],[129.651497,36.107275],[129.650182,36.103364],[129.649104,36.099406],[129.648264,36.09541],[129.647664,36.091385],[129.647306,36.087342],[129.64719,36.083289],[129.647345,36.078787],[129.647741,36.074746],[129.648378,36.070725],[129.649254,36.066734],[129.650369,36.062782],[129.651718,36.058879],[129.653299,36.055034],[129.655107,36.051256],[129.657379,36.047146],[129.659654,36.043538],[129.662142,36.040024],[129.664837,36.036612],[129.667733,36.03331],[129.670822,36.030126],[129.674098,36.027067],[129.677553,36.024142],[129.681591,36.021055],[129.685396,36.018432],[129.689352,36.015962],[129.693452,36.013651],[129.697684,36.011504],[129.70204,36.009526],[129.706508,36.007723],[129.711079,36.006097],[129.715741,36.004654],[129.720484,36.003396],[129.725297,36.002327],[129.730167,36.001449],[129.735085,36.000764],[129.740037,36.000273],[129.745013,35.999978],[129.75,35.99988],[129.754987,35.999978],[129.759963,36.000273],[129.764915,36.000764],[129.769833,36.001449],[129.774703,36.002327],[129.779516,36.003396],[129.784259,36.004654],[129.788921,36.006097],[129.793492,36.007723],[129.79796,36.009526],[129.802316,36.011504],[129.806548,36.013651],[129.810648,36.015962],[129.814604,36.018432],[129.818409,36.021055],[129.822447,36.024142],[129.825902,36.027067],[129.829178,36.030126],[129.832267,36.03331],[129.835163,36.036612],[129.837858,36.040024],[129.840346,36.043538],[129.842621,36.047146],[129.844893,36.051256],[129.846701,36.055034],[129.848282,36.058879],[129.849631,36.062782],[129.850746,36.066734],[129.851622,36.070725],[129.852259,36.074746],[129.852655,36.078787],[129.85281,36.083289],[129.852694,36.087342],[129.852336,36.091385],[129.851736,36.09541],[129.850896,36.099406],[129.849818,36.103364],[129.848503,36.107275],[129.846957,36.11113],[129.845181,36.114919],[129.84318,36.118634],[129.84096,36.122265],[129.838524,36.125805],[129.835879,36.129244],[129.833031,36.132575],[129.829987,36.13579],[129.826753,36.138881],[129.822948,36.142162],[129.819341,36.144968],[129.81557,36.147628],[129.811644,36.150137],[129.807572,36.152488],[129.803364,36.154676],[129.799029,36.156695],[129.794579,36.158541],[129.789511,36.160384],[129.78485,36.16185],[129.780107,36.163131],[129.775293,36.164224],[129.770419,36.165125],[129.765496,36.165833],[129.760537,36.166347],[129.755553,36.166664],[129.75,36.166786]]]]}},{"type":"Feature","properties":{"ident":"RK D143","name":"Busan KCG","type":"Danger Area","airspaceClass":null,"upper":"300 AMSL","upperFt":300,"upperRef":"AMSL","lower":"SFC","lowerFt":0,"lowerRef":"SFC","remarks":null,"dng_lbl_1":"D143","dng_lbl_2":"300 AMSL","dng_lbl_3":"SFC","category":"위험구역","source":"국토교통부 공역정보 KMZ","cycle":"AIP 2026년 10차"},"geometry":{"type":"MultiPolygon","coordinates":[[[[129.283333,35.119444],[129.173611,35.019444],[129.236111,34.972222],[129.344444,35.073611],[129.283333,35.119444]]]]}},{"type":"Feature","properties":{"ident":"RK D147","name":"Seogwipo KCG","type":"Danger Area","airspaceClass":null,"upper":"300 AMSL","upperFt":300,"upperRef":"AMSL","lower":"SFC","lowerFt":0,"lowerRef":"SFC","remarks":null,"dng_lbl_1":"D147","dng_lbl_2":"300 AMSL","dng_lbl_3":"SFC","category":"위험구역","source":"국토교통부 공역정보 KMZ","cycle":"AIP 2026년 10차"},"geometry":{"type":"MultiPolygon","coordinates":[[[[126.333333,32.766866],[126.327468,32.766743],[126.321618,32.766375],[126.315796,32.765763],[126.310018,32.764908],[126.304296,32.763812],[126.298646,32.762479],[126.293081,32.76091],[126.287615,32.759111],[126.282261,32.757085],[126.277032,32.754838],[126.271942,32.752375],[126.267002,32.749702],[126.262225,32.746826],[126.257623,32.743754],[126.253206,32.740492],[126.249361,32.73737],[126.245329,32.733771],[126.241512,32.730008],[126.237921,32.72609],[126.234563,32.722026],[126.231448,32.717827],[126.228583,32.713502],[126.225974,32.709063],[126.223628,32.704521],[126.221551,32.699885],[126.219748,32.695169],[126.218223,32.690383],[126.21698,32.685539],[126.216022,32.680649],[126.215351,32.675724],[126.214969,32.670778],[126.214874,32.666273],[126.215045,32.661318],[126.215505,32.656377],[126.216254,32.651461],[126.21729,32.646582],[126.218609,32.641752],[126.220208,32.636984],[126.222084,32.632288],[126.224232,32.627677],[126.226647,32.623161],[126.229322,32.618751],[126.232252,32.614459],[126.235428,32.610295],[126.238844,32.606268],[126.24249,32.60239],[126.246359,32.598668],[126.25006,32.595429],[126.254325,32.592033],[126.258782,32.588819],[126.263422,32.585796],[126.268233,32.58297],[126.273202,32.580349],[126.278318,32.57794],[126.283568,32.575747],[126.288447,32.573946],[126.293917,32.572182],[126.299484,32.570648],[126.305134,32.56935],[126.310852,32.568289],[126.316625,32.567469],[126.322439,32.566891],[126.328279,32.566558],[126.333599,32.566466],[126.338919,32.566578],[126.344758,32.566934],[126.350569,32.567534],[126.356337,32.568376],[126.36205,32.569458],[126.367692,32.570778],[126.373251,32.572333],[126.378712,32.574118],[126.383581,32.575937],[126.38882,32.57815],[126.393923,32.580579],[126.398878,32.583219],[126.403673,32.586063],[126.408297,32.589104],[126.412738,32.592334],[126.416985,32.595747],[126.420669,32.599],[126.424517,32.602736],[126.428143,32.606628],[126.431537,32.610668],[126.434691,32.614844],[126.437598,32.619147],[126.44025,32.623567],[126.442641,32.628092],[126.444764,32.632712],[126.446615,32.637415],[126.44819,32.642189],[126.449483,32.647023],[126.450492,32.651906],[126.451215,32.656825],[126.451649,32.661768],[126.451794,32.666723],[126.451674,32.671229],[126.451266,32.676173],[126.450569,32.681095],[126.449585,32.685981],[126.448316,32.69082],[126.446766,32.695601],[126.444938,32.70031],[126.442836,32.704938],[126.440693,32.709063],[126.438084,32.713502],[126.435219,32.717827],[126.432103,32.722026],[126.428746,32.72609],[126.425154,32.730008],[126.421338,32.733771],[126.417305,32.73737],[126.41346,32.740492],[126.409044,32.743754],[126.404441,32.746826],[126.399664,32.749702],[126.394725,32.752375],[126.389634,32.754838],[126.384406,32.757085],[126.379052,32.759111],[126.373586,32.76091],[126.368021,32.762479],[126.36237,32.763812],[126.356649,32.764908],[126.35087,32.765763],[126.345049,32.766375],[126.339198,32.766743],[126.333333,32.766866]]]]}},{"type":"Feature","properties":{"ident":"RK D15","name":"YEONGDEOK","type":"Danger Area","airspaceClass":null,"upper":"3 000 AGL","upperFt":3000,"upperRef":"AGL","lower":"GND","lowerFt":0,"lowerRef":"GND","remarks":"Danger","dng_lbl_1":"D15","dng_lbl_2":"3 000 AGL","dng_lbl_3":"GND","category":"위험구역","source":"국토교통부 공역정보 KMZ","cycle":"AIP 2026년 10차"},"geometry":{"type":"MultiPolygon","coordinates":[[[[127.167219,36.635315],[127.169425,36.63552],[127.171606,36.635861],[127.173747,36.636335],[127.175838,36.63694],[127.177864,36.637672],[127.179816,36.638527],[127.18168,36.639499],[127.183446,36.640584],[127.185105,36.641775],[127.186645,36.643064],[127.188059,36.644445],[127.189337,36.645908],[127.190473,36.647447],[127.191459,36.64905],[127.19229,36.65071],[127.192961,36.652417],[127.193468,36.654159],[127.193807,36.655928],[127.193978,36.657713],[127.193979,36.659503],[127.193809,36.661287],[127.193471,36.663056],[127.192965,36.664799],[127.192296,36.666506],[127.191466,36.668166],[127.19048,36.66977],[127.189345,36.671309],[127.188067,36.672773],[127.186654,36.674154],[127.185114,36.675444],[127.183455,36.676635],[127.181688,36.677721],[127.179823,36.678694],[127.177871,36.679549],[127.175844,36.680281],[127.173752,36.680886],[127.17161,36.681361],[127.169428,36.681702],[127.167221,36.681907],[127.165,36.681976],[127.162779,36.681907],[127.160572,36.681702],[127.15839,36.681361],[127.156248,36.680886],[127.154156,36.680281],[127.152129,36.679549],[127.150177,36.678694],[127.148312,36.677721],[127.146545,36.676635],[127.144886,36.675444],[127.143346,36.674154],[127.141933,36.672773],[127.140655,36.671309],[127.13952,36.66977],[127.138534,36.668166],[127.137704,36.666506],[127.137035,36.664799],[127.136529,36.663056],[127.136191,36.661287],[127.136021,36.659503],[127.136022,36.657713],[127.136193,36.655928],[127.136532,36.654159],[127.137039,36.652417],[127.13771,36.65071],[127.138541,36.64905],[127.139527,36.647447],[127.140663,36.645908],[127.141941,36.644445],[127.143355,36.643064],[127.144895,36.641775],[127.146554,36.640584],[127.14832,36.639499],[127.150184,36.638527],[127.152136,36.637672],[127.154162,36.63694],[127.156253,36.636335],[127.158394,36.635861],[127.160575,36.63552],[127.162781,36.635315],[127.165,36.635246],[127.167219,36.635315]]]]}},{"type":"Feature","properties":{"ident":"RK D150","name":"Seogwipo KCG Buk-Bu","type":"Danger Area","airspaceClass":null,"upper":"300 AMSL","upperFt":300,"upperRef":"AMSL","lower":"SFC","lowerFt":0,"lowerRef":"SFC","remarks":null,"dng_lbl_1":"D150","dng_lbl_2":"300 AMSL","dng_lbl_3":"SFC","category":"위험구역","source":"국토교통부 공역정보 KMZ","cycle":"AIP 2026년 10차"},"geometry":{"type":"MultiPolygon","coordinates":[[[[126.483333,33.141667],[126.366667,33.141667],[126.366667,32.975],[126.483333,32.975],[126.483333,33.141667]]]]}},{"type":"Feature","properties":{"ident":"RK D153","name":"DAECHONGDO SEOBU","type":"Danger Area","airspaceClass":null,"upper":"3 000 AMSL","upperFt":3000,"upperRef":"AMSL","lower":"SFC","lowerFt":0,"lowerRef":"SFC","remarks":null,"dng_lbl_1":"D153","dng_lbl_2":"3 000 AMSL","dng_lbl_3":"SFC","category":"위험구역","source":"국토교통부 공역정보 KMZ","cycle":"AIP 2026년 10차"},"geometry":{"type":"MultiPolygon","coordinates":[[[[124.611111,37.748611],[124.086111,37.748611],[124.086111,37.503889],[124.611111,37.502778],[124.611111,37.748611]]]]}},{"type":"Feature","properties":{"ident":"RK D156","name":"JUMUNJIN","type":"Danger Area","airspaceClass":null,"upper":"3 500 AMSL","upperFt":3500,"upperRef":"AMSL","lower":"SFC","lowerFt":0,"lowerRef":"SFC","remarks":null,"dng_lbl_1":"D156","dng_lbl_2":"3 500 AMSL","dng_lbl_3":"SFC","category":"위험구역","source":"국토교통부 공역정보 KMZ","cycle":"AIP 2026년 10차"},"geometry":{"type":"MultiPolygon","coordinates":[[[[129.766667,38.233333],[129.0,38.233333],[129.0,38.166667],[129.316667,38.166667],[129.633333,37.8],[129.766667,37.8],[129.766667,38.233333]]]]}},{"type":"Feature","properties":{"ident":"RK D16","name":"JANGDONG","type":"Danger Area","airspaceClass":null,"upper":"2 000 AGL","upperFt":2000,"upperRef":"AGL","lower":"GND","lowerFt":0,"lowerRef":"GND","remarks":"Danger","dng_lbl_1":"D16","dng_lbl_2":"2 000 AGL","dng_lbl_3":"GND","category":"위험구역","source":"국토교통부 공역정보 KMZ","cycle":"AIP 2026년 10차"},"geometry":{"type":"MultiPolygon","coordinates":[[[[127.444988,36.404445],[127.447173,36.404634],[127.449321,36.405009],[127.451408,36.405567],[127.453409,36.406301],[127.455303,36.407203],[127.457067,36.408262],[127.458682,36.409467],[127.46013,36.410804],[127.461393,36.412257],[127.462459,36.413811],[127.463314,36.415448],[127.463949,36.417149],[127.464356,36.418894],[127.464532,36.420665],[127.464474,36.422441],[127.464183,36.424202],[127.463662,36.425928],[127.462916,36.427599],[127.461955,36.429197],[127.46079,36.430703],[127.459432,36.4321],[127.457899,36.433373],[127.456206,36.434507],[127.454375,36.43549],[127.452424,36.436309],[127.450376,36.436956],[127.448255,36.437424],[127.446084,36.437706],[127.443889,36.437801],[127.441693,36.437706],[127.439523,36.437424],[127.437402,36.436956],[127.435354,36.436309],[127.433403,36.43549],[127.431571,36.434507],[127.429879,36.433373],[127.428346,36.4321],[127.426988,36.430703],[127.425822,36.429197],[127.424862,36.427599],[127.424116,36.425928],[127.423595,36.424202],[127.423304,36.422441],[127.423246,36.420665],[127.423421,36.418894],[127.423829,36.417149],[127.424464,36.415448],[127.425319,36.413811],[127.426385,36.412257],[127.427648,36.410804],[127.429096,36.409467],[127.430711,36.408262],[127.432475,36.407203],[127.434369,36.406301],[127.43637,36.405567],[127.438457,36.405009],[127.440605,36.404634],[127.44279,36.404445],[127.444988,36.404445]]]]}},{"type":"Feature","properties":{"ident":"RK D17","name":"임실","type":"Danger Area","airspaceClass":null,"upper":"3 000 AGL","upperFt":3000,"upperRef":"AGL","lower":"GND","lowerFt":0,"lowerRef":"GND","remarks":"Danger","dng_lbl_1":"D17","dng_lbl_2":"3 000 AGL","dng_lbl_3":"GND","category":"위험구역","source":"국토교통부 공역정보 KMZ","cycle":"AIP 2026년 10차"},"geometry":{"type":"MultiPolygon","coordinates":[[[[127.254167,35.696439],[127.25197,35.696391],[127.24978,35.696247],[127.247602,35.696007],[127.245443,35.695671],[127.24331,35.695242],[127.241207,35.69472],[127.239143,35.694107],[127.237121,35.693404],[127.235149,35.692614],[127.233232,35.691738],[127.231375,35.69078],[127.229584,35.689741],[127.227863,35.688626],[127.226219,35.687437],[127.224656,35.686178],[127.223177,35.684851],[127.221788,35.683463],[127.220492,35.682015],[127.219294,35.680512],[127.218196,35.67896],[127.217202,35.677361],[127.216315,35.675721],[127.215536,35.674045],[127.21487,35.672337],[127.214316,35.670602],[127.213878,35.668846],[127.213555,35.667073],[127.21335,35.665288],[127.213263,35.663497],[127.213293,35.661704],[127.213441,35.659916],[127.213707,35.658137],[127.214089,35.656371],[127.214587,35.654625],[127.215199,35.652904],[127.215923,35.651211],[127.216758,35.649553],[127.2177,35.647934],[127.218747,35.646359],[127.219896,35.644831],[127.221145,35.643356],[127.222488,35.641938],[127.223922,35.640581],[127.225444,35.639288],[127.227048,35.638064],[127.228731,35.636913],[127.230487,35.635836],[127.232311,35.634838],[127.234198,35.633921],[127.236142,35.633089],[127.238138,35.632342],[127.240181,35.631684],[127.242264,35.631117],[127.244381,35.630642],[127.246526,35.63026],[127.248693,35.629972],[127.250876,35.62978],[127.253069,35.629684],[127.255264,35.629684],[127.257457,35.62978],[127.25964,35.629972],[127.261807,35.63026],[127.263953,35.630642],[127.26607,35.631117],[127.268152,35.631684],[127.270195,35.632342],[127.272191,35.633089],[127.274136,35.633921],[127.276023,35.634838],[127.277847,35.635836],[127.279602,35.636913],[127.281285,35.638064],[127.282889,35.639288],[127.284411,35.640581],[127.285846,35.641938],[127.287189,35.643356],[127.288437,35.644831],[127.289586,35.646359],[127.290634,35.647934],[127.291576,35.649553],[127.29241,35.651211],[127.293134,35.652904],[127.293746,35.654625],[127.294244,35.656371],[127.294626,35.658137],[127.294892,35.659916],[127.29504,35.661704],[127.295071,35.663497],[127.294983,35.665288],[127.294778,35.667073],[127.294456,35.668846],[127.294017,35.670602],[127.293464,35.672337],[127.292797,35.674045],[127.292019,35.675721],[127.291131,35.677361],[127.290137,35.67896],[127.289039,35.680512],[127.287841,35.682015],[127.286545,35.683463],[127.285156,35.684851],[127.283678,35.686178],[127.282114,35.687437],[127.28047,35.688626],[127.27875,35.689741],[127.276959,35.69078],[127.275102,35.691738],[127.273184,35.692614],[127.271212,35.693404],[127.269191,35.694107],[127.267126,35.69472],[127.265024,35.695242],[127.26289,35.695671],[127.260731,35.696007],[127.258554,35.696247],[127.256363,35.696391],[127.254167,35.696439]]]]}},{"type":"Feature","properties":{"ident":"RK D18","name":"학산","type":"Danger Area","airspaceClass":null,"upper":"3 000 AGL","upperFt":3000,"upperRef":"AGL","lower":"GND","lowerFt":0,"lowerRef":"GND","remarks":"Danger","dng_lbl_1":"D18","dng_lbl_2":"3 000 AGL","dng_lbl_3":"GND","category":"위험구역","source":"국토교통부 공역정보 KMZ","cycle":"AIP 2026년 10차"},"geometry":{"type":"MultiPolygon","coordinates":[[[[127.707222,36.087524],[127.705036,36.087429],[127.702876,36.087147],[127.700764,36.086679],[127.698725,36.086032],[127.696783,36.085213],[127.69496,36.08423],[127.693275,36.083096],[127.691748,36.081823],[127.690397,36.080426],[127.689236,36.078919],[127.68828,36.077322],[127.687538,36.07565],[127.687019,36.073924],[127.686729,36.072163],[127.686671,36.070387],[127.686846,36.068616],[127.687252,36.066871],[127.687884,36.06517],[127.688735,36.063533],[127.689796,36.061979],[127.691054,36.060525],[127.692495,36.059188],[127.694103,36.057984],[127.695859,36.056924],[127.697744,36.056022],[127.699737,36.055288],[127.701814,36.054731],[127.703953,36.054355],[127.706128,36.054166],[127.708316,36.054166],[127.710492,36.054355],[127.71263,36.054731],[127.714707,36.055288],[127.7167,36.056022],[127.718585,36.056924],[127.720342,36.057984],[127.72195,36.059188],[127.723391,36.060525],[127.724649,36.061979],[127.725709,36.063533],[127.726561,36.06517],[127.727193,36.066871],[127.727599,36.068616],[127.727774,36.070387],[127.727716,36.072163],[127.727426,36.073924],[127.726907,36.07565],[127.726165,36.077322],[127.725208,36.078919],[127.724048,36.080426],[127.722696,36.081823],[127.72117,36.083096],[127.719485,36.08423],[127.717661,36.085213],[127.715719,36.086032],[127.713681,36.086679],[127.711569,36.087147],[127.709408,36.087429],[127.707222,36.087524]]]]}},{"type":"Feature","properties":{"ident":"RK D19","name":"주덕","type":"Danger Area","airspaceClass":null,"upper":"1 000 AGL","upperFt":1000,"upperRef":"AGL","lower":"GND","lowerFt":0,"lowerRef":"GND","remarks":"Danger","dng_lbl_1":"D19","dng_lbl_2":"1 000 AGL","dng_lbl_3":"GND","category":"위험구역","source":"국토교통부 공역정보 KMZ","cycle":"AIP 2026년 10차"},"geometry":{"type":"MultiPolygon","coordinates":[[[[127.746111,36.996139],[127.743878,36.996065],[127.741659,36.995843],[127.739472,36.995475],[127.737329,36.994963],[127.735247,36.994311],[127.733239,36.993524],[127.731319,36.992605],[127.7295,36.991563],[127.727794,36.990404],[127.726214,36.989136],[127.72477,36.987768],[127.723471,36.986308],[127.722328,36.984768],[127.721347,36.983156],[127.720535,36.981486],[127.719898,36.979767],[127.71944,36.978012],[127.719164,36.976233],[127.719072,36.974441],[127.719165,36.97265],[127.719442,36.970871],[127.719901,36.969116],[127.720539,36.967397],[127.721352,36.965727],[127.722334,36.964117],[127.723478,36.962576],[127.724777,36.961117],[127.726222,36.959749],[127.727802,36.958482],[127.729507,36.957323],[127.731326,36.956282],[127.733245,36.955364],[127.735252,36.954577],[127.737334,36.953925],[127.739475,36.953414],[127.741662,36.953046],[127.743879,36.952824],[127.746111,36.95275],[127.748343,36.952824],[127.75056,36.953046],[127.752747,36.953414],[127.754888,36.953925],[127.75697,36.954577],[127.758977,36.955364],[127.760897,36.956282],[127.762715,36.957323],[127.76442,36.958482],[127.766001,36.959749],[127.767445,36.961117],[127.768744,36.962576],[127.769888,36.964117],[127.77087,36.965727],[127.771683,36.967397],[127.772321,36.969116],[127.77278,36.970871],[127.773057,36.97265],[127.77315,36.974441],[127.773058,36.976233],[127.772783,36.978012],[127.772325,36.979767],[127.771688,36.981486],[127.770876,36.983156],[127.769894,36.984768],[127.768751,36.986308],[127.767452,36.987768],[127.766008,36.989136],[127.764428,36.990404],[127.762723,36.991563],[127.760904,36.992605],[127.758984,36.993524],[127.756975,36.994311],[127.754893,36.994963],[127.752751,36.995475],[127.750563,36.995843],[127.748345,36.996065],[127.746111,36.996139]]]]}},{"type":"Feature","properties":{"ident":"RK D2","name":"WOLSEONG","type":"Danger Area","airspaceClass":null,"upper":"10 000 AGL","upperFt":10000,"upperRef":"AGL","lower":"GND","lowerFt":0,"lowerRef":"GND","remarks":"Danger","dng_lbl_1":"D2","dng_lbl_2":"10 000 AGL","dng_lbl_3":"GND","category":"위험구역","source":"국토교통부 공역정보 KMZ","cycle":"AIP 2026년 10차"},"geometry":{"type":"MultiPolygon","coordinates":[[[[129.480506,35.684285],[129.48432,35.684771],[129.488588,35.685683],[129.492205,35.686784],[129.495679,35.688158],[129.498978,35.689793],[129.502075,35.691675],[129.505329,35.694105],[129.507899,35.696455],[129.510489,35.699369],[129.512428,35.702093],[129.514045,35.704953],[129.515323,35.707925],[129.516253,35.710982],[129.516825,35.714097],[129.517035,35.717692],[129.516828,35.720837],[129.516259,35.723953],[129.515332,35.72701],[129.513846,35.730399],[129.512185,35.733243],[129.509894,35.736319],[129.507566,35.738833],[129.504957,35.741156],[129.502091,35.743268],[129.498534,35.7454],[129.495206,35.747],[129.491708,35.748337],[129.487542,35.749528],[129.483785,35.750264],[129.47941,35.750748],[129.475548,35.750854],[129.471143,35.750612],[129.467334,35.750083],[129.463603,35.749264],[129.459478,35.747982],[129.456025,35.746569],[129.452751,35.744897],[129.449266,35.742687],[129.446471,35.740513],[129.443602,35.737777],[129.4414,35.735189],[129.439508,35.732444],[129.437941,35.729565],[129.436568,35.726144],[129.435742,35.723067],[129.435276,35.719941],[129.435174,35.716792],[129.435436,35.71365],[129.436059,35.710541],[129.437039,35.707495],[129.438584,35.704124],[129.440294,35.7013],[129.442638,35.69825],[129.445008,35.695764],[129.447655,35.693471],[129.450989,35.691113],[129.454146,35.6893],[129.457499,35.687738],[129.461017,35.686441],[129.464669,35.68542],[129.468422,35.684684],[129.472244,35.684239],[129.476652,35.684094],[129.480506,35.684285]]]]}},{"type":"Feature","properties":{"ident":"RK D20","name":"구의","type":"Danger Area","airspaceClass":null,"upper":"1 600 AGL","upperFt":1600,"upperRef":"AGL","lower":"GND","lowerFt":0,"lowerRef":"GND","remarks":"Danger","dng_lbl_1":"D20","dng_lbl_2":"1 600 AGL","dng_lbl_3":"GND","category":"위험구역","source":"국토교통부 공역정보 KMZ","cycle":"AIP 2026년 10차"},"geometry":{"type":"MultiPolygon","coordinates":[[[[127.096389,37.538893],[127.094293,37.538446],[127.092759,37.537224],[127.092198,37.535555],[127.09276,37.533887],[127.094294,37.532665],[127.096389,37.532218],[127.098484,37.532665],[127.100018,37.533887],[127.10058,37.535555],[127.100018,37.537224],[127.098484,37.538446],[127.096389,37.538893]]]]}},{"type":"Feature","properties":{"ident":"RK D21","name":"자양","type":"Danger Area","airspaceClass":null,"upper":"1 700 AGL","upperFt":1700,"upperRef":"AGL","lower":"GND","lowerFt":0,"lowerRef":"GND","remarks":"Danger","dng_lbl_1":"D21","dng_lbl_2":"1 700 AGL","dng_lbl_3":"GND","category":"위험구역","source":"국토교통부 공역정보 KMZ","cycle":"AIP 2026년 10차"},"geometry":{"type":"MultiPolygon","coordinates":[[[[127.072778,37.542506],[127.070628,37.542204],[127.068737,37.541335],[127.067333,37.540003],[127.066587,37.538369],[127.066587,37.536631],[127.067334,37.534997],[127.068737,37.533665],[127.070628,37.532796],[127.072778,37.532494],[127.074928,37.532796],[127.076818,37.533665],[127.078222,37.534997],[127.078969,37.536631],[127.078969,37.538369],[127.078222,37.540003],[127.076819,37.541335],[127.074928,37.542204],[127.072778,37.542506]]]]}},{"type":"Feature","properties":{"ident":"RK D22","name":"삼성","type":"Danger Area","airspaceClass":null,"upper":"1 800 AGL","upperFt":1800,"upperRef":"AGL","lower":"GND","lowerFt":0,"lowerRef":"GND","remarks":"Danger","dng_lbl_1":"D22","dng_lbl_2":"1 800 AGL","dng_lbl_3":"GND","category":"위험구역","source":"국토교통부 공역정보 KMZ","cycle":"AIP 2026년 10차"},"geometry":{"type":"MultiPolygon","coordinates":[[[[127.059167,37.5225],[127.053889,37.517778],[127.058056,37.514444],[127.049444,37.505556],[127.055,37.501111],[127.066389,37.512222],[127.065,37.518611],[127.059167,37.5225]]]]}},{"type":"Feature","properties":{"ident":"RK D23","name":"도곡","type":"Danger Area","airspaceClass":null,"upper":"1 900 AGL","upperFt":1900,"upperRef":"AGL","lower":"GND","lowerFt":0,"lowerRef":"GND","remarks":"Danger","dng_lbl_1":"D23","dng_lbl_2":"1 900 AGL","dng_lbl_3":"GND","category":"위험구역","source":"국토교통부 공역정보 KMZ","cycle":"AIP 2026년 10차"},"geometry":{"type":"MultiPolygon","coordinates":[[[[127.054722,37.49],[127.050278,37.488056],[127.051667,37.485833],[127.055833,37.488333],[127.054722,37.49]]]]}},{"type":"Feature","properties":{"ident":"RK D24","name":"역삼","type":"Danger Area","airspaceClass":null,"upper":"1 700 AGL","upperFt":1700,"upperRef":"AGL","lower":"GND","lowerFt":0,"lowerRef":"GND","remarks":"Danger","dng_lbl_1":"D24","dng_lbl_2":"1 700 AGL","dng_lbl_3":"GND","category":"위험구역","source":"국토교통부 공역정보 KMZ","cycle":"AIP 2026년 10차"},"geometry":{"type":"MultiPolygon","coordinates":[[[[127.0375,37.505278],[127.024167,37.498333],[127.026111,37.493611],[127.043333,37.500556],[127.0375,37.505278]]]]}},{"type":"Feature","properties":{"ident":"RK D25","name":"서초","type":"Danger Area","airspaceClass":null,"upper":"1 500 AGL","upperFt":1500,"upperRef":"AGL","lower":"GND","lowerFt":0,"lowerRef":"GND","remarks":"Danger","dng_lbl_1":"D25","dng_lbl_2":"1 500 AGL","dng_lbl_3":"GND","category":"위험구역","source":"국토교통부 공역정보 KMZ","cycle":"AIP 2026년 10차"},"geometry":{"type":"MultiPolygon","coordinates":[[[[127.016667,37.488339],[127.014518,37.488037],[127.012629,37.487168],[127.011226,37.485836],[127.01048,37.484202],[127.01048,37.482464],[127.011227,37.48083],[127.012629,37.479498],[127.014518,37.478629],[127.016667,37.478327],[127.018815,37.478629],[127.020704,37.479498],[127.022107,37.48083],[127.022853,37.482464],[127.022853,37.484202],[127.022107,37.485836],[127.020705,37.487168],[127.018815,37.488037],[127.016667,37.488339]]]]}},{"type":"Feature","properties":{"ident":"RK D26","name":"신대방","type":"Danger Area","airspaceClass":null,"upper":"1 600 AGL","upperFt":1600,"upperRef":"AGL","lower":"GND","lowerFt":0,"lowerRef":"GND","remarks":"Danger","dng_lbl_1":"D26","dng_lbl_2":"1 600 AGL","dng_lbl_3":"GND","category":"위험구역","source":"국토교통부 공역정보 KMZ","cycle":"AIP 2026년 10차"},"geometry":{"type":"MultiPolygon","coordinates":[[[[126.924444,37.496117],[126.922296,37.495815],[126.920406,37.494946],[126.919003,37.493614],[126.918257,37.49198],[126.918257,37.490242],[126.919004,37.488608],[126.920406,37.487276],[126.922296,37.486407],[126.924444,37.486105],[126.926593,37.486407],[126.928483,37.487276],[126.929885,37.488608],[126.930631,37.490242],[126.930632,37.49198],[126.929885,37.493614],[126.928483,37.494946],[126.926593,37.495815],[126.924444,37.496117]]]]}},{"type":"Feature","properties":{"ident":"RK D27","name":"여의","type":"Danger Area","airspaceClass":null,"upper":"1 900 AGL","upperFt":1900,"upperRef":"AGL","lower":"GND","lowerFt":0,"lowerRef":"GND","remarks":"Danger","dng_lbl_1":"D27","dng_lbl_2":"1 900 AGL","dng_lbl_3":"GND","category":"위험구역","source":"국토교통부 공역정보 KMZ","cycle":"AIP 2026년 10차"},"geometry":{"type":"MultiPolygon","coordinates":[[[[126.929722,37.528611],[126.917222,37.521667],[126.920833,37.518889],[126.939722,37.5175],[126.941389,37.519722],[126.929722,37.528611]]]]}},{"type":"Feature","properties":{"ident":"RK D28","name":"신도림","type":"Danger Area","airspaceClass":null,"upper":"1 700 AGL","upperFt":1700,"upperRef":"AGL","lower":"GND","lowerFt":0,"lowerRef":"GND","remarks":"Danger","dng_lbl_1":"D28","dng_lbl_2":"1 700 AGL","dng_lbl_3":"GND","category":"위험구역","source":"국토교통부 공역정보 KMZ","cycle":"AIP 2026년 10차"},"geometry":{"type":"MultiPolygon","coordinates":[[[[126.890833,37.513062],[126.888684,37.51276],[126.886794,37.51189],[126.885391,37.510558],[126.884645,37.508925],[126.884645,37.507186],[126.885391,37.505552],[126.886794,37.504221],[126.888684,37.503351],[126.890833,37.50305],[126.892982,37.503351],[126.894872,37.504221],[126.896275,37.505552],[126.897022,37.507186],[126.897022,37.508925],[126.896276,37.510558],[126.894873,37.51189],[126.892983,37.51276],[126.890833,37.513062]]]]}},{"type":"Feature","properties":{"ident":"RK D29","name":"문래","type":"Danger Area","airspaceClass":null,"upper":"1 600 AGL","upperFt":1600,"upperRef":"AGL","lower":"GND","lowerFt":0,"lowerRef":"GND","remarks":"Danger","dng_lbl_1":"D29","dng_lbl_2":"1 600 AGL","dng_lbl_3":"GND","category":"위험구역","source":"국토교통부 공역정보 KMZ","cycle":"AIP 2026년 10차"},"geometry":{"type":"MultiPolygon","coordinates":[[[[126.900833,37.521667],[126.8975,37.519444],[126.903056,37.515],[126.906111,37.517222],[126.900833,37.521667]]]]}},{"type":"Feature","properties":{"ident":"RK D30","name":"목동","type":"Danger Area","airspaceClass":null,"upper":"1 900 AGL","upperFt":1900,"upperRef":"AGL","lower":"GND","lowerFt":0,"lowerRef":"GND","remarks":"Danger","dng_lbl_1":"D30","dng_lbl_2":"1 900 AGL","dng_lbl_3":"GND","category":"위험구역","source":"국토교통부 공역정보 KMZ","cycle":"AIP 2026년 10차"},"geometry":{"type":"MultiPolygon","coordinates":[[[[126.874444,37.533897],[126.872275,37.533669],[126.870254,37.533003],[126.868518,37.531942],[126.867186,37.530559],[126.866349,37.528949],[126.866064,37.527222],[126.866349,37.525494],[126.867187,37.523885],[126.868519,37.522502],[126.870254,37.521442],[126.872276,37.520775],[126.874444,37.520548],[126.876613,37.520775],[126.878634,37.521442],[126.88037,37.522502],[126.881702,37.523885],[126.882539,37.525494],[126.882825,37.527222],[126.88254,37.528949],[126.881703,37.530559],[126.880371,37.531942],[126.878635,37.533003],[126.876614,37.533669],[126.874444,37.533897]]]]}},{"type":"Feature","properties":{"ident":"RK D31","name":"구포","type":"Danger Area","airspaceClass":null,"upper":"1 600 AGL","upperFt":1600,"upperRef":"AGL","lower":"GND","lowerFt":0,"lowerRef":"GND","remarks":"Danger","dng_lbl_1":"D31","dng_lbl_2":"1 600 AGL","dng_lbl_3":"GND","category":"위험구역","source":"국토교통부 공역정보 KMZ","cycle":"AIP 2026년 10차"},"geometry":{"type":"MultiPolygon","coordinates":[[[[128.999444,35.213341],[128.997357,35.213039],[128.995522,35.21217],[128.99416,35.210837],[128.993435,35.209203],[128.993435,35.207464],[128.99416,35.205829],[128.995523,35.204497],[128.997358,35.203627],[128.999444,35.203325],[129.001531,35.203627],[129.003366,35.204497],[129.004729,35.205829],[129.005453,35.207464],[129.005454,35.209203],[129.004729,35.210837],[129.003367,35.21217],[129.001531,35.213039],[128.999444,35.213341]]]]}},{"type":"Feature","properties":{"ident":"RK D32","name":"동래","type":"Danger Area","airspaceClass":null,"upper":"1 600 AGL","upperFt":1600,"upperRef":"AGL","lower":"GND","lowerFt":0,"lowerRef":"GND","remarks":"Danger","dng_lbl_1":"D32","dng_lbl_2":"1 600 AGL","dng_lbl_3":"GND","category":"위험구역","source":"국토교통부 공역정보 KMZ","cycle":"AIP 2026년 10차"},"geometry":{"type":"MultiPolygon","coordinates":[[[[129.083056,35.2275],[129.074167,35.214444],[129.085,35.21],[129.0925,35.223611],[129.083056,35.2275]]]]}},{"type":"Feature","properties":{"ident":"RK D33","name":"연제","type":"Danger Area","airspaceClass":null,"upper":"1 500 AGL","upperFt":1500,"upperRef":"AGL","lower":"GND","lowerFt":0,"lowerRef":"GND","remarks":"Danger","dng_lbl_1":"D33","dng_lbl_2":"1 500 AGL","dng_lbl_3":"GND","category":"위험구역","source":"국토교통부 공역정보 KMZ","cycle":"AIP 2026년 10차"},"geometry":{"type":"MultiPolygon","coordinates":[[[[129.083611,35.17973],[129.081525,35.179428],[129.07969,35.178558],[129.078329,35.177226],[129.077604,35.175592],[129.077605,35.173852],[129.078329,35.172218],[129.079691,35.170886],[129.081525,35.170016],[129.083611,35.169714],[129.085697,35.170016],[129.087531,35.170886],[129.088893,35.172218],[129.089618,35.173852],[129.089618,35.175592],[129.088893,35.177226],[129.087532,35.178558],[129.085697,35.179428],[129.083611,35.17973]]]]}},{"type":"Feature","properties":{"ident":"RK D34","name":"수영","type":"Danger Area","airspaceClass":null,"upper":"1 600 AGL","upperFt":1600,"upperRef":"AGL","lower":"GND","lowerFt":0,"lowerRef":"GND","remarks":"Danger","dng_lbl_1":"D34","dng_lbl_2":"1 600 AGL","dng_lbl_3":"GND","category":"위험구역","source":"국토교통부 공역정보 KMZ","cycle":"AIP 2026년 10차"},"geometry":{"type":"MultiPolygon","coordinates":[[[[129.106667,35.145286],[129.104581,35.144984],[129.102748,35.144114],[129.101387,35.142782],[129.100663,35.141147],[129.100663,35.139408],[129.101387,35.137774],[129.102748,35.136441],[129.104582,35.135572],[129.106667,35.13527],[129.108752,35.135572],[129.110585,35.136441],[129.111946,35.137774],[129.112671,35.139408],[129.112671,35.141147],[129.111947,35.142782],[129.110586,35.144114],[129.108752,35.144984],[129.106667,35.145286]]]]}},{"type":"Feature","properties":{"ident":"RK D35","name":"서면","type":"Danger Area","airspaceClass":null,"upper":"2 000 AGL","upperFt":2000,"upperRef":"AGL","lower":"GND","lowerFt":0,"lowerRef":"GND","remarks":"Danger","dng_lbl_1":"D35","dng_lbl_2":"2 000 AGL","dng_lbl_3":"GND","category":"위험구역","source":"국토교통부 공역정보 KMZ","cycle":"AIP 2026년 10차"},"geometry":{"type":"MultiPolygon","coordinates":[[[[129.048333,35.157222],[129.064167,35.140278],[129.073889,35.146944],[129.058056,35.163889],[129.048333,35.157222]]]]}},{"type":"Feature","properties":{"ident":"RK D36","name":"해운대","type":"Danger Area","airspaceClass":null,"upper":"2 000 AGL","upperFt":2000,"upperRef":"AGL","lower":"GND","lowerFt":0,"lowerRef":"GND","remarks":"Danger","dng_lbl_1":"D36","dng_lbl_2":"2 000 AGL","dng_lbl_3":"GND","category":"위험구역","source":"국토교통부 공역정보 KMZ","cycle":"AIP 2026년 10차"},"geometry":{"type":"MultiPolygon","coordinates":[[[[129.145,35.146944],[129.161944,35.158889],[129.120833,35.186667],[129.110556,35.178611],[129.145,35.146944]]]]}},{"type":"Feature","properties":{"ident":"RK D37","name":"문텐","type":"Danger Area","airspaceClass":null,"upper":"1 600 AGL","upperFt":1600,"upperRef":"AGL","lower":"GND","lowerFt":0,"lowerRef":"GND","remarks":"Danger","dng_lbl_1":"D37","dng_lbl_2":"1 600 AGL","dng_lbl_3":"GND","category":"위험구역","source":"국토교통부 공역정보 KMZ","cycle":"AIP 2026년 10차"},"geometry":{"type":"MultiPolygon","coordinates":[[[[129.182778,35.170833],[129.170556,35.16],[129.179167,35.153611],[129.191111,35.164444],[129.182778,35.170833]]]]}},{"type":"Feature","properties":{"ident":"RK D5","name":"WANJU","type":"Danger Area","airspaceClass":null,"upper":"3 000 AGL","upperFt":3000,"upperRef":"AGL","lower":"GND","lowerFt":0,"lowerRef":"GND","remarks":"Danger","dng_lbl_1":"D5","dng_lbl_2":"3 000 AGL","dng_lbl_3":"GND","category":"위험구역","source":"국토교통부 공역정보 KMZ","cycle":"AIP 2026년 10차"},"geometry":{"type":"MultiPolygon","coordinates":[[[[127.232764,35.716208],[127.232171,35.718486],[127.231194,35.720675],[127.229855,35.722731],[127.228176,35.724615],[127.226193,35.72629],[127.223942,35.727724],[127.221469,35.728889],[127.218822,35.729761],[127.21605,35.730325],[127.21321,35.730568],[127.210356,35.730487],[127.207543,35.730083],[127.204827,35.729363],[127.20226,35.728342],[127.199893,35.727039],[127.197771,35.725481],[127.195935,35.723697],[127.194423,35.721722],[127.193262,35.719594],[127.192475,35.717356],[127.192078,35.715049],[127.192079,35.712721],[127.192477,35.710415],[127.193264,35.708176],[127.194427,35.706049],[127.19594,35.704075],[127.197775,35.702291],[127.199897,35.700733],[127.202264,35.699431],[127.20483,35.69841],[127.207545,35.697691],[127.210357,35.697287],[127.21321,35.697205],[127.216049,35.697449],[127.218819,35.698012],[127.221466,35.698884],[127.223938,35.700048],[127.226188,35.701482],[127.228172,35.703157],[127.22985,35.70504],[127.231191,35.707096],[127.232168,35.709284],[127.232762,35.711562],[127.232962,35.713885],[127.232764,35.716208]]]]}},{"type":"Feature","properties":{"ident":"RK D6","name":"YEONGDONG","type":"Danger Area","airspaceClass":null,"upper":"3 000 AGL","upperFt":3000,"upperRef":"AGL","lower":"GND","lowerFt":0,"lowerRef":"GND","remarks":"Danger","dng_lbl_1":"D6","dng_lbl_2":"3 000 AGL","dng_lbl_3":"GND","category":"위험구역","source":"국토교통부 공역정보 KMZ","cycle":"AIP 2026년 10차"},"geometry":{"type":"MultiPolygon","coordinates":[[[[127.732499,36.123863],[127.734713,36.123977],[127.736915,36.124205],[127.739094,36.124545],[127.741242,36.124997],[127.743351,36.125559],[127.745411,36.126228],[127.747415,36.127002],[127.749355,36.127877],[127.751222,36.12885],[127.75301,36.129917],[127.75471,36.131074],[127.756317,36.132316],[127.757823,36.133638],[127.759223,36.135036],[127.760511,36.136502],[127.761682,36.138032],[127.762731,36.139618],[127.763654,36.141256],[127.764447,36.142938],[127.765107,36.144657],[127.765631,36.146406],[127.766017,36.148179],[127.766264,36.149969],[127.76637,36.151767],[127.766336,36.153567],[127.766161,36.155362],[127.765846,36.157144],[127.765392,36.158907],[127.764801,36.160642],[127.764075,36.162344],[127.763218,36.164005],[127.762233,36.165618],[127.761123,36.167178],[127.759894,36.168677],[127.758549,36.17011],[127.757096,36.171471],[127.755538,36.172755],[127.753884,36.173956],[127.752138,36.175069],[127.75031,36.17609],[127.748404,36.177015],[127.746431,36.177841],[127.744396,36.178563],[127.742309,36.179179],[127.740179,36.179686],[127.738012,36.180083],[127.735819,36.180368],[127.733609,36.180539],[127.731389,36.180596],[127.729169,36.180539],[127.726958,36.180368],[127.724765,36.180083],[127.722599,36.179686],[127.720468,36.179179],[127.718382,36.178563],[127.716347,36.177841],[127.714373,36.177015],[127.712468,36.17609],[127.710639,36.175069],[127.708894,36.173956],[127.707239,36.172755],[127.705682,36.171471],[127.704228,36.17011],[127.702884,36.168677],[127.701655,36.167178],[127.700545,36.165618],[127.69956,36.164005],[127.698703,36.162344],[127.697977,36.160642],[127.697386,36.158907],[127.696932,36.157144],[127.696617,36.155362],[127.696442,36.153567],[127.696407,36.151767],[127.696514,36.149969],[127.696761,36.148179],[127.697147,36.146406],[127.697671,36.144657],[127.698331,36.142938],[127.699124,36.141256],[127.700047,36.139618],[127.701096,36.138032],[127.702266,36.136502],[127.703554,36.135036],[127.704954,36.133638],[127.706461,36.132316],[127.708068,36.131074],[127.709768,36.129917],[127.711556,36.12885],[127.713423,36.127877],[127.715362,36.127002],[127.717367,36.126228],[127.719427,36.125559],[127.721536,36.124997],[127.723684,36.124545],[127.725863,36.124205],[127.728064,36.123977],[127.730279,36.123863],[127.732499,36.123863]]]]}},{"type":"Feature","properties":{"ident":"RK D7","name":"HANBIT","type":"Danger Area","airspaceClass":null,"upper":"10 000 AGL","upperFt":10000,"upperRef":"AGL","lower":"GND","lowerFt":0,"lowerRef":"GND","remarks":"Danger","dng_lbl_1":"D7","dng_lbl_2":"10 000 AGL","dng_lbl_3":"GND","category":"위험구역","source":"국토교통부 공역정보 KMZ","cycle":"AIP 2026년 10차"},"geometry":{"type":"MultiPolygon","coordinates":[[[[126.424924,35.378307],[126.429241,35.378982],[126.432926,35.379882],[126.436492,35.381062],[126.44038,35.382741],[126.443584,35.384484],[126.446573,35.386466],[126.449321,35.38867],[126.451803,35.391076],[126.453998,35.393663],[126.456128,35.396811],[126.457643,35.399706],[126.458819,35.402706],[126.459644,35.405782],[126.460148,35.409358],[126.460202,35.412507],[126.459892,35.415647],[126.459223,35.418748],[126.458025,35.422212],[126.456608,35.42514],[126.454859,35.427946],[126.452796,35.430605],[126.450435,35.433092],[126.447401,35.435698],[126.444477,35.437746],[126.441331,35.43956],[126.437498,35.441325],[126.43397,35.442585],[126.429782,35.443684],[126.426017,35.444338],[126.421644,35.444725],[126.417795,35.444746],[126.413416,35.444407],[126.40964,35.443795],[126.405952,35.442894],[126.401886,35.441522],[126.398494,35.440033],[126.395289,35.438289],[126.392299,35.436306],[126.38918,35.433769],[126.386738,35.431334],[126.384588,35.428722],[126.382748,35.425955],[126.381046,35.422636],[126.379791,35.419187],[126.37907,35.416093],[126.378709,35.412957],[126.378711,35.409807],[126.379075,35.406671],[126.379798,35.403578],[126.381057,35.400129],[126.382524,35.397217],[126.384603,35.394046],[126.386754,35.391435],[126.389196,35.389002],[126.391908,35.386767],[126.394864,35.384753],[126.398509,35.382741],[126.401899,35.381253],[126.405445,35.380034],[126.409115,35.379093],[126.412878,35.37844],[126.416698,35.37808],[126.421093,35.378031],[126.424924,35.378307]]]]}},{"type":"Feature","properties":{"ident":"RK D72","name":"YOKJIDO","type":"Danger Area","airspaceClass":null,"upper":"UNL","upperFt":null,"upperRef":"UNL","lower":"SFC","lowerFt":0,"lowerRef":"SFC","remarks":null,"dng_lbl_1":"D72","dng_lbl_2":"UNL","dng_lbl_3":"SFC","category":"위험구역","source":"국토교통부 공역정보 KMZ","cycle":"AIP 2026년 10차"},"geometry":{"type":"MultiPolygon","coordinates":[[[[128.583333,34.3],[128.190833,34.300278],[128.0,34.161389],[128.0,34.0],[128.583333,34.0],[128.719722,34.153611],[128.587222,34.336667],[128.583333,34.3]]]]}},{"type":"Feature","properties":{"ident":"RK D8","name":"HANUL","type":"Danger Area","airspaceClass":null,"upper":"8 000 AGL","upperFt":8000,"upperRef":"AGL","lower":"GND","lowerFt":0,"lowerRef":"GND","remarks":"Danger","dng_lbl_1":"D8","dng_lbl_2":"8 000 AGL","dng_lbl_3":"GND","category":"위험구역","source":"국토교통부 공역정보 KMZ","cycle":"AIP 2026년 10차"},"geometry":{"type":"MultiPolygon","coordinates":[[[[129.424579,37.10463],[129.423373,37.109185],[129.421386,37.113561],[129.418659,37.117673],[129.415243,37.121441],[129.411205,37.124792],[129.406623,37.12766],[129.401588,37.129989],[129.396197,37.131734],[129.390553,37.132861],[129.38477,37.133348],[129.378958,37.133185],[129.373231,37.132376],[129.3677,37.130937],[129.362473,37.128895],[129.357653,37.12629],[129.353333,37.123173],[129.349597,37.119605],[129.346517,37.115655],[129.344155,37.111401],[129.342554,37.106924],[129.341748,37.102313],[129.34175,37.097657],[129.342562,37.093046],[129.344166,37.088571],[129.346532,37.084318],[129.349614,37.08037],[129.353351,37.076804],[129.357671,37.073689],[129.362489,37.071086],[129.367712,37.069046],[129.373239,37.067608],[129.378961,37.066799],[129.384769,37.066637],[129.390547,37.067123],[129.396185,37.068249],[129.401573,37.069993],[129.406607,37.07232],[129.411187,37.075186],[129.415225,37.078535],[129.418642,37.082301],[129.421373,37.086411],[129.423363,37.090786],[129.424574,37.09534],[129.424982,37.099985],[129.424579,37.10463]]]]}},{"type":"Feature","properties":{"ident":"RK D9","name":"YEONGCHEON","type":"Danger Area","airspaceClass":null,"upper":"3 000 AGL","upperFt":3000,"upperRef":"AGL","lower":"GND","lowerFt":0,"lowerRef":"GND","remarks":"Danger","dng_lbl_1":"D9","dng_lbl_2":"3 000 AGL","dng_lbl_3":"GND","category":"위험구역","source":"국토교통부 공역정보 KMZ","cycle":"AIP 2026년 10차"},"geometry":{"type":"MultiPolygon","coordinates":[[[[128.996993,35.963153],[128.996398,35.96543],[128.995419,35.967619],[128.994075,35.969675],[128.992391,35.971559],[128.990402,35.973234],[128.988145,35.974668],[128.985664,35.975833],[128.983008,35.976705],[128.980228,35.977269],[128.977379,35.977512],[128.974516,35.977431],[128.971694,35.977026],[128.96897,35.976307],[128.966396,35.975286],[128.96402,35.973983],[128.961892,35.972425],[128.960051,35.970641],[128.958533,35.968666],[128.957369,35.966538],[128.95658,35.9643],[128.956182,35.961994],[128.956183,35.959665],[128.956581,35.957359],[128.957371,35.955121],[128.958537,35.952994],[128.960055,35.951019],[128.961896,35.949236],[128.964024,35.947678],[128.966399,35.946376],[128.968973,35.945355],[128.971696,35.944636],[128.974517,35.944232],[128.977378,35.94415],[128.980226,35.944394],[128.983005,35.944957],[128.98566,35.945829],[128.98814,35.946993],[128.990398,35.948427],[128.992387,35.950102],[128.994071,35.951985],[128.995416,35.954041],[128.996396,35.956229],[128.996992,35.958507],[128.997193,35.96083],[128.996993,35.963153]]]]}},{"type":"Feature","properties":{"ident":"RK D99","name":"GEOJEDO","type":"Danger Area","airspaceClass":null,"upper":"FL 360","upperFt":36000,"upperRef":"FL","lower":"GND","lowerFt":0,"lowerRef":"GND","remarks":null,"dng_lbl_1":"D99","dng_lbl_2":"FL 360","dng_lbl_3":"GND","category":"위험구역","source":"국토교통부 공역정보 KMZ","cycle":"AIP 2026년 10차"},"geometry":{"type":"MultiPolygon","coordinates":[[[[128.841944,34.768333],[128.724167,34.684444],[128.587222,34.336667],[128.719722,34.153611],[129.055833,34.563056],[128.893889,34.778889],[128.841944,34.768333]]]]}}]}
