{"type":"FeatureCollection","source":"국토교통부 공역정보 KMZ","cycle":"AIP 2026년 10차","features":[{"type":"Feature","properties":{"ident":"MOA 1","name":"MOA 1","type":"Other","airspaceClass":null,"upper":"FL 500","upperFt":50000,"upperRef":"FL","lower":"10 000 AMSL","lowerFt":10000,"lowerRef":"AMSL","remarks":"MOA","moa_lbl_1":"MOA 1","moa_lbl_2":"FL 500","moa_lbl_3":"10 000 AMSL","category":"군작전구역","source":"국토교통부 공역정보 KMZ","cycle":"AIP 2026년 10차"},"geometry":{"type":"MultiPolygon","coordinates":[[[[126.166389,36.683333],[125.7,36.533333],[125.6,36.533333],[125.600556,36.283056],[126.416667,36.283333],[126.416667,36.333333],[126.475,36.683333],[126.166389,36.683333]]]]}},{"type":"Feature","properties":{"ident":"MOA 10","name":"MOA 10","type":"Other","airspaceClass":null,"upper":"FL 400","upperFt":40000,"upperRef":"FL","lower":"10 000 AMSL","lowerFt":10000,"lowerRef":"AMSL","remarks":"MOA","moa_lbl_1":"MOA 10","moa_lbl_2":"FL 400","moa_lbl_3":"10 000 AMSL","category":"군작전구역","source":"국토교통부 공역정보 KMZ","cycle":"AIP 2026년 10차"},"geometry":{"type":"MultiPolygon","coordinates":[[[[129.25,36.833333],[129.05,36.916666],[128.683333,36.916666],[128.5,36.716666],[129.1,36.35],[129.25,36.5],[129.25,36.833333]]]]}},{"type":"Feature","properties":{"ident":"MOA 107","name":"MOA 107","type":"Other","airspaceClass":null,"upper":"FL 400","upperFt":40000,"upperRef":"FL","lower":"GND","lowerFt":0,"lowerRef":"GND","remarks":"MOA","moa_lbl_1":"MOA 107","moa_lbl_2":"FL 400","moa_lbl_3":"GND","category":"군작전구역","source":"국토교통부 공역정보 KMZ","cycle":"AIP 2026년 10차"},"geometry":{"type":"MultiPolygon","coordinates":[[[[130.166667,38.233333],[129.85,38.25],[129.85,37.8],[130.166667,37.783333],[130.166667,38.233333]]]]}},{"type":"Feature","properties":{"ident":"MOA 11","name":"MOA 11","type":"Other","airspaceClass":null,"upper":"FL 400","upperFt":40000,"upperRef":"FL","lower":"12 000 AMSL","lowerFt":12000,"lowerRef":"AMSL","remarks":"MOA","moa_lbl_1":"MOA 11","moa_lbl_2":"FL 400","moa_lbl_3":"12 000 AMSL","category":"군작전구역","source":"국토교통부 공역정보 KMZ","cycle":"AIP 2026년 10차"},"geometry":{"type":"MultiPolygon","coordinates":[[[[128.683333,36.916666],[128.683333,37.216666],[128.516666,37.2],[127.983334,37.1],[128.05,36.933333],[128.5,36.716666],[128.683333,36.916666]]]]}},{"type":"Feature","properties":{"ident":"MOA 12E","name":"MOA 12E","type":"Other","airspaceClass":null,"upper":"10 000 AMSL","upperFt":10000,"upperRef":"AMSL","lower":"3 000 AGL","lowerFt":3000,"lowerRef":"AGL","remarks":"MOA","moa_lbl_1":"MOA 12E","moa_lbl_2":"10 000 AMSL","moa_lbl_3":"3 000 AGL","category":"군작전구역","source":"국토교통부 공역정보 KMZ","cycle":"AIP 2026년 10차"},"geometry":{"type":"MultiPolygon","coordinates":[[[[130.0,36.5],[129.583334,36.5],[129.616667,36.083333],[130.0,36.033333],[130.0,36.5]]]]}},{"type":"Feature","properties":{"ident":"MOA 12E","name":"MOA 12E","type":"Other","airspaceClass":null,"upper":"FL 400","upperFt":40000,"upperRef":"FL","lower":"11 000 AMSL","lowerFt":11000,"lowerRef":"AMSL","remarks":"MOA","moa_lbl_1":"MOA 12E","moa_lbl_2":"FL 400","moa_lbl_3":"11 000 AMSL","category":"군작전구역","source":"국토교통부 공역정보 KMZ","cycle":"AIP 2026년 10차"},"geometry":{"type":"MultiPolygon","coordinates":[[[[130.0,36.5],[129.583334,36.5],[129.616667,36.083333],[130.0,36.033333],[130.0,36.5]]]]}},{"type":"Feature","properties":{"ident":"MOA 12W","name":"MOA 12W","type":"Other","airspaceClass":null,"upper":"FL 400","upperFt":40000,"upperRef":"FL","lower":"11 000 AMSL","lowerFt":11000,"lowerRef":"AMSL","remarks":"MOA","moa_lbl_1":"MOA 12W","moa_lbl_2":"FL 400","moa_lbl_3":"11 000 AMSL","category":"군작전구역","source":"국토교통부 공역정보 KMZ","cycle":"AIP 2026년 10차"},"geometry":{"type":"MultiPolygon","coordinates":[[[[129.583334,36.5],[129.25,36.5],[129.1,36.35],[129.616667,36.083333],[129.583334,36.5]]]]}},{"type":"Feature","properties":{"ident":"MOA 12W","name":"MOA 12W","type":"Other","airspaceClass":null,"upper":"7 000 AMSL","upperFt":7000,"upperRef":"AMSL","lower":"3 000 AGL","lowerFt":3000,"lowerRef":"AGL","remarks":"MOA","moa_lbl_1":"MOA 12W","moa_lbl_2":"7 000 AMSL","moa_lbl_3":"3 000 AGL","category":"군작전구역","source":"국토교통부 공역정보 KMZ","cycle":"AIP 2026년 10차"},"geometry":{"type":"MultiPolygon","coordinates":[[[[129.583334,36.5],[129.25,36.5],[129.1,36.35],[129.616667,36.083333],[129.583334,36.5]]]]}},{"type":"Feature","properties":{"ident":"MOA 13E","name":"MOA 13E","type":"Other","airspaceClass":null,"upper":"9 000 AMSL","upperFt":9000,"upperRef":"AMSL","lower":"3 000 AGL","lowerFt":3000,"lowerRef":"AGL","remarks":"MOA","moa_lbl_1":"MOA 13E","moa_lbl_2":"9 000 AMSL","moa_lbl_3":"3 000 AGL","category":"군작전구역","source":"국토교통부 공역정보 KMZ","cycle":"AIP 2026년 10차"},"geometry":{"type":"MultiPolygon","coordinates":[[[[130.216667,35.766666],[129.6,35.85],[129.35,35.266666],[129.833334,35.333333],[130.216667,35.766666]]]]}},{"type":"Feature","properties":{"ident":"MOA 13E","name":"MOA 13E","type":"Other","airspaceClass":null,"upper":"FL 400","upperFt":40000,"upperRef":"FL","lower":"10 000 AMSL","lowerFt":10000,"lowerRef":"AMSL","remarks":"MOA","moa_lbl_1":"MOA 13E","moa_lbl_2":"FL 400","moa_lbl_3":"10 000 AMSL","category":"군작전구역","source":"국토교통부 공역정보 KMZ","cycle":"AIP 2026년 10차"},"geometry":{"type":"MultiPolygon","coordinates":[[[[130.216667,35.766666],[129.6,35.85],[129.35,35.266666],[129.833334,35.333333],[130.216667,35.766666]]]]}},{"type":"Feature","properties":{"ident":"MOA 13W","name":"MOA 13W","type":"Other","airspaceClass":null,"upper":"8 000 AMSL","upperFt":8000,"upperRef":"AMSL","lower":"3 000 AGL","lowerFt":3000,"lowerRef":"AGL","remarks":"MOA","moa_lbl_1":"MOA 13W","moa_lbl_2":"8 000 AMSL","moa_lbl_3":"3 000 AGL","category":"군작전구역","source":"국토교통부 공역정보 KMZ","cycle":"AIP 2026년 10차"},"geometry":{"type":"MultiPolygon","coordinates":[[[[129.5,35.866666],[128.833334,35.733333],[129.116667,35.233333],[129.35,35.266666],[129.6,35.85],[129.5,35.866666]]]]}},{"type":"Feature","properties":{"ident":"MOA 13W","name":"MOA 13W","type":"Other","airspaceClass":null,"upper":"FL 400","upperFt":40000,"upperRef":"FL","lower":"11 000 AMSL","lowerFt":11000,"lowerRef":"AMSL","remarks":"MOA","moa_lbl_1":"MOA 13W","moa_lbl_2":"FL 400","moa_lbl_3":"11 000 AMSL","category":"군작전구역","source":"국토교통부 공역정보 KMZ","cycle":"AIP 2026년 10차"},"geometry":{"type":"MultiPolygon","coordinates":[[[[129.5,35.866666],[128.833334,35.733333],[129.116667,35.233333],[129.35,35.266666],[129.6,35.85],[129.5,35.866666]]]]}},{"type":"Feature","properties":{"ident":"MOA 14","name":"MOA 14","type":"Other","airspaceClass":null,"upper":"FL 330","upperFt":33000,"upperRef":"FL","lower":"10 000 AMSL","lowerFt":10000,"lowerRef":"AMSL","remarks":"MOA","moa_lbl_1":"MOA 14","moa_lbl_2":"FL 330","moa_lbl_3":"10 000 AMSL","category":"군작전구역","source":"국토교통부 공역정보 KMZ","cycle":"AIP 2026년 10차"},"geometry":{"type":"MultiPolygon","coordinates":[[[[129.2,36.033333],[128.483333,36.433333],[128.283333,36.2],[128.533333,36.0],[129.05,36.0],[129.2,36.033333]]]]}},{"type":"Feature","properties":{"ident":"MOA 15","name":"MOA 15","type":"Other","airspaceClass":null,"upper":"FL 400","upperFt":40000,"upperRef":"FL","lower":"11 000 AMSL","lowerFt":11000,"lowerRef":"AMSL","remarks":"MOA","moa_lbl_1":"MOA 15","moa_lbl_2":"FL 400","moa_lbl_3":"11 000 AMSL","category":"군작전구역","source":"국토교통부 공역정보 KMZ","cycle":"AIP 2026년 10차"},"geometry":{"type":"MultiPolygon","coordinates":[[[[127.544444,35.966667],[127.066666,35.983333],[126.988056,35.315833],[127.4,35.233334],[127.544444,35.966667]]]]}},{"type":"Feature","properties":{"ident":"MOA 15A","name":"MOA 15A","type":"Other","airspaceClass":null,"upper":"9 000 AMSL","upperFt":9000,"upperRef":"AMSL","lower":"3 000 AGL","lowerFt":3000,"lowerRef":"AGL","remarks":"MOA","moa_lbl_1":"MOA 15A","moa_lbl_2":"9 000 AMSL","moa_lbl_3":"3 000 AGL","category":"군작전구역","source":"국토교통부 공역정보 KMZ","cycle":"AIP 2026년 10차"},"geometry":{"type":"MultiPolygon","coordinates":[[[[128.1,35.733333],[127.033333,35.766666],[126.983334,35.316666],[128.1,35.733333]]]]}},{"type":"Feature","properties":{"ident":"MOA 16","name":"MOA 16","type":"Other","airspaceClass":null,"upper":"FL 500","upperFt":50000,"upperRef":"FL","lower":"5 000 AMSL","lowerFt":5000,"lowerRef":"AMSL","remarks":"MOA","moa_lbl_1":"MOA 16","moa_lbl_2":"FL 500","moa_lbl_3":"5 000 AMSL","category":"군작전구역","source":"국토교통부 공역정보 KMZ","cycle":"AIP 2026년 10차"},"geometry":{"type":"MultiPolygon","coordinates":[[[[125.601111,36.083611],[124.525556,36.081944],[124.527222,35.665833],[125.601944,35.666667],[125.601111,36.083611]]]]}},{"type":"Feature","properties":{"ident":"MOA 17","name":"MOA 17","type":"Other","airspaceClass":null,"upper":"FL 500","upperFt":50000,"upperRef":"FL","lower":"5 000 AMSL","lowerFt":5000,"lowerRef":"AMSL","remarks":"MOA","moa_lbl_1":"MOA 17","moa_lbl_2":"FL 500","moa_lbl_3":"5 000 AMSL","category":"군작전구역","source":"국토교통부 공역정보 KMZ","cycle":"AIP 2026년 10차"},"geometry":{"type":"MultiPolygon","coordinates":[[[[126.416667,36.283333],[125.600556,36.283056],[125.601944,35.666667],[126.416667,35.666667],[126.416667,36.283333]]]]}},{"type":"Feature","properties":{"ident":"MOA 18","name":"MOA 18","type":"Other","airspaceClass":null,"upper":"FL 500","upperFt":50000,"upperRef":"FL","lower":"5 000 AMSL","lowerFt":5000,"lowerRef":"AMSL","remarks":"MOA","moa_lbl_1":"MOA 18","moa_lbl_2":"FL 500","moa_lbl_3":"5 000 AMSL","category":"군작전구역","source":"국토교통부 공역정보 KMZ","cycle":"AIP 2026년 10차"},"geometry":{"type":"MultiPolygon","coordinates":[[[[125.601944,35.666667],[124.527222,35.665833],[124.528889,35.249167],[125.602778,35.250278],[125.601944,35.666667]]]]}},{"type":"Feature","properties":{"ident":"MOA 19H","name":"MOA 19H","type":"Other","airspaceClass":null,"upper":"FL 500","upperFt":50000,"upperRef":"FL","lower":"10 000 AMSL","lowerFt":10000,"lowerRef":"AMSL","remarks":"MOA","moa_lbl_1":"MOA 19H","moa_lbl_2":"FL 500","moa_lbl_3":"10 000 AMSL","category":"군작전구역","source":"국토교통부 공역정보 KMZ","cycle":"AIP 2026년 10차"},"geometry":{"type":"MultiPolygon","coordinates":[[[[126.656944,35.666667],[125.601944,35.666667],[125.602778,35.250278],[126.613056,35.250278],[126.656944,35.666667]]]]}},{"type":"Feature","properties":{"ident":"MOA 19L","name":"MOA 19L","type":"Other","airspaceClass":null,"upper":"8 000 AMSL","upperFt":8000,"upperRef":"AMSL","lower":"3 000 AGL","lowerFt":3000,"lowerRef":"AGL","remarks":"MOA","moa_lbl_1":"MOA 19L","moa_lbl_2":"8 000 AMSL","moa_lbl_3":"3 000 AGL","category":"군작전구역","source":"국토교통부 공역정보 KMZ","cycle":"AIP 2026년 10차"},"geometry":{"type":"MultiPolygon","coordinates":[[[[126.666667,35.666667],[125.601944,35.666667],[125.602778,35.250278],[126.666667,35.25],[126.666667,35.666667]]]]}},{"type":"Feature","properties":{"ident":"MOA 20","name":"MOA 20","type":"Other","airspaceClass":null,"upper":"FL 500","upperFt":50000,"upperRef":"FL","lower":"10 000 AMSL","lowerFt":10000,"lowerRef":"AMSL","remarks":"MOA","moa_lbl_1":"MOA 20","moa_lbl_2":"FL 500","moa_lbl_3":"10 000 AMSL","category":"군작전구역","source":"국토교통부 공역정보 KMZ","cycle":"AIP 2026년 10차"},"geometry":{"type":"MultiPolygon","coordinates":[[[[126.613056,35.250278],[125.602778,35.250278],[125.603333,34.833333],[126.569167,34.833611],[126.613056,35.250278]]]]}},{"type":"Feature","properties":{"ident":"MOA 21","name":"MOA 21","type":"Other","airspaceClass":null,"upper":"FL 500","upperFt":50000,"upperRef":"FL","lower":"10 000 AMSL","lowerFt":10000,"lowerRef":"AMSL","remarks":"MOA","moa_lbl_1":"MOA 21","moa_lbl_2":"FL 500","moa_lbl_3":"10 000 AMSL","category":"군작전구역","source":"국토교통부 공역정보 KMZ","cycle":"AIP 2026년 10차"},"geometry":{"type":"MultiPolygon","coordinates":[[[[126.569167,34.833611],[125.603333,34.833333],[125.603611,34.416944],[126.526111,34.416667],[126.569167,34.833611]]]]}},{"type":"Feature","properties":{"ident":"MOA 22","name":"MOA 22","type":"Other","airspaceClass":null,"upper":"FL 500","upperFt":50000,"upperRef":"FL","lower":"5 000 AMSL","lowerFt":5000,"lowerRef":"AMSL","remarks":"MOA","moa_lbl_1":"MOA 22","moa_lbl_2":"FL 500","moa_lbl_3":"5 000 AMSL","category":"군작전구역","source":"국토교통부 공역정보 KMZ","cycle":"AIP 2026년 10차"},"geometry":{"type":"MultiPolygon","coordinates":[[[[125.603333,34.833333],[124.530556,34.8325],[124.531944,34.415833],[125.603611,34.416944],[125.603333,34.833333]]]]}},{"type":"Feature","properties":{"ident":"MOA 23","name":"MOA 23","type":"Other","airspaceClass":null,"upper":"FL 500","upperFt":50000,"upperRef":"FL","lower":"5 000 AMSL","lowerFt":5000,"lowerRef":"AMSL","remarks":"MOA","moa_lbl_1":"MOA 23","moa_lbl_2":"FL 500","moa_lbl_3":"5 000 AMSL","category":"군작전구역","source":"국토교통부 공역정보 KMZ","cycle":"AIP 2026년 10차"},"geometry":{"type":"MultiPolygon","coordinates":[[[[125.603611,34.416944],[124.531944,34.415833],[124.533056,34.045],[124.723611,34.0],[124.883889,34.000278],[125.603889,34.0],[125.603611,34.416944]]]]}},{"type":"Feature","properties":{"ident":"MOA 24","name":"MOA 24","type":"Other","airspaceClass":null,"upper":"FL 500","upperFt":50000,"upperRef":"FL","lower":"10 000 AMSL","lowerFt":10000,"lowerRef":"AMSL","remarks":"MOA","moa_lbl_1":"MOA 24","moa_lbl_2":"FL 500","moa_lbl_3":"10 000 AMSL","category":"군작전구역","source":"국토교통부 공역정보 KMZ","cycle":"AIP 2026년 10차"},"geometry":{"type":"MultiPolygon","coordinates":[[[[126.526111,34.416667],[125.603611,34.416944],[125.603889,34.0],[126.483056,34.0],[126.526111,34.416667]]]]}},{"type":"Feature","properties":{"ident":"MOA 25H","name":"MOA 25H","type":"Other","airspaceClass":null,"upper":"FL 400","upperFt":40000,"upperRef":"FL","lower":"FL 170","lowerFt":17000,"lowerRef":"FL","remarks":"MOA","moa_lbl_1":"MOA 25H","moa_lbl_2":"FL 400","moa_lbl_3":"FL 170","category":"군작전구역","source":"국토교통부 공역정보 KMZ","cycle":"AIP 2026년 10차"},"geometry":{"type":"MultiPolygon","coordinates":[[[[127.303611,34.146389],[126.860833,34.146389],[126.845278,34.0],[127.083333,34.0],[127.303611,34.146389]]]]}},{"type":"Feature","properties":{"ident":"MOA 25H","name":"MOA 25H","type":"Other","airspaceClass":null,"upper":"FL 400","upperFt":40000,"upperRef":"FL","lower":"10 000 AMSL","lowerFt":10000,"lowerRef":"AMSL","remarks":"MOA","moa_lbl_1":"MOA 25H","moa_lbl_2":"FL 400","moa_lbl_3":"10 000 AMSL","category":"군작전구역","source":"국토교통부 공역정보 KMZ","cycle":"AIP 2026년 10차"},"geometry":{"type":"MultiPolygon","coordinates":[[[[127.303889,35.0],[126.953333,35.0],[126.860833,34.146389],[127.303611,34.146389],[127.303889,35.0]]]]}},{"type":"Feature","properties":{"ident":"MOA 25L","name":"MOA 25L","type":"Other","airspaceClass":null,"upper":"9 000 AMSL","upperFt":9000,"upperRef":"AMSL","lower":"3 000 AGL","lowerFt":3000,"lowerRef":"AGL","remarks":"MOA","moa_lbl_1":"MOA 25L","moa_lbl_2":"9 000 AMSL","moa_lbl_3":"3 000 AGL","category":"군작전구역","source":"국토교통부 공역정보 KMZ","cycle":"AIP 2026년 10차"},"geometry":{"type":"MultiPolygon","coordinates":[[[[127.283333,34.75],[126.933333,34.75],[126.883333,34.25],[127.283333,34.25],[127.283333,34.75]]]]}},{"type":"Feature","properties":{"ident":"MOA 26H","name":"MOA 26H","type":"Other","airspaceClass":null,"upper":"FL 400","upperFt":40000,"upperRef":"FL","lower":"10 000 AMSL","lowerFt":10000,"lowerRef":"AMSL","remarks":"MOA","moa_lbl_1":"MOA 26H","moa_lbl_2":"FL 400","moa_lbl_3":"10 000 AMSL","category":"군작전구역","source":"국토교통부 공역정보 KMZ","cycle":"AIP 2026년 10차"},"geometry":{"type":"MultiPolygon","coordinates":[[[[128.375,35.0],[127.283333,35.0],[127.283333,34.133333],[128.358333,34.825],[128.375,35.0]]]]}},{"type":"Feature","properties":{"ident":"MOA 26L","name":"MOA 26L","type":"Other","airspaceClass":null,"upper":"9 000 AMSL","upperFt":9000,"upperRef":"AMSL","lower":"3 000 AGL","lowerFt":3000,"lowerRef":"AGL","remarks":"MOA","moa_lbl_1":"MOA 26L","moa_lbl_2":"9 000 AMSL","moa_lbl_3":"3 000 AGL","category":"군작전구역","source":"국토교통부 공역정보 KMZ","cycle":"AIP 2026년 10차"},"geometry":{"type":"MultiPolygon","coordinates":[[[[128.375,35.0],[127.283333,35.0],[127.283333,34.133333],[128.358333,34.825],[128.375,35.0]]]]}},{"type":"Feature","properties":{"ident":"MOA 27A","name":"MOA 27A","type":"Other","airspaceClass":null,"upper":"9 000 AMSL","upperFt":9000,"upperRef":"AMSL","lower":"3 000 AGL","lowerFt":3000,"lowerRef":"AGL","remarks":"MOA","moa_lbl_1":"MOA 27A","moa_lbl_2":"9 000 AMSL","moa_lbl_3":"3 000 AGL","category":"군작전구역","source":"국토교통부 공역정보 KMZ","cycle":"AIP 2026년 10차"},"geometry":{"type":"MultiPolygon","coordinates":[[[[128.430555,35.629166],[127.4,35.233333],[128.397222,35.254166],[128.430555,35.629166]]]]}},{"type":"Feature","properties":{"ident":"MOA 27N","name":"MOA 27N","type":"Other","airspaceClass":null,"upper":"FL 400","upperFt":40000,"upperRef":"FL","lower":"11 000 AMSL","lowerFt":11000,"lowerRef":"AMSL","remarks":"MOA","moa_lbl_1":"MOA 27N","moa_lbl_2":"FL 400","moa_lbl_3":"11 000 AMSL","category":"군작전구역","source":"국토교통부 공역정보 KMZ","cycle":"AIP 2026년 10차"},"geometry":{"type":"MultiPolygon","coordinates":[[[[128.25,35.933333],[127.544444,35.966666],[127.480555,35.636111],[128.402778,35.661111],[128.25,35.933333]]]]}},{"type":"Feature","properties":{"ident":"MOA 27S","name":"MOA 27S","type":"Other","airspaceClass":null,"upper":"FL 400","upperFt":40000,"upperRef":"FL","lower":"11 000 AMSL","lowerFt":11000,"lowerRef":"AMSL","remarks":"MOA","moa_lbl_1":"MOA 27S","moa_lbl_2":"FL 400","moa_lbl_3":"11 000 AMSL","category":"군작전구역","source":"국토교통부 공역정보 KMZ","cycle":"AIP 2026년 10차"},"geometry":{"type":"MultiPolygon","coordinates":[[[[128.402778,35.661111],[127.480555,35.636111],[127.4,35.233333],[128.397222,35.254166],[128.430555,35.629166],[128.402778,35.661111]]]]}},{"type":"Feature","properties":{"ident":"MOA 28","name":"MOA 28","type":"Other","airspaceClass":null,"upper":"FL 400","upperFt":40000,"upperRef":"FL","lower":"200 AGL","lowerFt":200,"lowerRef":"AGL","remarks":"MOA","moa_lbl_1":"MOA 28","moa_lbl_2":"FL 400","moa_lbl_3":"200 AGL","category":"군작전구역","source":"국토교통부 공역정보 KMZ","cycle":"AIP 2026년 10차"},"geometry":{"type":"MultiPolygon","coordinates":[[[[128.190833,34.300278],[128.0,34.161389],[128.0,33.666667],[128.344722,33.705278],[128.706944,34.171389],[128.587222,34.336667],[128.724167,34.684444],[128.190833,34.300278]]]]}},{"type":"Feature","properties":{"ident":"MOA 29","name":"MOA 29","type":"Other","airspaceClass":null,"upper":"FL 400","upperFt":40000,"upperRef":"FL","lower":"3 000 AGL","lowerFt":3000,"lowerRef":"AGL","remarks":"MOA","moa_lbl_1":"MOA 29","moa_lbl_2":"FL 400","moa_lbl_3":"3 000 AGL","category":"군작전구역","source":"국토교통부 공역정보 KMZ","cycle":"AIP 2026년 10차"},"geometry":{"type":"MultiPolygon","coordinates":[[[[128.0,33.666667],[128.0,34.161389],[127.356111,33.687222],[127.465556,33.605],[128.0,33.666667]]]]}},{"type":"Feature","properties":{"ident":"MOA 2H","name":"MOA 2H","type":"Other","airspaceClass":null,"upper":"FL 400","upperFt":40000,"upperRef":"FL","lower":"10 000 AMSL","lowerFt":10000,"lowerRef":"AMSL","remarks":"MOA","moa_lbl_1":"MOA 2H","moa_lbl_2":"FL 400","moa_lbl_3":"10 000 AMSL","category":"군작전구역","source":"국토교통부 공역정보 KMZ","cycle":"AIP 2026년 10차"},"geometry":{"type":"MultiPolygon","coordinates":[[[[127.501944,36.499722],[127.366666,36.583333],[127.116666,36.583333],[127.105,36.443611],[127.106944,36.383889],[127.08,36.143333],[127.066666,35.983333],[127.366666,35.966666],[127.501944,36.499722]]]]}},{"type":"Feature","properties":{"ident":"MOA 2L","name":"MOA 2L","type":"Other","airspaceClass":null,"upper":"9 000 AMSL","upperFt":9000,"upperRef":"AMSL","lower":"3 000 AGL","lowerFt":3000,"lowerRef":"AGL","remarks":"MOA","moa_lbl_1":"MOA 2L","moa_lbl_2":"9 000 AMSL","moa_lbl_3":"3 000 AGL","category":"군작전구역","source":"국토교통부 공역정보 KMZ","cycle":"AIP 2026년 10차"},"geometry":{"type":"MultiPolygon","coordinates":[[[[127.116666,36.583333],[127.066666,35.983333],[127.366666,35.966666],[127.366666,36.583333],[127.116666,36.583333]]]]}},{"type":"Feature","properties":{"ident":"MOA 30H","name":"MOA 30H","type":"Other","airspaceClass":null,"upper":"FL 400","upperFt":40000,"upperRef":"FL","lower":"10 000 AMSL","lowerFt":10000,"lowerRef":"AMSL","remarks":"MOA","moa_lbl_1":"MOA 30H","moa_lbl_2":"FL 400","moa_lbl_3":"10 000 AMSL","category":"군작전구역","source":"국토교통부 공역정보 KMZ","cycle":"AIP 2026년 10차"},"geometry":{"type":"MultiPolygon","coordinates":[[[[128.2,38.033333],[127.783333,37.983333],[127.783333,37.683333],[128.2,37.75],[128.2,38.033333]]]]}},{"type":"Feature","properties":{"ident":"MOA 30L","name":"MOA 30L","type":"Other","airspaceClass":null,"upper":"9 000 AMSL","upperFt":9000,"upperRef":"AMSL","lower":"2 000 AGL","lowerFt":2000,"lowerRef":"AGL","remarks":"MOA","moa_lbl_1":"MOA 30L","moa_lbl_2":"9 000 AMSL","moa_lbl_3":"2 000 AGL","category":"군작전구역","source":"국토교통부 공역정보 KMZ","cycle":"AIP 2026년 10차"},"geometry":{"type":"MultiPolygon","coordinates":[[[[128.2,38.033333],[127.783333,37.983333],[127.783333,37.683333],[128.2,37.75],[128.2,38.033333]]]]}},{"type":"Feature","properties":{"ident":"MOA 31H","name":"MOA 31H","type":"Other","airspaceClass":null,"upper":"FL 400","upperFt":40000,"upperRef":"FL","lower":"10 000 AMSL","lowerFt":10000,"lowerRef":"AMSL","remarks":"MOA","moa_lbl_1":"MOA 31H","moa_lbl_2":"FL 400","moa_lbl_3":"10 000 AMSL","category":"군작전구역","source":"국토교통부 공역정보 KMZ","cycle":"AIP 2026년 10차"},"geometry":{"type":"MultiPolygon","coordinates":[[[[128.6,38.066666],[128.2,38.033333],[128.2,37.75],[128.6,37.8],[128.6,38.066666]]]]}},{"type":"Feature","properties":{"ident":"MOA 31L","name":"MOA 31L","type":"Other","airspaceClass":null,"upper":"9 000 AMSL","upperFt":9000,"upperRef":"AMSL","lower":"2 000 AGL","lowerFt":2000,"lowerRef":"AGL","remarks":"MOA","moa_lbl_1":"MOA 31L","moa_lbl_2":"9 000 AMSL","moa_lbl_3":"2 000 AGL","category":"군작전구역","source":"국토교통부 공역정보 KMZ","cycle":"AIP 2026년 10차"},"geometry":{"type":"MultiPolygon","coordinates":[[[[128.6,38.066666],[128.2,38.033333],[128.2,37.75],[128.6,37.8],[128.6,38.066666]]]]}},{"type":"Feature","properties":{"ident":"MOA 32","name":"MOA 32","type":"Other","airspaceClass":null,"upper":"FL 400","upperFt":40000,"upperRef":"FL","lower":"10 000 AMSL","lowerFt":10000,"lowerRef":"AMSL","remarks":"MOA","moa_lbl_1":"MOA 32","moa_lbl_2":"FL 400","moa_lbl_3":"10 000 AMSL","category":"군작전구역","source":"국토교통부 공역정보 KMZ","cycle":"AIP 2026년 10차"},"geometry":{"type":"MultiPolygon","coordinates":[[[[131.0,37.516666],[129.633333,37.55],[129.55,37.433333],[131.0,36.7],[131.0,37.516666]]]]}},{"type":"Feature","properties":{"ident":"MOA 33","name":"MOA 33","type":"Other","airspaceClass":null,"upper":"FL 400","upperFt":40000,"upperRef":"FL","lower":"10 000 AMSL","lowerFt":10000,"lowerRef":"AMSL","remarks":"MOA","moa_lbl_1":"MOA 33","moa_lbl_2":"FL 400","moa_lbl_3":"10 000 AMSL","category":"군작전구역","source":"국토교통부 공역정보 KMZ","cycle":"AIP 2026년 10차"},"geometry":{"type":"MultiPolygon","coordinates":[[[[132.0,37.5],[131.0,37.516666],[131.0,36.7],[131.216667,36.583333],[132.583334,37.283333],[132.0,37.5]]]]}},{"type":"Feature","properties":{"ident":"MOA 34","name":"MOA 34","type":"Other","airspaceClass":null,"upper":"4 000 AMSL","upperFt":4000,"upperRef":"AMSL","lower":"500 AMSL","lowerFt":500,"lowerRef":"AMSL","remarks":"MOA","moa_lbl_1":"MOA 34","moa_lbl_2":"4 000 AMSL","moa_lbl_3":"500 AMSL","category":"군작전구역","source":"국토교통부 공역정보 KMZ","cycle":"AIP 2026년 10차"},"geometry":{"type":"MultiPolygon","coordinates":[[[[125.833333,34.833333],[125.416666,34.833333],[125.416666,34.583333],[125.833333,34.583333],[125.833333,34.833333]]]]}},{"type":"Feature","properties":{"ident":"MOA 35","name":"MOA 35","type":"Other","airspaceClass":null,"upper":"4 000 AMSL","upperFt":4000,"upperRef":"AMSL","lower":"500 AMSL","lowerFt":500,"lowerRef":"AMSL","remarks":"MOA","moa_lbl_1":"MOA 35","moa_lbl_2":"4 000 AMSL","moa_lbl_3":"500 AMSL","category":"군작전구역","source":"국토교통부 공역정보 KMZ","cycle":"AIP 2026년 10차"},"geometry":{"type":"MultiPolygon","coordinates":[[[[125.833333,34.583333],[125.416666,34.583333],[125.416666,34.333333],[125.833333,34.333333],[125.833333,34.583333]]]]}},{"type":"Feature","properties":{"ident":"MOA 36","name":"MOA 36","type":"Other","airspaceClass":null,"upper":"4 000 AMSL","upperFt":4000,"upperRef":"AMSL","lower":"500 AMSL","lowerFt":500,"lowerRef":"AMSL","remarks":"MOA","moa_lbl_1":"MOA 36","moa_lbl_2":"4 000 AMSL","moa_lbl_3":"500 AMSL","category":"군작전구역","source":"국토교통부 공역정보 KMZ","cycle":"AIP 2026년 10차"},"geometry":{"type":"MultiPolygon","coordinates":[[[[125.416666,34.833333],[125.0,34.833333],[125.0,34.333333],[125.416666,34.333333],[125.416666,34.833333]]]]}},{"type":"Feature","properties":{"ident":"MOA 37","name":"MOA 37","type":"Other","airspaceClass":null,"upper":"8 000 AMSL","upperFt":8000,"upperRef":"AMSL","lower":"SFC","lowerFt":0,"lowerRef":"SFC","remarks":"MOA","moa_lbl_1":"MOA 37","moa_lbl_2":"8 000 AMSL","moa_lbl_3":"SFC","category":"군작전구역","source":"국토교통부 공역정보 KMZ","cycle":"AIP 2026년 10차"},"geometry":{"type":"MultiPolygon","coordinates":[[[[131.0,37.416666],[129.5,37.416666],[129.5,37.25],[130.583334,36.75],[130.583334,36.25],[131.0,36.5],[131.0,37.416666]]]]}},{"type":"Feature","properties":{"ident":"MOA 38","name":"MOA 38","type":"Other","airspaceClass":null,"upper":"8 000 AMSL","upperFt":8000,"upperRef":"AMSL","lower":"SFC","lowerFt":0,"lowerRef":"SFC","remarks":"MOA","moa_lbl_1":"MOA 38","moa_lbl_2":"8 000 AMSL","moa_lbl_3":"SFC","category":"군작전구역","source":"국토교통부 공역정보 KMZ","cycle":"AIP 2026년 10차"},"geometry":{"type":"MultiPolygon","coordinates":[[[[132.0,37.5],[131.0,37.5],[131.0,36.5],[132.0,37.0],[132.0,37.5]]]]}},{"type":"Feature","properties":{"ident":"MOA 39","name":"MOA 39","type":"Other","airspaceClass":null,"upper":"5 000 AMSL","upperFt":5000,"upperRef":"AMSL","lower":"SFC","lowerFt":0,"lowerRef":"SFC","remarks":"MOA","moa_lbl_1":"MOA 39","moa_lbl_2":"5 000 AMSL","moa_lbl_3":"SFC","category":"군작전구역","source":"국토교통부 공역정보 KMZ","cycle":"AIP 2026년 10차"},"geometry":{"type":"MultiPolygon","coordinates":[[[[127.25,33.75],[126.866666,33.45],[127.066666,33.183333],[127.533333,33.55],[127.25,33.75]]]]}},{"type":"Feature","properties":{"ident":"MOA 3A","name":"MOA 3A","type":"Other","airspaceClass":null,"upper":"7 000 AMSL","upperFt":7000,"upperRef":"AMSL","lower":"3 000 AGL","lowerFt":3000,"lowerRef":"AGL","remarks":"MOA","moa_lbl_1":"MOA 3A","moa_lbl_2":"7 000 AMSL","moa_lbl_3":"3 000 AGL","category":"군작전구역","source":"국토교통부 공역정보 KMZ","cycle":"AIP 2026년 10차"},"geometry":{"type":"MultiPolygon","coordinates":[[[[127.716667,36.583333],[127.533333,36.566666],[127.616666,36.45],[127.85,36.3],[127.95,36.383333],[127.716667,36.583333]]]]}},{"type":"Feature","properties":{"ident":"MOA 3H","name":"MOA 3H","type":"Other","airspaceClass":null,"upper":"FL 400","upperFt":40000,"upperRef":"FL","lower":"10 000 AMSL","lowerFt":10000,"lowerRef":"AMSL","remarks":"MOA","moa_lbl_1":"MOA 3H","moa_lbl_2":"FL 400","moa_lbl_3":"10 000 AMSL","category":"군작전구역","source":"국토교통부 공역정보 KMZ","cycle":"AIP 2026년 10차"},"geometry":{"type":"MultiPolygon","coordinates":[[[[127.716667,36.366666],[127.366666,36.583333],[127.366666,35.966666],[128.25,35.933333],[127.716667,36.366666]]]]}},{"type":"Feature","properties":{"ident":"MOA 3L","name":"MOA 3L","type":"Other","airspaceClass":null,"upper":"9 000 AMSL","upperFt":9000,"upperRef":"AMSL","lower":"3 000 AGL","lowerFt":3000,"lowerRef":"AGL","remarks":"MOA","moa_lbl_1":"MOA 3L","moa_lbl_2":"9 000 AMSL","moa_lbl_3":"3 000 AGL","category":"군작전구역","source":"국토교통부 공역정보 KMZ","cycle":"AIP 2026년 10차"},"geometry":{"type":"MultiPolygon","coordinates":[[[[127.716667,36.366666],[127.366666,36.266666],[127.366666,35.966666],[128.25,35.933333],[127.716667,36.366666]]]]}},{"type":"Feature","properties":{"ident":"MOA 4","name":"MOA 4","type":"Other","airspaceClass":null,"upper":"9 000 AMSL","upperFt":9000,"upperRef":"AMSL","lower":"3 000 AGL","lowerFt":3000,"lowerRef":"AGL","remarks":"MOA","moa_lbl_1":"MOA 4","moa_lbl_2":"9 000 AMSL","moa_lbl_3":"3 000 AGL","category":"군작전구역","source":"국토교통부 공역정보 KMZ","cycle":"AIP 2026년 10차"},"geometry":{"type":"MultiPolygon","coordinates":[[[[127.766666,36.85],[127.666666,36.75],[128.083334,36.45],[128.233333,36.583333],[127.766666,36.85]]]]}},{"type":"Feature","properties":{"ident":"MOA 40","name":"MOA 40","type":"Other","airspaceClass":null,"upper":"5 000 AMSL","upperFt":5000,"upperRef":"AMSL","lower":"SFC","lowerFt":0,"lowerRef":"SFC","remarks":"MOA","moa_lbl_1":"MOA 40","moa_lbl_2":"5 000 AMSL","moa_lbl_3":"SFC","category":"군작전구역","source":"국토교통부 공역정보 KMZ","cycle":"AIP 2026년 10차"},"geometry":{"type":"MultiPolygon","coordinates":[[[[126.0,34.333333],[125.15953,34.333333],[124.5,34.333333],[124.5,33.75],[125.198574,33.75],[126.0,33.75],[126.0,34.333333]]]]}},{"type":"Feature","properties":{"ident":"MOA 41","name":"MOA 41","type":"Other","airspaceClass":null,"upper":"5 000 AMSL","upperFt":5000,"upperRef":"AMSL","lower":"SFC","lowerFt":0,"lowerRef":"SFC","remarks":"MOA","moa_lbl_1":"MOA 41","moa_lbl_2":"5 000 AMSL","moa_lbl_3":"SFC","category":"군작전구역","source":"국토교통부 공역정보 KMZ","cycle":"AIP 2026년 10차"},"geometry":{"type":"MultiPolygon","coordinates":[[[[124.5,33.75],[124.5,33.444213],[124.5,33.166666],[124.66923,33.166666],[124.987347,33.166666],[125.201999,33.166666],[125.462979,33.166666],[125.768742,33.166666],[126.0,33.166666],[126.0,33.456567],[126.0,33.75],[125.677631,33.75],[125.249871,33.75],[124.843732,33.75],[124.5,33.75]]]]}},{"type":"Feature","properties":{"ident":"MOA 5","name":"MOA 5","type":"Other","airspaceClass":null,"upper":"9 000 AMSL","upperFt":9000,"upperRef":"AMSL","lower":"3 000 AGL","lowerFt":3000,"lowerRef":"AGL","remarks":"MOA","moa_lbl_1":"MOA 5","moa_lbl_2":"9 000 AMSL","moa_lbl_3":"3 000 AGL","category":"군작전구역","source":"국토교통부 공역정보 KMZ","cycle":"AIP 2026년 10차"},"geometry":{"type":"MultiPolygon","coordinates":[[[[127.966667,37.45],[127.983334,37.1],[128.516666,37.2],[128.516666,37.533333],[127.966667,37.45]]]]}},{"type":"Feature","properties":{"ident":"MOA 5","name":"MOA 5","type":"Other","airspaceClass":null,"upper":"FL 400","upperFt":40000,"upperRef":"FL","lower":"12 000 AMSL","lowerFt":12000,"lowerRef":"AMSL","remarks":"MOA","moa_lbl_1":"MOA 5","moa_lbl_2":"FL 400","moa_lbl_3":"12 000 AMSL","category":"군작전구역","source":"국토교통부 공역정보 KMZ","cycle":"AIP 2026년 10차"},"geometry":{"type":"MultiPolygon","coordinates":[[[[127.966667,37.45],[127.983334,37.1],[128.516666,37.2],[128.516666,37.533333],[127.966667,37.45]]]]}},{"type":"Feature","properties":{"ident":"MOA 6","name":"MOA 6","type":"Other","airspaceClass":null,"upper":"FL 400","upperFt":40000,"upperRef":"FL","lower":"10 000 AMSL","lowerFt":10000,"lowerRef":"AMSL","remarks":"MOA","moa_lbl_1":"MOA 6","moa_lbl_2":"FL 400","moa_lbl_3":"10 000 AMSL","category":"군작전구역","source":"국토교통부 공역정보 KMZ","cycle":"AIP 2026년 10차"},"geometry":{"type":"MultiPolygon","coordinates":[[[[128.516666,37.533333],[128.516666,37.2],[128.683333,37.216666],[129.05,37.216666],[129.1,37.383333],[128.716667,37.566666],[128.516666,37.533333]]]]}},{"type":"Feature","properties":{"ident":"MOA 6","name":"MOA 6","type":"Other","airspaceClass":null,"upper":"9 000 AMSL","upperFt":9000,"upperRef":"AMSL","lower":"3 000 AGL","lowerFt":3000,"lowerRef":"AGL","remarks":"MOA","moa_lbl_1":"MOA 6","moa_lbl_2":"9 000 AMSL","moa_lbl_3":"3 000 AGL","category":"군작전구역","source":"국토교통부 공역정보 KMZ","cycle":"AIP 2026년 10차"},"geometry":{"type":"MultiPolygon","coordinates":[[[[128.516666,37.533333],[128.516666,37.2],[128.683333,37.216666],[129.05,37.216666],[129.1,37.383333],[128.716667,37.566666],[128.516666,37.533333]]]]}},{"type":"Feature","properties":{"ident":"MOA 7","name":"MOA 7","type":"Other","airspaceClass":null,"upper":"FL 400","upperFt":40000,"upperRef":"FL","lower":"10 000 AMSL","lowerFt":10000,"lowerRef":"AMSL","remarks":"MOA","moa_lbl_1":"MOA 7","moa_lbl_2":"FL 400","moa_lbl_3":"10 000 AMSL","category":"군작전구역","source":"국토교통부 공역정보 KMZ","cycle":"AIP 2026년 10차"},"geometry":{"type":"MultiPolygon","coordinates":[[[[129.85,38.25],[129.0,38.266666],[129.0,37.816666],[129.85,37.8],[129.85,38.25]]]]}},{"type":"Feature","properties":{"ident":"MOA 74","name":"MOA 74","type":"Other","airspaceClass":null,"upper":"FL 500","upperFt":50000,"upperRef":"FL","lower":"GND","lowerFt":0,"lowerRef":"GND","remarks":"MOA","moa_lbl_1":"MOA 74","moa_lbl_2":"FL 500","moa_lbl_3":"GND","category":"군작전구역","source":"국토교통부 공역정보 KMZ","cycle":"AIP 2026년 10차"},"geometry":{"type":"MultiPolygon","coordinates":[[[[130.416667,36.733333],[130.216667,36.833333],[130.0,36.866667],[130.0,36.033333],[130.416667,36.033333],[130.416667,36.733333]]]]}},{"type":"Feature","properties":{"ident":"MOA 8","name":"MOA 8","type":"Other","airspaceClass":null,"upper":"FL 400","upperFt":40000,"upperRef":"FL","lower":"11 000 AMSL","lowerFt":11000,"lowerRef":"AMSL","remarks":"MOA","moa_lbl_1":"MOA 8","moa_lbl_2":"FL 400","moa_lbl_3":"11 000 AMSL","category":"군작전구역","source":"국토교통부 공역정보 KMZ","cycle":"AIP 2026년 10차"},"geometry":{"type":"MultiPolygon","coordinates":[[[[130.0,36.966666],[129.1,37.383333],[129.05,37.216666],[129.05,36.916666],[129.25,36.833333],[130.0,36.833333],[130.0,36.966666]]]]}},{"type":"Feature","properties":{"ident":"MOA 8","name":"MOA 8","type":"Other","airspaceClass":null,"upper":"8 000 AMSL","upperFt":8000,"upperRef":"AMSL","lower":"3 000 AGL","lowerFt":3000,"lowerRef":"AGL","remarks":"MOA","moa_lbl_1":"MOA 8","moa_lbl_2":"8 000 AMSL","moa_lbl_3":"3 000 AGL","category":"군작전구역","source":"국토교통부 공역정보 KMZ","cycle":"AIP 2026년 10차"},"geometry":{"type":"MultiPolygon","coordinates":[[[[130.0,36.966666],[129.1,37.383333],[129.05,37.216666],[129.05,36.916666],[129.25,36.833333],[130.0,36.833333],[130.0,36.966666]]]]}},{"type":"Feature","properties":{"ident":"MOA 80","name":"MOA 80","type":"Other","airspaceClass":null,"upper":"FL 500","upperFt":50000,"upperRef":"FL","lower":"GND","lowerFt":0,"lowerRef":"GND","remarks":"MOA","moa_lbl_1":"MOA 80","moa_lbl_2":"FL 500","moa_lbl_3":"GND","category":"군작전구역","source":"국토교통부 공역정보 KMZ","cycle":"AIP 2026년 10차"},"geometry":{"type":"MultiPolygon","coordinates":[[[[125.6,36.533333],[124.833333,36.533333],[124.523889,36.398889],[124.525556,36.081944],[125.601111,36.083611],[125.6,36.533333]]]]}},{"type":"Feature","properties":{"ident":"MOA 84","name":"MOA 84","type":"Other","airspaceClass":null,"upper":"FL 500","upperFt":50000,"upperRef":"FL","lower":"GND","lowerFt":0,"lowerRef":"GND","remarks":"MOA","moa_lbl_1":"MOA 84","moa_lbl_2":"FL 500","moa_lbl_3":"GND","category":"군작전구역","source":"국토교통부 공역정보 KMZ","cycle":"AIP 2026년 10차"},"geometry":{"type":"MultiPolygon","coordinates":[[[[125.602778,35.250278],[124.528889,35.249167],[124.530556,34.8325],[125.603333,34.833333],[125.602778,35.250278]]]]}},{"type":"Feature","properties":{"ident":"MOA 88","name":"MOA 88","type":"Other","airspaceClass":null,"upper":"FL 500","upperFt":50000,"upperRef":"FL","lower":"GND","lowerFt":0,"lowerRef":"GND","remarks":"MOA","moa_lbl_1":"MOA 88","moa_lbl_2":"FL 500","moa_lbl_3":"GND","category":"군작전구역","source":"국토교통부 공역정보 KMZ","cycle":"AIP 2026년 10차"},"geometry":{"type":"MultiPolygon","coordinates":[[[[125.6,37.035556],[124.833333,37.0225],[124.833333,36.533333],[125.6,36.533333],[125.6,37.035556]]]]}},{"type":"Feature","properties":{"ident":"MOA 9E","name":"MOA 9E","type":"Other","airspaceClass":null,"upper":"FL 400","upperFt":40000,"upperRef":"FL","lower":"11 000 AMSL","lowerFt":11000,"lowerRef":"AMSL","remarks":"MOA","moa_lbl_1":"MOA 9E","moa_lbl_2":"FL 400","moa_lbl_3":"11 000 AMSL","category":"군작전구역","source":"국토교통부 공역정보 KMZ","cycle":"AIP 2026년 10차"},"geometry":{"type":"MultiPolygon","coordinates":[[[[130.0,36.833333],[129.533333,36.833333],[129.583334,36.5],[130.0,36.5],[130.0,36.833333]]]]}},{"type":"Feature","properties":{"ident":"MOA 9E","name":"MOA 9E","type":"Other","airspaceClass":null,"upper":"10 000 AMSL","upperFt":10000,"upperRef":"AMSL","lower":"3 000 AGL","lowerFt":3000,"lowerRef":"AGL","remarks":"MOA","moa_lbl_1":"MOA 9E","moa_lbl_2":"10 000 AMSL","moa_lbl_3":"3 000 AGL","category":"군작전구역","source":"국토교통부 공역정보 KMZ","cycle":"AIP 2026년 10차"},"geometry":{"type":"MultiPolygon","coordinates":[[[[130.0,36.833333],[129.533333,36.833333],[129.583334,36.5],[130.0,36.5],[130.0,36.833333]]]]}},{"type":"Feature","properties":{"ident":"MOA 9W","name":"MOA 9W","type":"Other","airspaceClass":null,"upper":"7 000 AMSL","upperFt":7000,"upperRef":"AMSL","lower":"3 000 AGL","lowerFt":3000,"lowerRef":"AGL","remarks":"MOA","moa_lbl_1":"MOA 9W","moa_lbl_2":"7 000 AMSL","moa_lbl_3":"3 000 AGL","category":"군작전구역","source":"국토교통부 공역정보 KMZ","cycle":"AIP 2026년 10차"},"geometry":{"type":"MultiPolygon","coordinates":[[[[129.533333,36.833333],[129.25,36.833333],[129.25,36.5],[129.583334,36.5],[129.533333,36.833333]]]]}},{"type":"Feature","properties":{"ident":"MOA 9W","name":"MOA 9W","type":"Other","airspaceClass":null,"upper":"FL 400","upperFt":40000,"upperRef":"FL","lower":"11 000 AMSL","lowerFt":11000,"lowerRef":"AMSL","remarks":"MOA","moa_lbl_1":"MOA 9W","moa_lbl_2":"FL 400","moa_lbl_3":"11 000 AMSL","category":"군작전구역","source":"국토교통부 공역정보 KMZ","cycle":"AIP 2026년 10차"},"geometry":{"type":"MultiPolygon","coordinates":[[[[129.533333,36.833333],[129.25,36.833333],[129.25,36.5],[129.583334,36.5],[129.533333,36.833333]]]]}},{"type":"Feature","properties":{"ident":"MOA HTA 1","name":"HTA 1","type":"Other","airspaceClass":null,"upper":"1 000 AMSL","upperFt":1000,"upperRef":"AMSL","lower":"SFC","lowerFt":0,"lowerRef":"SFC","remarks":"MOA","moa_lbl_1":"MOA HTA 1","moa_lbl_2":"1 000 AMSL","moa_lbl_3":"SFC","category":"군작전구역","source":"국토교통부 공역정보 KMZ","cycle":"AIP 2026년 10차"},"geometry":{"type":"MultiPolygon","coordinates":[[[[126.766667,37.181532],[126.766667,37.183333],[126.764428,37.183333],[126.762189,37.183333],[126.75995,37.183333],[126.757711,37.183333],[126.755473,37.183333],[126.753234,37.183333],[126.750995,37.183333],[126.748756,37.183333],[126.746517,37.183333],[126.744279,37.183333],[126.74204,37.183333],[126.739801,37.183333],[126.737562,37.183333],[126.735323,37.183333],[126.733085,37.183333],[126.730846,37.183333],[126.728607,37.183333],[126.726368,37.183333],[126.724129,37.183333],[126.721891,37.183333],[126.719652,37.183333],[126.717413,37.183333],[126.715174,37.183333],[126.712935,37.183333],[126.710697,37.183333],[126.708458,37.183333],[126.706219,37.183333],[126.70398,37.183333],[126.701741,37.183333],[126.699502,37.183333],[126.697264,37.183333],[126.695025,37.183333],[126.692786,37.183333],[126.690547,37.183333],[126.688308,37.183333],[126.68607,37.183333],[126.683831,37.183333],[126.681592,37.183333],[126.679353,37.183333],[126.677114,37.183333],[126.674876,37.183333],[126.672637,37.183333],[126.670398,37.183333],[126.668159,37.183333],[126.66592,37.183333],[126.663682,37.183333],[126.661443,37.183333],[126.659204,37.183333],[126.656965,37.183333],[126.654726,37.183333],[126.652488,37.183333],[126.650249,37.183333],[126.64801,37.183333],[126.645771,37.183333],[126.643532,37.183333],[126.641294,37.183333],[126.639055,37.183333],[126.636816,37.183333],[126.634577,37.183333],[126.632338,37.183333],[126.6301,37.183333],[126.627861,37.183333],[126.625622,37.183333],[126.623383,37.183333],[126.621144,37.183333],[126.618905,37.183333],[126.616667,37.183333],[126.616667,37.181532],[126.616667,37.17973],[126.616667,37.177928],[126.616667,37.176126],[126.616667,37.174324],[126.616667,37.172523],[126.616667,37.170721],[126.616667,37.168919],[126.616667,37.167117],[126.616667,37.165315],[126.616667,37.163514],[126.616667,37.161712],[126.616667,37.15991],[126.616667,37.158108],[126.616667,37.156307],[126.616667,37.154505],[126.616667,37.152703],[126.616667,37.150901],[126.616667,37.149099],[126.616667,37.147298],[126.616667,37.145496],[126.616667,37.143694],[126.616667,37.141892],[126.616667,37.14009],[126.616667,37.138289],[126.616667,37.136487],[126.616667,37.134685],[126.616667,37.132883],[126.616667,37.131081],[126.616667,37.12928],[126.616667,37.127478],[126.616667,37.125676],[126.616667,37.123874],[126.616667,37.122072],[126.616667,37.120271],[126.616667,37.118469],[126.616667,37.116667],[126.616667,37.114865],[126.616667,37.113063],[126.616667,37.111262],[126.616667,37.10946],[126.616667,37.107658],[126.616667,37.105856],[126.616667,37.104054],[126.616667,37.102253],[126.616667,37.100451],[126.616667,37.098649],[126.616667,37.096847],[126.616667,37.095045],[126.616667,37.093244],[126.616667,37.091442],[126.616667,37.08964],[126.616667,37.087838],[126.616667,37.086036],[126.616667,37.084235],[126.616667,37.082433],[126.616667,37.080631],[126.616667,37.078829],[126.616667,37.077027],[126.616667,37.075225],[126.616667,37.073424],[126.616667,37.071622],[126.616667,37.06982],[126.616667,37.068018],[126.616667,37.066216],[126.616667,37.064415],[126.616667,37.062613],[126.616667,37.060811],[126.616667,37.059009],[126.616667,37.057207],[126.616667,37.055405],[126.616667,37.053604],[126.616667,37.051802],[126.616667,37.05],[126.616688,37.05],[126.628225,37.05],[126.651299,37.05],[126.662835,37.05],[126.685909,37.05],[126.708983,37.05],[126.720519,37.05],[126.732056,37.05],[126.75513,37.05],[126.766667,37.05],[126.766667,37.051802],[126.766667,37.053604],[126.766667,37.055405],[126.766667,37.057207],[126.766667,37.059009],[126.766667,37.060811],[126.766667,37.062613],[126.766667,37.064415],[126.766667,37.066216],[126.766667,37.068018],[126.766667,37.06982],[126.766667,37.071622],[126.766667,37.073424],[126.766667,37.075225],[126.766667,37.077027],[126.766667,37.078829],[126.766667,37.080631],[126.766667,37.082433],[126.766667,37.084235],[126.766667,37.086036],[126.766667,37.087838],[126.766667,37.08964],[126.766667,37.091442],[126.766667,37.093244],[126.766667,37.095045],[126.766667,37.096847],[126.766667,37.098649],[126.766667,37.100451],[126.766667,37.102253],[126.766667,37.104054],[126.766667,37.105856],[126.766667,37.107658],[126.766667,37.10946],[126.766667,37.111262],[126.766667,37.113063],[126.766667,37.114865],[126.766667,37.116667],[126.766667,37.118469],[126.766667,37.120271],[126.766667,37.122072],[126.766667,37.123874],[126.766667,37.125676],[126.766667,37.127478],[126.766667,37.12928],[126.766667,37.131081],[126.766667,37.132883],[126.766667,37.134685],[126.766667,37.136487],[126.766667,37.138289],[126.766667,37.14009],[126.766667,37.141892],[126.766667,37.143694],[126.766667,37.145496],[126.766667,37.147298],[126.766667,37.149099],[126.766667,37.150901],[126.766667,37.152703],[126.766667,37.154505],[126.766667,37.156307],[126.766667,37.158108],[126.766667,37.15991],[126.766667,37.161712],[126.766667,37.163514],[126.766667,37.165315],[126.766667,37.167117],[126.766667,37.168919],[126.766667,37.170721],[126.766667,37.172523],[126.766667,37.174324],[126.766667,37.176126],[126.766667,37.177928],[126.766667,37.17973],[126.766667,37.181532]]]]}},{"type":"Feature","properties":{"ident":"MOA HTA 2","name":"HTA 2","type":"Other","airspaceClass":null,"upper":"1 500 AMSL","upperFt":1500,"upperRef":"AMSL","lower":"SFC","lowerFt":0,"lowerRef":"SFC","remarks":"MOA","moa_lbl_1":"MOA HTA 2","moa_lbl_2":"1 500 AMSL","moa_lbl_3":"SFC","category":"군작전구역","source":"국토교통부 공역정보 KMZ","cycle":"AIP 2026년 10차"},"geometry":{"type":"MultiPolygon","coordinates":[[[[126.616667,37.181532],[126.616667,37.183333],[126.614419,37.183333],[126.612172,37.183333],[126.609925,37.183333],[126.607678,37.183333],[126.605431,37.183333],[126.603184,37.183333],[126.600936,37.183333],[126.598689,37.183333],[126.596442,37.183333],[126.594195,37.183333],[126.591948,37.183333],[126.5897,37.183333],[126.587453,37.183333],[126.585206,37.183333],[126.582959,37.183333],[126.580712,37.183333],[126.578464,37.183333],[126.576217,37.183333],[126.57397,37.183333],[126.571723,37.183333],[126.569476,37.183333],[126.567228,37.183333],[126.564981,37.183333],[126.562734,37.183333],[126.560487,37.183333],[126.55824,37.183333],[126.555993,37.183333],[126.553745,37.183333],[126.551498,37.183333],[126.549251,37.183333],[126.547004,37.183333],[126.544757,37.183333],[126.542509,37.183333],[126.540262,37.183333],[126.538015,37.183333],[126.535768,37.183333],[126.533521,37.183333],[126.531273,37.183333],[126.529026,37.183333],[126.526779,37.183333],[126.524532,37.183333],[126.522285,37.183333],[126.520037,37.183333],[126.51779,37.183333],[126.515543,37.183333],[126.513296,37.183333],[126.511049,37.183333],[126.508801,37.183333],[126.506554,37.183333],[126.504307,37.183333],[126.50206,37.183333],[126.499813,37.183333],[126.497566,37.183333],[126.495318,37.183333],[126.493071,37.183333],[126.490824,37.183333],[126.488577,37.183333],[126.48633,37.183333],[126.484082,37.183333],[126.481835,37.183333],[126.479588,37.183333],[126.477341,37.183333],[126.475094,37.183333],[126.472846,37.183333],[126.470599,37.183333],[126.468352,37.183333],[126.466105,37.183333],[126.463858,37.183333],[126.46161,37.183333],[126.459363,37.183333],[126.457116,37.183333],[126.454869,37.183333],[126.452622,37.183333],[126.450375,37.183333],[126.448127,37.183333],[126.44588,37.183333],[126.443633,37.183333],[126.441386,37.183333],[126.439139,37.183333],[126.436891,37.183333],[126.434644,37.183333],[126.432397,37.183333],[126.43015,37.183333],[126.427903,37.183333],[126.425655,37.183333],[126.423408,37.183333],[126.421161,37.183333],[126.418914,37.183333],[126.416667,37.183333],[126.416667,37.181532],[126.416667,37.17973],[126.416667,37.177928],[126.416667,37.176126],[126.416667,37.174324],[126.416667,37.172523],[126.416667,37.170721],[126.416667,37.168919],[126.416667,37.167117],[126.416667,37.165315],[126.416667,37.163514],[126.416667,37.161712],[126.416667,37.15991],[126.416667,37.158108],[126.416667,37.156307],[126.416667,37.154505],[126.416667,37.152703],[126.416667,37.150901],[126.416667,37.149099],[126.416667,37.147298],[126.416667,37.145496],[126.416667,37.143694],[126.416667,37.141892],[126.416667,37.14009],[126.416667,37.138289],[126.416667,37.136487],[126.416667,37.134685],[126.416667,37.132883],[126.416667,37.131081],[126.416667,37.12928],[126.416667,37.127478],[126.416667,37.125676],[126.416667,37.123874],[126.416667,37.122072],[126.416667,37.120271],[126.416667,37.118469],[126.416667,37.116667],[126.416667,37.114865],[126.416667,37.113063],[126.416667,37.111262],[126.416667,37.10946],[126.416667,37.107658],[126.416667,37.105856],[126.416667,37.104054],[126.416667,37.102253],[126.416667,37.100451],[126.416667,37.098649],[126.416667,37.096847],[126.416667,37.095045],[126.416667,37.093244],[126.416667,37.091442],[126.416667,37.08964],[126.416667,37.087838],[126.416667,37.086036],[126.416667,37.084235],[126.416667,37.082433],[126.416667,37.080631],[126.416667,37.078829],[126.416667,37.077027],[126.416667,37.075225],[126.416667,37.073424],[126.416667,37.071622],[126.416667,37.06982],[126.416667,37.068018],[126.416667,37.066216],[126.416667,37.064415],[126.416667,37.062613],[126.416667,37.060811],[126.416667,37.059009],[126.416667,37.057207],[126.416667,37.055405],[126.416667,37.053604],[126.416667,37.051802],[126.416667,37.05],[126.418914,37.05],[126.421161,37.05],[126.423408,37.05],[126.425655,37.05],[126.427903,37.05],[126.43015,37.05],[126.432397,37.05],[126.434644,37.05],[126.436891,37.05],[126.439139,37.05],[126.441386,37.05],[126.443633,37.05],[126.44588,37.05],[126.448127,37.05],[126.450375,37.05],[126.452622,37.05],[126.454869,37.05],[126.457116,37.05],[126.459363,37.05],[126.46161,37.05],[126.463858,37.05],[126.466105,37.05],[126.468352,37.05],[126.470599,37.05],[126.472846,37.05],[126.475094,37.05],[126.477341,37.05],[126.479588,37.05],[126.481835,37.05],[126.484082,37.05],[126.48633,37.05],[126.488577,37.05],[126.490824,37.05],[126.493071,37.05],[126.495318,37.05],[126.497566,37.05],[126.499813,37.05],[126.50206,37.05],[126.504307,37.05],[126.506554,37.05],[126.508801,37.05],[126.511049,37.05],[126.513296,37.05],[126.515543,37.05],[126.51779,37.05],[126.520037,37.05],[126.522285,37.05],[126.524532,37.05],[126.526779,37.05],[126.529026,37.05],[126.531273,37.05],[126.533521,37.05],[126.535768,37.05],[126.538015,37.05],[126.540262,37.05],[126.542509,37.05],[126.544757,37.05],[126.547004,37.05],[126.549251,37.05],[126.551498,37.05],[126.553745,37.05],[126.555993,37.05],[126.55824,37.05],[126.560487,37.05],[126.562734,37.05],[126.564981,37.05],[126.567228,37.05],[126.569476,37.05],[126.571723,37.05],[126.57397,37.05],[126.576217,37.05],[126.578464,37.05],[126.580712,37.05],[126.582959,37.05],[126.585206,37.05],[126.587453,37.05],[126.5897,37.05],[126.591948,37.05],[126.594195,37.05],[126.596442,37.05],[126.598689,37.05],[126.600936,37.05],[126.603184,37.05],[126.605431,37.05],[126.607678,37.05],[126.609925,37.05],[126.612172,37.05],[126.614419,37.05],[126.616667,37.05],[126.616667,37.051802],[126.616667,37.053604],[126.616667,37.055405],[126.616667,37.057207],[126.616667,37.059009],[126.616667,37.060811],[126.616667,37.062613],[126.616667,37.064415],[126.616667,37.066216],[126.616667,37.068018],[126.616667,37.06982],[126.616667,37.071622],[126.616667,37.073424],[126.616667,37.075225],[126.616667,37.077027],[126.616667,37.078829],[126.616667,37.080631],[126.616667,37.082433],[126.616667,37.084235],[126.616667,37.086036],[126.616667,37.087838],[126.616667,37.08964],[126.616667,37.091442],[126.616667,37.093244],[126.616667,37.095045],[126.616667,37.096847],[126.616667,37.098649],[126.616667,37.100451],[126.616667,37.102253],[126.616667,37.104054],[126.616667,37.105856],[126.616667,37.107658],[126.616667,37.10946],[126.616667,37.111262],[126.616667,37.113063],[126.616667,37.114865],[126.616667,37.116667],[126.616667,37.118469],[126.616667,37.120271],[126.616667,37.122072],[126.616667,37.123874],[126.616667,37.125676],[126.616667,37.127478],[126.616667,37.12928],[126.616667,37.131081],[126.616667,37.132883],[126.616667,37.134685],[126.616667,37.136487],[126.616667,37.138289],[126.616667,37.14009],[126.616667,37.141892],[126.616667,37.143694],[126.616667,37.145496],[126.616667,37.147298],[126.616667,37.149099],[126.616667,37.150901],[126.616667,37.152703],[126.616667,37.154505],[126.616667,37.156307],[126.616667,37.158108],[126.616667,37.15991],[126.616667,37.161712],[126.616667,37.163514],[126.616667,37.165315],[126.616667,37.167117],[126.616667,37.168919],[126.616667,37.170721],[126.616667,37.172523],[126.616667,37.174324],[126.616667,37.176126],[126.616667,37.177928],[126.616667,37.17973],[126.616667,37.181532]]]]}},{"type":"Feature","properties":{"ident":"MOA KS ACMIA","name":"ACMI A","type":"Other","airspaceClass":null,"upper":"5 000 AMSL","upperFt":5000,"upperRef":"AMSL","lower":"SFC","lowerFt":0,"lowerRef":"SFC","remarks":"ACMI","moa_lbl_1":"MOA KS ACMIA","moa_lbl_2":"5 000 AMSL","moa_lbl_3":"SFC","category":"군작전구역","source":"국토교통부 공역정보 KMZ","cycle":"AIP 2026년 10차"},"geometry":{"type":"MultiPolygon","coordinates":[[[[126.166667,37.042222],[125.7,37.036944],[125.7,36.683333],[126.166667,36.683333],[126.166667,37.042222]]]]}},{"type":"Feature","properties":{"ident":"MOA KS ACMIB","name":"ACMI B","type":"Other","airspaceClass":null,"upper":"9 000 AMSL","upperFt":9000,"upperRef":"AMSL","lower":"6 000 AMSL","lowerFt":6000,"lowerRef":"AMSL","remarks":"ACMI","moa_lbl_1":"MOA KS ACMIB","moa_lbl_2":"9 000 AMSL","moa_lbl_3":"6 000 AMSL","category":"군작전구역","source":"국토교통부 공역정보 KMZ","cycle":"AIP 2026년 10차"},"geometry":{"type":"MultiPolygon","coordinates":[[[[126.166667,37.042222],[125.7,37.036944],[125.7,36.683333],[126.166667,36.683333],[126.166667,37.042222]]]]}},{"type":"Feature","properties":{"ident":"MOA KS ACMIC","name":"ACMI C","type":"Other","airspaceClass":null,"upper":"FL 600","upperFt":60000,"upperRef":"FL","lower":"10 000 AMSL","lowerFt":10000,"lowerRef":"AMSL","remarks":"ACMI","moa_lbl_1":"MOA KS ACMIC","moa_lbl_2":"FL 600","moa_lbl_3":"10 000 AMSL","category":"군작전구역","source":"국토교통부 공역정보 KMZ","cycle":"AIP 2026년 10차"},"geometry":{"type":"MultiPolygon","coordinates":[[[[126.398333,37.044167],[125.6,37.035556],[125.6,36.533333],[125.7,36.533333],[126.166667,36.683333],[126.475,36.683333],[126.483333,36.733333],[126.483333,36.8],[126.425,37.002778],[126.398333,37.044167]]]]}},{"type":"Feature","properties":{"ident":"MOA KS ACMID","name":"ACMI D","type":"Other","airspaceClass":null,"upper":"FL 600","upperFt":60000,"upperRef":"FL","lower":"SFC","lowerFt":0,"lowerRef":"SFC","remarks":"ACMI","moa_lbl_1":"MOA KS ACMID","moa_lbl_2":"FL 600","moa_lbl_3":"SFC","category":"군작전구역","source":"국토교통부 공역정보 KMZ","cycle":"AIP 2026년 10차"},"geometry":{"type":"MultiPolygon","coordinates":[[[[125.7,37.036944],[125.6,37.035556],[125.6,36.533333],[125.7,36.533333],[125.7,37.036944]]]]}},{"type":"Feature","properties":{"ident":"MOA KS ACMIE","name":"ACMI E","type":"Other","airspaceClass":null,"upper":"FL 600","upperFt":60000,"upperRef":"FL","lower":"10 000 AMSL","lowerFt":10000,"lowerRef":"AMSL","remarks":"ACMI","moa_lbl_1":"MOA KS ACMIE","moa_lbl_2":"FL 600","moa_lbl_3":"10 000 AMSL","category":"군작전구역","source":"국토교통부 공역정보 KMZ","cycle":"AIP 2026년 10차"},"geometry":{"type":"MultiPolygon","coordinates":[[[[126.166667,36.683333],[125.7,36.683333],[125.7,36.533333],[126.166667,36.683333]]]]}}]}
