{"type":"FeatureCollection","features":[{"type":"Feature","properties":{"role":"coverage"},"geometry":{"type":"Polygon","coordinates":[[[128.67,40.33],[128.7,40.33],[128.73,40.33],[128.76,40.33],[128.79,40.33],[128.82,40.33],[128.85,40.33],[128.88,40.33],[128.91,40.33],[128.94,40.33],[128.97,40.33],[129,40.33],[129.03,40.33],[129.06,40.33],[129.08,40.32],[129.11,40.32],[129.14,40.32],[129.17,40.32],[129.2,40.32],[129.22,40.31],[129.25,40.31],[129.28,40.31],[129.31,40.31],[129.33,40.3],[129.36,40.3],[129.39,40.3],[129.41,40.29],[129.44,40.29],[129.47,40.29],[129.49,40.28],[129.52,40.28],[129.54,40.27],[129.57,40.27],[129.6,40.26],[129.63,40.26],[129.65,40.25],[129.68,40.25],[129.7,40.24],[129.73,40.24],[129.75,40.23],[129.78,40.23],[129.8,40.22],[129.83,40.22],[129.85,40.21],[129.88,40.2],[129.91,40.2],[129.93,40.19],[129.95,40.18],[129.98,40.18],[130,40.17],[130.02,40.16],[130.05,40.16],[130.07,40.15],[130.09,40.14],[130.12,40.13],[130.15,40.12],[130.18,40.11],[130.21,40.1],[130.24,40.09],[130.26,40.08],[130.29,40.07],[130.32,40.06],[130.34,40.05],[130.37,40.04],[130.39,40.03],[130.41,40.02],[130.44,40.01],[130.46,40],[130.48,39.99],[130.5,39.98],[130.53,39.97],[130.55,39.96],[130.57,39.95],[130.59,39.94],[130.61,39.93],[130.63,39.92],[130.65,39.91],[130.67,39.9],[130.69,39.89],[130.71,39.88],[130.73,39.87],[130.75,39.86],[130.77,39.85],[130.79,39.83],[130.81,39.82],[130.83,39.81],[130.85,39.8],[130.87,39.79],[130.89,39.77],[130.91,39.76],[130.93,39.75],[130.95,39.74],[130.97,39.72],[130.99,39.71],[131.01,39.69],[131.03,39.68],[131.05,39.67],[131.07,39.65],[131.09,39.64],[131.11,39.62],[131.13,39.61],[131.15,39.59],[131.17,39.57],[131.19,39.56],[131.21,39.54],[131.23,39.52],[131.25,39.51],[131.27,39.49],[131.29,39.47],[131.31,39.45],[131.33,39.43],[131.35,39.42],[131.37,39.4],[131.39,39.38],[131.41,39.36],[131.43,39.34],[131.44,39.32],[131.46,39.3],[131.48,39.28],[131.5,39.26],[131.52,39.24],[131.53,39.22],[131.55,39.2],[131.57,39.18],[131.58,39.16],[131.6,39.14],[131.61,39.12],[131.63,39.1],[131.64,39.08],[131.66,39.06],[131.67,39.04],[131.68,39.02],[131.7,39],[131.71,38.98],[131.72,38.96],[131.73,38.94],[131.75,38.92],[131.76,38.9],[131.77,38.88],[131.78,38.86],[131.79,38.84],[131.8,38.82],[131.81,38.8],[131.82,38.78],[131.83,38.76],[131.84,38.74],[131.85,38.72],[131.86,38.7],[131.87,38.68],[131.88,38.66],[131.89,38.64],[131.9,38.62],[131.91,38.6],[131.91,38.58],[131.92,38.56],[131.93,38.54],[131.94,38.52],[131.94,38.5],[131.95,38.48],[131.96,38.46],[131.96,38.44],[131.97,38.42],[131.97,38.4],[131.98,38.38],[131.98,38.36],[131.99,38.34],[131.99,38.32],[132,38.3],[132,38.28],[132.01,38.26],[132.01,38.24],[132.01,38.22],[132.02,38.2],[132.02,38.18],[132.02,38.16],[132.03,38.14],[132.03,38.12],[132.03,38.1],[132.04,38.08],[132.04,38.06],[132.04,38.04],[132.04,38.02],[132.04,38],[132.04,37.98],[132.04,37.96],[132.05,37.94],[132.05,37.92],[132.05,37.9],[132.05,37.88],[132.05,37.86],[132.05,37.84],[132.05,37.82],[132.05,37.8],[132.05,37.78],[132.04,37.76],[132.04,37.74],[132.04,37.72],[132.04,37.7],[132.04,37.68],[132.04,37.66],[132.04,37.64],[132.03,37.62],[132.03,37.6],[132.03,37.58],[132.02,37.56],[132.02,37.54],[132.02,37.52],[132.01,37.5],[132.01,37.48],[132.01,37.46],[132,37.44],[132,37.42],[131.99,37.4],[131.99,37.38],[131.98,37.36],[131.98,37.34],[131.97,37.32],[131.97,37.3],[131.96,37.28],[131.96,37.26],[131.95,37.24],[131.94,37.22],[131.94,37.2],[131.93,37.18],[131.94,37.16],[131.95,37.14],[131.96,37.12],[131.97,37.1],[131.98,37.08],[131.99,37.06],[132,37.04],[132.01,37.02],[132.02,37],[132.02,36.98],[132.03,36.96],[132.04,36.94],[132.05,36.92],[132.05,36.9],[132.06,36.88],[132.07,36.86],[132.07,36.84],[132.08,36.82],[132.08,36.8],[132.09,36.78],[132.1,36.76],[132.1,36.74],[132.11,36.72],[132.11,36.7],[132.12,36.68],[132.12,36.66],[132.12,36.64],[132.13,36.62],[132.13,36.6],[132.14,36.58],[132.14,36.56],[132.14,36.54],[132.15,36.52],[132.15,36.5],[132.15,36.48],[132.15,36.46],[132.16,36.44],[132.16,36.42],[132.16,36.4],[132.16,36.38],[132.16,36.36],[132.16,36.34],[132.16,36.32],[132.17,36.3],[132.17,36.28],[132.17,36.26],[132.17,36.24],[132.17,36.22],[132.17,36.2],[132.17,36.18],[132.17,36.16],[132.17,36.14],[132.16,36.12],[132.16,36.1],[132.16,36.08],[132.16,36.06],[132.16,36.04],[132.16,36.02],[132.16,36],[132.15,35.98],[132.15,35.96],[132.15,35.94],[132.15,35.92],[132.14,35.9],[132.14,35.88],[132.14,35.86],[132.13,35.84],[132.13,35.82],[132.12,35.8],[132.12,35.78],[132.12,35.76],[132.11,35.74],[132.11,35.72],[132.1,35.7],[132.1,35.68],[132.09,35.66],[132.09,35.64],[132.08,35.62],[132.07,35.6],[132.07,35.58],[132.06,35.56],[132.05,35.54],[132.05,35.52],[132.04,35.5],[132.03,35.48],[132.03,35.46],[132.02,35.44],[132.01,35.42],[132,35.4],[131.99,35.38],[131.98,35.36],[131.98,35.34],[131.97,35.32],[131.96,35.3],[131.95,35.28],[131.94,35.26],[131.93,35.24],[131.92,35.22],[131.91,35.2],[131.9,35.18],[131.89,35.16],[131.87,35.14],[131.86,35.12],[131.85,35.1],[131.84,35.08],[131.83,35.06],[131.82,35.04],[131.8,35.02],[131.79,35],[131.78,34.98],[131.76,34.96],[131.75,34.94],[131.74,34.92],[131.72,34.9],[131.71,34.88],[131.69,34.86],[131.68,34.84],[131.66,34.82],[131.64,34.8],[131.63,34.78],[131.61,34.76],[131.59,34.74],[131.58,34.72],[131.58,34.7],[131.57,34.68],[131.56,34.66],[131.56,34.64],[131.55,34.62],[131.55,34.6],[131.54,34.58],[131.53,34.56],[131.53,34.54],[131.52,34.52],[131.51,34.5],[131.5,34.48],[131.5,34.46],[131.49,34.44],[131.48,34.42],[131.47,34.4],[131.46,34.38],[131.45,34.36],[131.44,34.34],[131.43,34.32],[131.42,34.3],[131.41,34.28],[131.4,34.26],[131.39,34.24],[131.38,34.22],[131.37,34.2],[131.36,34.18],[131.34,34.16],[131.33,34.14],[131.32,34.12],[131.31,34.1],[131.29,34.08],[131.28,34.06],[131.26,34.04],[131.25,34.02],[131.23,34],[131.22,33.98],[131.2,33.96],[131.19,33.94],[131.17,33.92],[131.16,33.9],[131.14,33.88],[131.12,33.86],[131.1,33.84],[131.08,33.82],[131.07,33.8],[131.05,33.78],[131.03,33.76],[131.01,33.74],[130.99,33.72],[130.97,33.71],[130.95,33.69],[130.93,33.67],[130.91,33.65],[130.89,33.63],[130.87,33.62],[130.85,33.6],[130.83,33.58],[130.81,33.57],[130.79,33.55],[130.77,33.54],[130.75,33.52],[130.73,33.51],[130.71,33.49],[130.69,33.48],[130.67,33.47],[130.65,33.45],[130.63,33.44],[130.61,33.43],[130.59,33.41],[130.57,33.4],[130.55,33.39],[130.53,33.38],[130.51,33.36],[130.49,33.35],[130.47,33.34],[130.45,33.33],[130.43,33.32],[130.41,33.31],[130.39,33.3],[130.37,33.29],[130.35,33.28],[130.33,33.27],[130.31,33.26],[130.29,33.25],[130.27,33.24],[130.25,33.23],[130.23,33.22],[130.21,33.21],[130.19,33.2],[130.16,33.19],[130.14,33.18],[130.11,33.17],[130.09,33.16],[130.06,33.15],[130.03,33.14],[130,33.13],[129.98,33.12],[129.95,33.12],[129.93,33.11],[129.91,33.1],[129.88,33.09],[129.85,33.08],[129.82,33.08],[129.8,33.07],[129.77,33.06],[129.74,33.06],[129.72,33.05],[129.69,33.04],[129.66,33.04],[129.64,33.03],[129.61,33.03],[129.59,33.02],[129.56,33.02],[129.54,33.01],[129.51,33.01],[129.48,33],[129.45,33],[129.42,32.99],[129.4,32.97],[129.4,32.95],[129.39,32.93],[129.39,32.91],[129.38,32.89],[129.38,32.87],[129.37,32.85],[129.36,32.83],[129.36,32.81],[129.35,32.79],[129.34,32.77],[129.33,32.75],[129.33,32.73],[129.32,32.71],[129.31,32.69],[129.3,32.67],[129.29,32.65],[129.28,32.63],[129.27,32.61],[129.26,32.59],[129.25,32.57],[129.24,32.55],[129.23,32.53],[129.22,32.51],[129.21,32.49],[129.2,32.47],[129.19,32.45],[129.18,32.43],[129.17,32.41],[129.15,32.39],[129.14,32.37],[129.13,32.35],[129.11,32.33],[129.1,32.31],[129.09,32.29],[129.07,32.27],[129.06,32.25],[129.04,32.23],[129.03,32.21],[129.01,32.19],[128.99,32.17],[128.98,32.15],[128.96,32.13],[128.94,32.11],[128.92,32.09],[128.91,32.07],[128.89,32.05],[128.87,32.03],[128.85,32.01],[128.83,31.99],[128.81,31.97],[128.79,31.95],[128.77,31.94],[128.75,31.92],[128.73,31.9],[128.71,31.88],[128.69,31.87],[128.67,31.85],[128.65,31.83],[128.63,31.82],[128.61,31.8],[128.59,31.79],[128.57,31.77],[128.55,31.76],[128.53,31.74],[128.51,31.73],[128.49,31.72],[128.47,31.7],[128.45,31.69],[128.43,31.68],[128.41,31.66],[128.39,31.65],[128.37,31.64],[128.35,31.63],[128.33,31.62],[128.31,31.6],[128.29,31.59],[128.27,31.58],[128.25,31.57],[128.23,31.56],[128.21,31.55],[128.19,31.54],[128.17,31.53],[128.15,31.52],[128.13,31.51],[128.11,31.5],[128.09,31.49],[128.07,31.48],[128.05,31.47],[128.02,31.46],[128,31.45],[127.97,31.44],[127.95,31.43],[127.92,31.42],[127.9,31.41],[127.87,31.4],[127.84,31.39],[127.81,31.38],[127.78,31.37],[127.75,31.36],[127.72,31.36],[127.7,31.35],[127.68,31.34],[127.65,31.34],[127.63,31.33],[127.6,31.32],[127.57,31.32],[127.55,31.31],[127.52,31.3],[127.49,31.3],[127.47,31.29],[127.44,31.29],[127.42,31.28],[127.39,31.28],[127.36,31.27],[127.33,31.27],[127.3,31.26],[127.27,31.26],[127.24,31.26],[127.22,31.25],[127.19,31.25],[127.16,31.25],[127.13,31.25],[127.11,31.24],[127.08,31.24],[127.05,31.24],[127.02,31.24],[126.99,31.24],[126.96,31.24],[126.93,31.24],[126.9,31.23],[126.87,31.23],[126.85,31.22],[126.82,31.21],[126.79,31.21],[126.77,31.2],[126.74,31.2],[126.72,31.19],[126.69,31.19],[126.66,31.18],[126.63,31.18],[126.6,31.17],[126.57,31.17],[126.54,31.17],[126.52,31.16],[126.49,31.16],[126.46,31.16],[126.44,31.15],[126.41,31.15],[126.38,31.15],[126.35,31.15],[126.32,31.15],[126.29,31.14],[126.26,31.14],[126.23,31.14],[126.2,31.14],[126.17,31.14],[126.14,31.14],[126.11,31.14],[126.08,31.14],[126.05,31.14],[126.03,31.15],[126,31.15],[125.97,31.15],[125.94,31.15],[125.91,31.15],[125.88,31.16],[125.85,31.16],[125.82,31.16],[125.79,31.17],[125.76,31.17],[125.73,31.17],[125.71,31.18],[125.68,31.18],[125.65,31.19],[125.62,31.19],[125.6,31.2],[125.57,31.2],[125.55,31.21],[125.52,31.21],[125.5,31.22],[125.47,31.22],[125.45,31.23],[125.42,31.24],[125.39,31.24],[125.37,31.25],[125.34,31.26],[125.31,31.27],[125.28,31.28],[125.25,31.28],[125.23,31.29],[125.21,31.3],[125.19,31.31],[125.16,31.32],[125.13,31.33],[125.1,31.34],[125.08,31.35],[125.05,31.36],[125.03,31.37],[125,31.38],[124.98,31.39],[124.96,31.4],[124.94,31.41],[124.91,31.42],[124.89,31.43],[124.87,31.44],[124.85,31.45],[124.83,31.46],[124.81,31.47],[124.79,31.48],[124.77,31.49],[124.75,31.5],[124.73,31.51],[124.71,31.52],[124.69,31.54],[124.67,31.55],[124.65,31.56],[124.63,31.57],[124.61,31.59],[124.59,31.6],[124.57,31.61],[124.55,31.63],[124.53,31.64],[124.51,31.65],[124.49,31.67],[124.47,31.68],[124.45,31.7],[124.43,31.71],[124.41,31.73],[124.39,31.74],[124.37,31.76],[124.35,31.78],[124.33,31.79],[124.31,31.81],[124.29,31.83],[124.27,31.85],[124.25,31.87],[124.23,31.88],[124.21,31.9],[124.19,31.92],[124.17,31.94],[124.16,31.96],[124.14,31.98],[124.12,32],[124.1,32.02],[124.08,32.04],[124.07,32.06],[124.05,32.08],[124.03,32.1],[124.02,32.12],[124,32.14],[123.99,32.16],[123.97,32.18],[123.96,32.2],[123.94,32.22],[123.93,32.24],[123.92,32.26],[123.9,32.28],[123.89,32.3],[123.88,32.32],[123.87,32.34],[123.85,32.36],[123.84,32.38],[123.83,32.4],[123.82,32.42],[123.81,32.44],[123.8,32.46],[123.79,32.48],[123.78,32.5],[123.77,32.52],[123.76,32.54],[123.75,32.56],[123.74,32.58],[123.73,32.6],[123.73,32.62],[123.72,32.64],[123.71,32.66],[123.7,32.68],[123.7,32.7],[123.69,32.72],[123.68,32.74],[123.68,32.76],[123.67,32.78],[123.66,32.8],[123.66,32.82],[123.65,32.84],[123.65,32.86],[123.64,32.88],[123.64,32.9],[123.63,32.92],[123.63,32.94],[123.62,32.96],[123.62,32.98],[123.62,33],[123.61,33.02],[123.61,33.04],[123.61,33.06],[123.6,33.08],[123.6,33.1],[123.6,33.12],[123.6,33.14],[123.59,33.16],[123.59,33.18],[123.59,33.2],[123.59,33.22],[123.59,33.24],[123.59,33.26],[123.59,33.28],[123.59,33.3],[123.59,33.32],[123.59,33.34],[123.59,33.36],[123.59,33.38],[123.59,33.4],[123.59,33.42],[123.59,33.44],[123.59,33.46],[123.59,33.48],[123.6,33.5],[123.6,33.52],[123.6,33.54],[123.6,33.56],[123.61,33.58],[123.61,33.6],[123.61,33.62],[123.62,33.64],[123.62,33.66],[123.62,33.68],[123.63,33.7],[123.63,33.72],[123.64,33.74],[123.64,33.76],[123.65,33.78],[123.65,33.8],[123.66,33.82],[123.66,33.84],[123.67,33.86],[123.68,33.88],[123.68,33.9],[123.69,33.92],[123.7,33.94],[123.7,33.96],[123.71,33.98],[123.72,34],[123.73,34.02],[123.74,34.04],[123.74,34.06],[123.75,34.08],[123.76,34.1],[123.75,34.12],[123.75,34.14],[123.74,34.16],[123.74,34.18],[123.74,34.2],[123.73,34.22],[123.73,34.24],[123.73,34.26],[123.73,34.28],[123.72,34.3],[123.72,34.32],[123.72,34.34],[123.72,34.36],[123.72,34.38],[123.71,34.4],[123.71,34.42],[123.71,34.44],[123.71,34.46],[123.71,34.48],[123.71,34.5],[123.71,34.52],[123.71,34.54],[123.71,34.56],[123.71,34.58],[123.71,34.6],[123.72,34.62],[123.72,34.64],[123.72,34.66],[123.72,34.68],[123.72,34.7],[123.73,34.72],[123.73,34.74],[123.73,34.76],[123.73,34.78],[123.74,34.8],[123.74,34.82],[123.74,34.84],[123.75,34.86],[123.75,34.88],[123.76,34.9],[123.76,34.92],[123.77,34.94],[123.77,34.96],[123.78,34.98],[123.78,35],[123.79,35.02],[123.8,35.04],[123.8,35.06],[123.81,35.08],[123.82,35.1],[123.82,35.12],[123.83,35.14],[123.84,35.16],[123.85,35.18],[123.85,35.2],[123.86,35.22],[123.87,35.24],[123.88,35.26],[123.89,35.28],[123.9,35.3],[123.91,35.32],[123.92,35.34],[123.93,35.36],[123.94,35.38],[123.95,35.4],[123.96,35.42],[123.98,35.44],[123.99,35.46],[124,35.48],[124.01,35.5],[124.03,35.52],[124.04,35.54],[124.05,35.56],[124.07,35.58],[124.08,35.6],[124.1,35.62],[124.11,35.64],[124.13,35.66],[124.14,35.68],[124.16,35.7],[124.15,35.72],[124.15,35.74],[124.14,35.76],[124.14,35.78],[124.14,35.8],[124.14,35.82],[124.13,35.84],[124.11,35.86],[124.08,35.86],[124.05,35.87],[124.02,35.87],[123.99,35.88],[123.96,35.88],[123.94,35.89],[123.91,35.89],[123.89,35.9],[123.86,35.9],[123.84,35.91],[123.81,35.92],[123.78,35.92],[123.76,35.93],[123.73,35.94],[123.7,35.95],[123.67,35.96],[123.64,35.96],[123.62,35.97],[123.6,35.98],[123.57,35.99],[123.54,36],[123.51,36.01],[123.49,36.02],[123.46,36.03],[123.43,36.04],[123.41,36.05],[123.38,36.06],[123.36,36.07],[123.34,36.08],[123.31,36.09],[123.29,36.1],[123.27,36.11],[123.25,36.12],[123.23,36.13],[123.21,36.14],[123.19,36.15],[123.17,36.16],[123.15,36.17],[123.13,36.18],[123.11,36.19],[123.09,36.2],[123.07,36.21],[123.05,36.22],[123.03,36.23],[123.01,36.24],[122.99,36.26],[122.97,36.27],[122.95,36.28],[122.93,36.29],[122.91,36.31],[122.89,36.32],[122.87,36.33],[122.85,36.35],[122.83,36.36],[122.81,36.37],[122.79,36.39],[122.77,36.4],[122.75,36.42],[122.73,36.43],[122.71,36.45],[122.69,36.46],[122.67,36.48],[122.65,36.5],[122.63,36.51],[122.61,36.53],[122.59,36.55],[122.57,36.57],[122.55,36.59],[122.53,36.61],[122.51,36.62],[122.49,36.64],[122.47,36.66],[122.46,36.68],[122.44,36.7],[122.42,36.72],[122.4,36.74],[122.38,36.76],[122.37,36.78],[122.35,36.8],[122.33,36.82],[122.32,36.84],[122.3,36.86],[122.29,36.88],[122.27,36.9],[122.26,36.92],[122.24,36.94],[122.23,36.96],[122.22,36.98],[122.2,37],[122.19,37.02],[122.18,37.04],[122.16,37.06],[122.15,37.08],[122.14,37.1],[122.13,37.12],[122.12,37.14],[122.11,37.16],[122.1,37.18],[122.09,37.2],[122.08,37.22],[122.07,37.24],[122.06,37.26],[122.05,37.28],[122.04,37.3],[122.03,37.32],[122.03,37.34],[122.02,37.36],[122.01,37.38],[122,37.4],[122,37.42],[121.99,37.44],[121.98,37.46],[121.98,37.48],[121.97,37.5],[121.96,37.52],[121.96,37.54],[121.95,37.56],[121.95,37.58],[121.94,37.6],[121.94,37.62],[121.93,37.64],[121.93,37.66],[121.93,37.68],[121.92,37.7],[121.92,37.72],[121.92,37.74],[121.91,37.76],[121.91,37.78],[121.91,37.8],[121.91,37.82],[121.9,37.84],[121.9,37.86],[121.9,37.88],[121.9,37.9],[121.9,37.92],[121.9,37.94],[121.9,37.96],[121.9,37.98],[121.9,38],[121.9,38.02],[121.9,38.04],[121.9,38.06],[121.9,38.08],[121.9,38.1],[121.9,38.12],[121.9,38.14],[121.9,38.16],[121.91,38.18],[121.91,38.2],[121.91,38.22],[121.91,38.24],[121.92,38.26],[121.92,38.28],[121.92,38.3],[121.93,38.32],[121.93,38.34],[121.93,38.36],[121.94,38.38],[121.94,38.4],[121.95,38.42],[121.95,38.44],[121.96,38.46],[121.97,38.48],[121.97,38.5],[121.98,38.52],[121.98,38.54],[121.99,38.56],[122,38.58],[122,38.6],[122.01,38.62],[122.02,38.64],[122.03,38.66],[122.04,38.68],[122.05,38.7],[122.05,38.72],[122.06,38.74],[122.07,38.76],[122.08,38.78],[122.09,38.8],[122.1,38.82],[122.11,38.84],[122.13,38.86],[122.14,38.88],[122.15,38.9],[122.16,38.92],[122.17,38.94],[122.19,38.96],[122.2,38.98],[122.21,39],[122.23,39.02],[122.24,39.04],[122.26,39.06],[122.27,39.08],[122.29,39.1],[122.3,39.12],[122.32,39.14],[122.33,39.16],[122.35,39.18],[122.37,39.2],[122.39,39.22],[122.4,39.24],[122.42,39.26],[122.44,39.28],[122.46,39.3],[122.48,39.32],[122.5,39.34],[122.52,39.36],[122.54,39.38],[122.56,39.39],[122.58,39.41],[122.6,39.43],[122.62,39.45],[122.64,39.46],[122.66,39.48],[122.68,39.49],[122.7,39.51],[122.72,39.52],[122.74,39.54],[122.76,39.55],[122.78,39.57],[122.8,39.58],[122.82,39.6],[122.84,39.61],[122.86,39.62],[122.88,39.64],[122.9,39.65],[122.92,39.66],[122.94,39.67],[122.96,39.68],[122.98,39.7],[123,39.71],[123.02,39.72],[123.04,39.73],[123.06,39.74],[123.08,39.75],[123.1,39.76],[123.12,39.77],[123.14,39.78],[123.16,39.79],[123.18,39.8],[123.2,39.81],[123.22,39.82],[123.24,39.83],[123.26,39.84],[123.28,39.85],[123.3,39.86],[123.33,39.87],[123.35,39.88],[123.37,39.89],[123.4,39.9],[123.43,39.91],[123.45,39.92],[123.48,39.93],[123.51,39.94],[123.54,39.95],[123.57,39.96],[123.6,39.97],[123.63,39.98],[123.66,39.98],[123.68,39.99],[123.7,40],[123.73,40],[123.75,40.01],[123.78,40.02],[123.81,40.02],[123.83,40.03],[123.86,40.04],[123.89,40.04],[123.91,40.05],[123.94,40.05],[123.96,40.06],[123.99,40.06],[124.01,40.07],[124.04,40.07],[124.07,40.08],[124.1,40.08],[124.13,40.08],[124.15,40.09],[124.18,40.09],[124.21,40.1],[124.24,40.1],[124.27,40.1],[124.3,40.1],[124.32,40.11],[124.35,40.11],[124.38,40.11],[124.41,40.11],[124.44,40.11],[124.46,40.12],[124.49,40.12],[124.52,40.12],[124.55,40.12],[124.58,40.12],[124.61,40.12],[124.64,40.12],[124.67,40.12],[124.7,40.12],[124.73,40.12],[124.76,40.12],[124.79,40.12],[124.81,40.11],[124.84,40.11],[124.87,40.11],[124.9,40.11],[124.93,40.11],[124.95,40.1],[124.98,40.1],[125.01,40.1],[125.04,40.1],[125.06,40.09],[125.09,40.09],[125.12,40.09],[125.14,40.08],[125.17,40.08],[125.19,40.07],[125.22,40.07],[125.25,40.06],[125.28,40.06],[125.31,40.05],[125.34,40.05],[125.36,40.04],[125.39,40.04],[125.41,40.03],[125.44,40.03],[125.46,40.02],[125.49,40.01],[125.52,40],[125.55,40],[125.57,39.99],[125.6,39.98],[125.63,39.97],[125.66,39.96],[125.69,39.96],[125.71,39.95],[125.73,39.94],[125.76,39.93],[125.78,39.92],[125.81,39.91],[125.84,39.9],[125.86,39.89],[125.88,39.9],[125.9,39.91],[125.92,39.92],[125.94,39.93],[125.96,39.94],[125.98,39.95],[126,39.96],[126.02,39.97],[126.04,39.98],[126.06,39.99],[126.08,40],[126.1,40.01],[126.13,40.02],[126.15,40.03],[126.18,40.04],[126.2,40.05],[126.23,40.06],[126.25,40.07],[126.28,40.08],[126.31,40.09],[126.34,40.1],[126.37,40.11],[126.4,40.12],[126.43,40.13],[126.46,40.13],[126.48,40.14],[126.5,40.15],[126.53,40.15],[126.55,40.16],[126.58,40.17],[126.61,40.17],[126.63,40.18],[126.66,40.19],[126.69,40.19],[126.71,40.2],[126.74,40.2],[126.76,40.21],[126.79,40.21],[126.81,40.22],[126.84,40.22],[126.87,40.23],[126.9,40.23],[126.93,40.23],[126.95,40.24],[126.98,40.24],[127.01,40.25],[127.04,40.25],[127.07,40.25],[127.1,40.25],[127.12,40.26],[127.15,40.26],[127.18,40.26],[127.21,40.26],[127.24,40.27],[127.27,40.27],[127.3,40.27],[127.33,40.27],[127.36,40.27],[127.39,40.27],[127.42,40.27],[127.45,40.27],[127.48,40.27],[127.51,40.27],[127.54,40.27],[127.57,40.27],[127.6,40.27],[127.63,40.26],[127.66,40.26],[127.69,40.26],[127.72,40.26],[127.75,40.26],[127.77,40.25],[127.8,40.25],[127.83,40.25],[127.86,40.24],[127.89,40.24],[127.92,40.24],[127.94,40.23],[127.97,40.23],[127.99,40.24],[128.02,40.24],[128.04,40.25],[128.07,40.25],[128.09,40.26],[128.12,40.26],[128.14,40.27],[128.17,40.27],[128.2,40.28],[128.23,40.28],[128.26,40.29],[128.29,40.29],[128.32,40.29],[128.34,40.3],[128.37,40.3],[128.4,40.3],[128.42,40.31],[128.45,40.31],[128.48,40.31],[128.51,40.31],[128.53,40.32],[128.56,40.32],[128.59,40.32],[128.62,40.32],[128.65,40.32],[128.67,40.33]]]}},{"type":"Feature","properties":{"role":"outside-mask"},"geometry":{"type":"Polygon","coordinates":[[[-180,-85],[180,-85],[180,85],[-180,85],[-180,-85]],[[128.67,40.33],[128.7,40.33],[128.73,40.33],[128.76,40.33],[128.79,40.33],[128.82,40.33],[128.85,40.33],[128.88,40.33],[128.91,40.33],[128.94,40.33],[128.97,40.33],[129,40.33],[129.03,40.33],[129.06,40.33],[129.08,40.32],[129.11,40.32],[129.14,40.32],[129.17,40.32],[129.2,40.32],[129.22,40.31],[129.25,40.31],[129.28,40.31],[129.31,40.31],[129.33,40.3],[129.36,40.3],[129.39,40.3],[129.41,40.29],[129.44,40.29],[129.47,40.29],[129.49,40.28],[129.52,40.28],[129.54,40.27],[129.57,40.27],[129.6,40.26],[129.63,40.26],[129.65,40.25],[129.68,40.25],[129.7,40.24],[129.73,40.24],[129.75,40.23],[129.78,40.23],[129.8,40.22],[129.83,40.22],[129.85,40.21],[129.88,40.2],[129.91,40.2],[129.93,40.19],[129.95,40.18],[129.98,40.18],[130,40.17],[130.02,40.16],[130.05,40.16],[130.07,40.15],[130.09,40.14],[130.12,40.13],[130.15,40.12],[130.18,40.11],[130.21,40.1],[130.24,40.09],[130.26,40.08],[130.29,40.07],[130.32,40.06],[130.34,40.05],[130.37,40.04],[130.39,40.03],[130.41,40.02],[130.44,40.01],[130.46,40],[130.48,39.99],[130.5,39.98],[130.53,39.97],[130.55,39.96],[130.57,39.95],[130.59,39.94],[130.61,39.93],[130.63,39.92],[130.65,39.91],[130.67,39.9],[130.69,39.89],[130.71,39.88],[130.73,39.87],[130.75,39.86],[130.77,39.85],[130.79,39.83],[130.81,39.82],[130.83,39.81],[130.85,39.8],[130.87,39.79],[130.89,39.77],[130.91,39.76],[130.93,39.75],[130.95,39.74],[130.97,39.72],[130.99,39.71],[131.01,39.69],[131.03,39.68],[131.05,39.67],[131.07,39.65],[131.09,39.64],[131.11,39.62],[131.13,39.61],[131.15,39.59],[131.17,39.57],[131.19,39.56],[131.21,39.54],[131.23,39.52],[131.25,39.51],[131.27,39.49],[131.29,39.47],[131.31,39.45],[131.33,39.43],[131.35,39.42],[131.37,39.4],[131.39,39.38],[131.41,39.36],[131.43,39.34],[131.44,39.32],[131.46,39.3],[131.48,39.28],[131.5,39.26],[131.52,39.24],[131.53,39.22],[131.55,39.2],[131.57,39.18],[131.58,39.16],[131.6,39.14],[131.61,39.12],[131.63,39.1],[131.64,39.08],[131.66,39.06],[131.67,39.04],[131.68,39.02],[131.7,39],[131.71,38.98],[131.72,38.96],[131.73,38.94],[131.75,38.92],[131.76,38.9],[131.77,38.88],[131.78,38.86],[131.79,38.84],[131.8,38.82],[131.81,38.8],[131.82,38.78],[131.83,38.76],[131.84,38.74],[131.85,38.72],[131.86,38.7],[131.87,38.68],[131.88,38.66],[131.89,38.64],[131.9,38.62],[131.91,38.6],[131.91,38.58],[131.92,38.56],[131.93,38.54],[131.94,38.52],[131.94,38.5],[131.95,38.48],[131.96,38.46],[131.96,38.44],[131.97,38.42],[131.97,38.4],[131.98,38.38],[131.98,38.36],[131.99,38.34],[131.99,38.32],[132,38.3],[132,38.28],[132.01,38.26],[132.01,38.24],[132.01,38.22],[132.02,38.2],[132.02,38.18],[132.02,38.16],[132.03,38.14],[132.03,38.12],[132.03,38.1],[132.04,38.08],[132.04,38.06],[132.04,38.04],[132.04,38.02],[132.04,38],[132.04,37.98],[132.04,37.96],[132.05,37.94],[132.05,37.92],[132.05,37.9],[132.05,37.88],[132.05,37.86],[132.05,37.84],[132.05,37.82],[132.05,37.8],[132.05,37.78],[132.04,37.76],[132.04,37.74],[132.04,37.72],[132.04,37.7],[132.04,37.68],[132.04,37.66],[132.04,37.64],[132.03,37.62],[132.03,37.6],[132.03,37.58],[132.02,37.56],[132.02,37.54],[132.02,37.52],[132.01,37.5],[132.01,37.48],[132.01,37.46],[132,37.44],[132,37.42],[131.99,37.4],[131.99,37.38],[131.98,37.36],[131.98,37.34],[131.97,37.32],[131.97,37.3],[131.96,37.28],[131.96,37.26],[131.95,37.24],[131.94,37.22],[131.94,37.2],[131.93,37.18],[131.94,37.16],[131.95,37.14],[131.96,37.12],[131.97,37.1],[131.98,37.08],[131.99,37.06],[132,37.04],[132.01,37.02],[132.02,37],[132.02,36.98],[132.03,36.96],[132.04,36.94],[132.05,36.92],[132.05,36.9],[132.06,36.88],[132.07,36.86],[132.07,36.84],[132.08,36.82],[132.08,36.8],[132.09,36.78],[132.1,36.76],[132.1,36.74],[132.11,36.72],[132.11,36.7],[132.12,36.68],[132.12,36.66],[132.12,36.64],[132.13,36.62],[132.13,36.6],[132.14,36.58],[132.14,36.56],[132.14,36.54],[132.15,36.52],[132.15,36.5],[132.15,36.48],[132.15,36.46],[132.16,36.44],[132.16,36.42],[132.16,36.4],[132.16,36.38],[132.16,36.36],[132.16,36.34],[132.16,36.32],[132.17,36.3],[132.17,36.28],[132.17,36.26],[132.17,36.24],[132.17,36.22],[132.17,36.2],[132.17,36.18],[132.17,36.16],[132.17,36.14],[132.16,36.12],[132.16,36.1],[132.16,36.08],[132.16,36.06],[132.16,36.04],[132.16,36.02],[132.16,36],[132.15,35.98],[132.15,35.96],[132.15,35.94],[132.15,35.92],[132.14,35.9],[132.14,35.88],[132.14,35.86],[132.13,35.84],[132.13,35.82],[132.12,35.8],[132.12,35.78],[132.12,35.76],[132.11,35.74],[132.11,35.72],[132.1,35.7],[132.1,35.68],[132.09,35.66],[132.09,35.64],[132.08,35.62],[132.07,35.6],[132.07,35.58],[132.06,35.56],[132.05,35.54],[132.05,35.52],[132.04,35.5],[132.03,35.48],[132.03,35.46],[132.02,35.44],[132.01,35.42],[132,35.4],[131.99,35.38],[131.98,35.36],[131.98,35.34],[131.97,35.32],[131.96,35.3],[131.95,35.28],[131.94,35.26],[131.93,35.24],[131.92,35.22],[131.91,35.2],[131.9,35.18],[131.89,35.16],[131.87,35.14],[131.86,35.12],[131.85,35.1],[131.84,35.08],[131.83,35.06],[131.82,35.04],[131.8,35.02],[131.79,35],[131.78,34.98],[131.76,34.96],[131.75,34.94],[131.74,34.92],[131.72,34.9],[131.71,34.88],[131.69,34.86],[131.68,34.84],[131.66,34.82],[131.64,34.8],[131.63,34.78],[131.61,34.76],[131.59,34.74],[131.58,34.72],[131.58,34.7],[131.57,34.68],[131.56,34.66],[131.56,34.64],[131.55,34.62],[131.55,34.6],[131.54,34.58],[131.53,34.56],[131.53,34.54],[131.52,34.52],[131.51,34.5],[131.5,34.48],[131.5,34.46],[131.49,34.44],[131.48,34.42],[131.47,34.4],[131.46,34.38],[131.45,34.36],[131.44,34.34],[131.43,34.32],[131.42,34.3],[131.41,34.28],[131.4,34.26],[131.39,34.24],[131.38,34.22],[131.37,34.2],[131.36,34.18],[131.34,34.16],[131.33,34.14],[131.32,34.12],[131.31,34.1],[131.29,34.08],[131.28,34.06],[131.26,34.04],[131.25,34.02],[131.23,34],[131.22,33.98],[131.2,33.96],[131.19,33.94],[131.17,33.92],[131.16,33.9],[131.14,33.88],[131.12,33.86],[131.1,33.84],[131.08,33.82],[131.07,33.8],[131.05,33.78],[131.03,33.76],[131.01,33.74],[130.99,33.72],[130.97,33.71],[130.95,33.69],[130.93,33.67],[130.91,33.65],[130.89,33.63],[130.87,33.62],[130.85,33.6],[130.83,33.58],[130.81,33.57],[130.79,33.55],[130.77,33.54],[130.75,33.52],[130.73,33.51],[130.71,33.49],[130.69,33.48],[130.67,33.47],[130.65,33.45],[130.63,33.44],[130.61,33.43],[130.59,33.41],[130.57,33.4],[130.55,33.39],[130.53,33.38],[130.51,33.36],[130.49,33.35],[130.47,33.34],[130.45,33.33],[130.43,33.32],[130.41,33.31],[130.39,33.3],[130.37,33.29],[130.35,33.28],[130.33,33.27],[130.31,33.26],[130.29,33.25],[130.27,33.24],[130.25,33.23],[130.23,33.22],[130.21,33.21],[130.19,33.2],[130.16,33.19],[130.14,33.18],[130.11,33.17],[130.09,33.16],[130.06,33.15],[130.03,33.14],[130,33.13],[129.98,33.12],[129.95,33.12],[129.93,33.11],[129.91,33.1],[129.88,33.09],[129.85,33.08],[129.82,33.08],[129.8,33.07],[129.77,33.06],[129.74,33.06],[129.72,33.05],[129.69,33.04],[129.66,33.04],[129.64,33.03],[129.61,33.03],[129.59,33.02],[129.56,33.02],[129.54,33.01],[129.51,33.01],[129.48,33],[129.45,33],[129.42,32.99],[129.4,32.97],[129.4,32.95],[129.39,32.93],[129.39,32.91],[129.38,32.89],[129.38,32.87],[129.37,32.85],[129.36,32.83],[129.36,32.81],[129.35,32.79],[129.34,32.77],[129.33,32.75],[129.33,32.73],[129.32,32.71],[129.31,32.69],[129.3,32.67],[129.29,32.65],[129.28,32.63],[129.27,32.61],[129.26,32.59],[129.25,32.57],[129.24,32.55],[129.23,32.53],[129.22,32.51],[129.21,32.49],[129.2,32.47],[129.19,32.45],[129.18,32.43],[129.17,32.41],[129.15,32.39],[129.14,32.37],[129.13,32.35],[129.11,32.33],[129.1,32.31],[129.09,32.29],[129.07,32.27],[129.06,32.25],[129.04,32.23],[129.03,32.21],[129.01,32.19],[128.99,32.17],[128.98,32.15],[128.96,32.13],[128.94,32.11],[128.92,32.09],[128.91,32.07],[128.89,32.05],[128.87,32.03],[128.85,32.01],[128.83,31.99],[128.81,31.97],[128.79,31.95],[128.77,31.94],[128.75,31.92],[128.73,31.9],[128.71,31.88],[128.69,31.87],[128.67,31.85],[128.65,31.83],[128.63,31.82],[128.61,31.8],[128.59,31.79],[128.57,31.77],[128.55,31.76],[128.53,31.74],[128.51,31.73],[128.49,31.72],[128.47,31.7],[128.45,31.69],[128.43,31.68],[128.41,31.66],[128.39,31.65],[128.37,31.64],[128.35,31.63],[128.33,31.62],[128.31,31.6],[128.29,31.59],[128.27,31.58],[128.25,31.57],[128.23,31.56],[128.21,31.55],[128.19,31.54],[128.17,31.53],[128.15,31.52],[128.13,31.51],[128.11,31.5],[128.09,31.49],[128.07,31.48],[128.05,31.47],[128.02,31.46],[128,31.45],[127.97,31.44],[127.95,31.43],[127.92,31.42],[127.9,31.41],[127.87,31.4],[127.84,31.39],[127.81,31.38],[127.78,31.37],[127.75,31.36],[127.72,31.36],[127.7,31.35],[127.68,31.34],[127.65,31.34],[127.63,31.33],[127.6,31.32],[127.57,31.32],[127.55,31.31],[127.52,31.3],[127.49,31.3],[127.47,31.29],[127.44,31.29],[127.42,31.28],[127.39,31.28],[127.36,31.27],[127.33,31.27],[127.3,31.26],[127.27,31.26],[127.24,31.26],[127.22,31.25],[127.19,31.25],[127.16,31.25],[127.13,31.25],[127.11,31.24],[127.08,31.24],[127.05,31.24],[127.02,31.24],[126.99,31.24],[126.96,31.24],[126.93,31.24],[126.9,31.23],[126.87,31.23],[126.85,31.22],[126.82,31.21],[126.79,31.21],[126.77,31.2],[126.74,31.2],[126.72,31.19],[126.69,31.19],[126.66,31.18],[126.63,31.18],[126.6,31.17],[126.57,31.17],[126.54,31.17],[126.52,31.16],[126.49,31.16],[126.46,31.16],[126.44,31.15],[126.41,31.15],[126.38,31.15],[126.35,31.15],[126.32,31.15],[126.29,31.14],[126.26,31.14],[126.23,31.14],[126.2,31.14],[126.17,31.14],[126.14,31.14],[126.11,31.14],[126.08,31.14],[126.05,31.14],[126.03,31.15],[126,31.15],[125.97,31.15],[125.94,31.15],[125.91,31.15],[125.88,31.16],[125.85,31.16],[125.82,31.16],[125.79,31.17],[125.76,31.17],[125.73,31.17],[125.71,31.18],[125.68,31.18],[125.65,31.19],[125.62,31.19],[125.6,31.2],[125.57,31.2],[125.55,31.21],[125.52,31.21],[125.5,31.22],[125.47,31.22],[125.45,31.23],[125.42,31.24],[125.39,31.24],[125.37,31.25],[125.34,31.26],[125.31,31.27],[125.28,31.28],[125.25,31.28],[125.23,31.29],[125.21,31.3],[125.19,31.31],[125.16,31.32],[125.13,31.33],[125.1,31.34],[125.08,31.35],[125.05,31.36],[125.03,31.37],[125,31.38],[124.98,31.39],[124.96,31.4],[124.94,31.41],[124.91,31.42],[124.89,31.43],[124.87,31.44],[124.85,31.45],[124.83,31.46],[124.81,31.47],[124.79,31.48],[124.77,31.49],[124.75,31.5],[124.73,31.51],[124.71,31.52],[124.69,31.54],[124.67,31.55],[124.65,31.56],[124.63,31.57],[124.61,31.59],[124.59,31.6],[124.57,31.61],[124.55,31.63],[124.53,31.64],[124.51,31.65],[124.49,31.67],[124.47,31.68],[124.45,31.7],[124.43,31.71],[124.41,31.73],[124.39,31.74],[124.37,31.76],[124.35,31.78],[124.33,31.79],[124.31,31.81],[124.29,31.83],[124.27,31.85],[124.25,31.87],[124.23,31.88],[124.21,31.9],[124.19,31.92],[124.17,31.94],[124.16,31.96],[124.14,31.98],[124.12,32],[124.1,32.02],[124.08,32.04],[124.07,32.06],[124.05,32.08],[124.03,32.1],[124.02,32.12],[124,32.14],[123.99,32.16],[123.97,32.18],[123.96,32.2],[123.94,32.22],[123.93,32.24],[123.92,32.26],[123.9,32.28],[123.89,32.3],[123.88,32.32],[123.87,32.34],[123.85,32.36],[123.84,32.38],[123.83,32.4],[123.82,32.42],[123.81,32.44],[123.8,32.46],[123.79,32.48],[123.78,32.5],[123.77,32.52],[123.76,32.54],[123.75,32.56],[123.74,32.58],[123.73,32.6],[123.73,32.62],[123.72,32.64],[123.71,32.66],[123.7,32.68],[123.7,32.7],[123.69,32.72],[123.68,32.74],[123.68,32.76],[123.67,32.78],[123.66,32.8],[123.66,32.82],[123.65,32.84],[123.65,32.86],[123.64,32.88],[123.64,32.9],[123.63,32.92],[123.63,32.94],[123.62,32.96],[123.62,32.98],[123.62,33],[123.61,33.02],[123.61,33.04],[123.61,33.06],[123.6,33.08],[123.6,33.1],[123.6,33.12],[123.6,33.14],[123.59,33.16],[123.59,33.18],[123.59,33.2],[123.59,33.22],[123.59,33.24],[123.59,33.26],[123.59,33.28],[123.59,33.3],[123.59,33.32],[123.59,33.34],[123.59,33.36],[123.59,33.38],[123.59,33.4],[123.59,33.42],[123.59,33.44],[123.59,33.46],[123.59,33.48],[123.6,33.5],[123.6,33.52],[123.6,33.54],[123.6,33.56],[123.61,33.58],[123.61,33.6],[123.61,33.62],[123.62,33.64],[123.62,33.66],[123.62,33.68],[123.63,33.7],[123.63,33.72],[123.64,33.74],[123.64,33.76],[123.65,33.78],[123.65,33.8],[123.66,33.82],[123.66,33.84],[123.67,33.86],[123.68,33.88],[123.68,33.9],[123.69,33.92],[123.7,33.94],[123.7,33.96],[123.71,33.98],[123.72,34],[123.73,34.02],[123.74,34.04],[123.74,34.06],[123.75,34.08],[123.76,34.1],[123.75,34.12],[123.75,34.14],[123.74,34.16],[123.74,34.18],[123.74,34.2],[123.73,34.22],[123.73,34.24],[123.73,34.26],[123.73,34.28],[123.72,34.3],[123.72,34.32],[123.72,34.34],[123.72,34.36],[123.72,34.38],[123.71,34.4],[123.71,34.42],[123.71,34.44],[123.71,34.46],[123.71,34.48],[123.71,34.5],[123.71,34.52],[123.71,34.54],[123.71,34.56],[123.71,34.58],[123.71,34.6],[123.72,34.62],[123.72,34.64],[123.72,34.66],[123.72,34.68],[123.72,34.7],[123.73,34.72],[123.73,34.74],[123.73,34.76],[123.73,34.78],[123.74,34.8],[123.74,34.82],[123.74,34.84],[123.75,34.86],[123.75,34.88],[123.76,34.9],[123.76,34.92],[123.77,34.94],[123.77,34.96],[123.78,34.98],[123.78,35],[123.79,35.02],[123.8,35.04],[123.8,35.06],[123.81,35.08],[123.82,35.1],[123.82,35.12],[123.83,35.14],[123.84,35.16],[123.85,35.18],[123.85,35.2],[123.86,35.22],[123.87,35.24],[123.88,35.26],[123.89,35.28],[123.9,35.3],[123.91,35.32],[123.92,35.34],[123.93,35.36],[123.94,35.38],[123.95,35.4],[123.96,35.42],[123.98,35.44],[123.99,35.46],[124,35.48],[124.01,35.5],[124.03,35.52],[124.04,35.54],[124.05,35.56],[124.07,35.58],[124.08,35.6],[124.1,35.62],[124.11,35.64],[124.13,35.66],[124.14,35.68],[124.16,35.7],[124.15,35.72],[124.15,35.74],[124.14,35.76],[124.14,35.78],[124.14,35.8],[124.14,35.82],[124.13,35.84],[124.11,35.86],[124.08,35.86],[124.05,35.87],[124.02,35.87],[123.99,35.88],[123.96,35.88],[123.94,35.89],[123.91,35.89],[123.89,35.9],[123.86,35.9],[123.84,35.91],[123.81,35.92],[123.78,35.92],[123.76,35.93],[123.73,35.94],[123.7,35.95],[123.67,35.96],[123.64,35.96],[123.62,35.97],[123.6,35.98],[123.57,35.99],[123.54,36],[123.51,36.01],[123.49,36.02],[123.46,36.03],[123.43,36.04],[123.41,36.05],[123.38,36.06],[123.36,36.07],[123.34,36.08],[123.31,36.09],[123.29,36.1],[123.27,36.11],[123.25,36.12],[123.23,36.13],[123.21,36.14],[123.19,36.15],[123.17,36.16],[123.15,36.17],[123.13,36.18],[123.11,36.19],[123.09,36.2],[123.07,36.21],[123.05,36.22],[123.03,36.23],[123.01,36.24],[122.99,36.26],[122.97,36.27],[122.95,36.28],[122.93,36.29],[122.91,36.31],[122.89,36.32],[122.87,36.33],[122.85,36.35],[122.83,36.36],[122.81,36.37],[122.79,36.39],[122.77,36.4],[122.75,36.42],[122.73,36.43],[122.71,36.45],[122.69,36.46],[122.67,36.48],[122.65,36.5],[122.63,36.51],[122.61,36.53],[122.59,36.55],[122.57,36.57],[122.55,36.59],[122.53,36.61],[122.51,36.62],[122.49,36.64],[122.47,36.66],[122.46,36.68],[122.44,36.7],[122.42,36.72],[122.4,36.74],[122.38,36.76],[122.37,36.78],[122.35,36.8],[122.33,36.82],[122.32,36.84],[122.3,36.86],[122.29,36.88],[122.27,36.9],[122.26,36.92],[122.24,36.94],[122.23,36.96],[122.22,36.98],[122.2,37],[122.19,37.02],[122.18,37.04],[122.16,37.06],[122.15,37.08],[122.14,37.1],[122.13,37.12],[122.12,37.14],[122.11,37.16],[122.1,37.18],[122.09,37.2],[122.08,37.22],[122.07,37.24],[122.06,37.26],[122.05,37.28],[122.04,37.3],[122.03,37.32],[122.03,37.34],[122.02,37.36],[122.01,37.38],[122,37.4],[122,37.42],[121.99,37.44],[121.98,37.46],[121.98,37.48],[121.97,37.5],[121.96,37.52],[121.96,37.54],[121.95,37.56],[121.95,37.58],[121.94,37.6],[121.94,37.62],[121.93,37.64],[121.93,37.66],[121.93,37.68],[121.92,37.7],[121.92,37.72],[121.92,37.74],[121.91,37.76],[121.91,37.78],[121.91,37.8],[121.91,37.82],[121.9,37.84],[121.9,37.86],[121.9,37.88],[121.9,37.9],[121.9,37.92],[121.9,37.94],[121.9,37.96],[121.9,37.98],[121.9,38],[121.9,38.02],[121.9,38.04],[121.9,38.06],[121.9,38.08],[121.9,38.1],[121.9,38.12],[121.9,38.14],[121.9,38.16],[121.91,38.18],[121.91,38.2],[121.91,38.22],[121.91,38.24],[121.92,38.26],[121.92,38.28],[121.92,38.3],[121.93,38.32],[121.93,38.34],[121.93,38.36],[121.94,38.38],[121.94,38.4],[121.95,38.42],[121.95,38.44],[121.96,38.46],[121.97,38.48],[121.97,38.5],[121.98,38.52],[121.98,38.54],[121.99,38.56],[122,38.58],[122,38.6],[122.01,38.62],[122.02,38.64],[122.03,38.66],[122.04,38.68],[122.05,38.7],[122.05,38.72],[122.06,38.74],[122.07,38.76],[122.08,38.78],[122.09,38.8],[122.1,38.82],[122.11,38.84],[122.13,38.86],[122.14,38.88],[122.15,38.9],[122.16,38.92],[122.17,38.94],[122.19,38.96],[122.2,38.98],[122.21,39],[122.23,39.02],[122.24,39.04],[122.26,39.06],[122.27,39.08],[122.29,39.1],[122.3,39.12],[122.32,39.14],[122.33,39.16],[122.35,39.18],[122.37,39.2],[122.39,39.22],[122.4,39.24],[122.42,39.26],[122.44,39.28],[122.46,39.3],[122.48,39.32],[122.5,39.34],[122.52,39.36],[122.54,39.38],[122.56,39.39],[122.58,39.41],[122.6,39.43],[122.62,39.45],[122.64,39.46],[122.66,39.48],[122.68,39.49],[122.7,39.51],[122.72,39.52],[122.74,39.54],[122.76,39.55],[122.78,39.57],[122.8,39.58],[122.82,39.6],[122.84,39.61],[122.86,39.62],[122.88,39.64],[122.9,39.65],[122.92,39.66],[122.94,39.67],[122.96,39.68],[122.98,39.7],[123,39.71],[123.02,39.72],[123.04,39.73],[123.06,39.74],[123.08,39.75],[123.1,39.76],[123.12,39.77],[123.14,39.78],[123.16,39.79],[123.18,39.8],[123.2,39.81],[123.22,39.82],[123.24,39.83],[123.26,39.84],[123.28,39.85],[123.3,39.86],[123.33,39.87],[123.35,39.88],[123.37,39.89],[123.4,39.9],[123.43,39.91],[123.45,39.92],[123.48,39.93],[123.51,39.94],[123.54,39.95],[123.57,39.96],[123.6,39.97],[123.63,39.98],[123.66,39.98],[123.68,39.99],[123.7,40],[123.73,40],[123.75,40.01],[123.78,40.02],[123.81,40.02],[123.83,40.03],[123.86,40.04],[123.89,40.04],[123.91,40.05],[123.94,40.05],[123.96,40.06],[123.99,40.06],[124.01,40.07],[124.04,40.07],[124.07,40.08],[124.1,40.08],[124.13,40.08],[124.15,40.09],[124.18,40.09],[124.21,40.1],[124.24,40.1],[124.27,40.1],[124.3,40.1],[124.32,40.11],[124.35,40.11],[124.38,40.11],[124.41,40.11],[124.44,40.11],[124.46,40.12],[124.49,40.12],[124.52,40.12],[124.55,40.12],[124.58,40.12],[124.61,40.12],[124.64,40.12],[124.67,40.12],[124.7,40.12],[124.73,40.12],[124.76,40.12],[124.79,40.12],[124.81,40.11],[124.84,40.11],[124.87,40.11],[124.9,40.11],[124.93,40.11],[124.95,40.1],[124.98,40.1],[125.01,40.1],[125.04,40.1],[125.06,40.09],[125.09,40.09],[125.12,40.09],[125.14,40.08],[125.17,40.08],[125.19,40.07],[125.22,40.07],[125.25,40.06],[125.28,40.06],[125.31,40.05],[125.34,40.05],[125.36,40.04],[125.39,40.04],[125.41,40.03],[125.44,40.03],[125.46,40.02],[125.49,40.01],[125.52,40],[125.55,40],[125.57,39.99],[125.6,39.98],[125.63,39.97],[125.66,39.96],[125.69,39.96],[125.71,39.95],[125.73,39.94],[125.76,39.93],[125.78,39.92],[125.81,39.91],[125.84,39.9],[125.86,39.89],[125.88,39.9],[125.9,39.91],[125.92,39.92],[125.94,39.93],[125.96,39.94],[125.98,39.95],[126,39.96],[126.02,39.97],[126.04,39.98],[126.06,39.99],[126.08,40],[126.1,40.01],[126.13,40.02],[126.15,40.03],[126.18,40.04],[126.2,40.05],[126.23,40.06],[126.25,40.07],[126.28,40.08],[126.31,40.09],[126.34,40.1],[126.37,40.11],[126.4,40.12],[126.43,40.13],[126.46,40.13],[126.48,40.14],[126.5,40.15],[126.53,40.15],[126.55,40.16],[126.58,40.17],[126.61,40.17],[126.63,40.18],[126.66,40.19],[126.69,40.19],[126.71,40.2],[126.74,40.2],[126.76,40.21],[126.79,40.21],[126.81,40.22],[126.84,40.22],[126.87,40.23],[126.9,40.23],[126.93,40.23],[126.95,40.24],[126.98,40.24],[127.01,40.25],[127.04,40.25],[127.07,40.25],[127.1,40.25],[127.12,40.26],[127.15,40.26],[127.18,40.26],[127.21,40.26],[127.24,40.27],[127.27,40.27],[127.3,40.27],[127.33,40.27],[127.36,40.27],[127.39,40.27],[127.42,40.27],[127.45,40.27],[127.48,40.27],[127.51,40.27],[127.54,40.27],[127.57,40.27],[127.6,40.27],[127.63,40.26],[127.66,40.26],[127.69,40.26],[127.72,40.26],[127.75,40.26],[127.77,40.25],[127.8,40.25],[127.83,40.25],[127.86,40.24],[127.89,40.24],[127.92,40.24],[127.94,40.23],[127.97,40.23],[127.99,40.24],[128.02,40.24],[128.04,40.25],[128.07,40.25],[128.09,40.26],[128.12,40.26],[128.14,40.27],[128.17,40.27],[128.2,40.28],[128.23,40.28],[128.26,40.29],[128.29,40.29],[128.32,40.29],[128.34,40.3],[128.37,40.3],[128.4,40.3],[128.42,40.31],[128.45,40.31],[128.48,40.31],[128.51,40.31],[128.53,40.32],[128.56,40.32],[128.59,40.32],[128.62,40.32],[128.65,40.32],[128.67,40.33]]]}}]}
