{"type":"FeatureCollection","source":"국토교통부 공역정보 KMZ","cycle":"AIP 2026년 10차","features":[{"type":"Feature","properties":{"ident":"RK R1","name":"YONGMUN","type":"Restricted Area","airspaceClass":null,"upper":"6 000 AMSL","upperFt":6000,"upperRef":"AMSL","lower":"GND","lowerFt":0,"lowerRef":"GND","remarks":null,"res_lbl_1":"R1","res_lbl_2":"6 000 AMSL","res_lbl_3":"GND","category":"비행제한구역","source":"국토교통부 공역정보 KMZ","cycle":"AIP 2026년 10차"},"geometry":{"type":"MultiPolygon","coordinates":[[[[127.520611,37.536694],[127.470333,37.520555],[127.470333,37.511694],[127.52975,37.511694],[127.520611,37.536694]]]]}},{"type":"Feature","properties":{"ident":"RK R10","name":"MAEBONG","type":"Restricted Area","airspaceClass":null,"upper":"5 000 AMSL","upperFt":5000,"upperRef":"AMSL","lower":"GND","lowerFt":0,"lowerRef":"GND","remarks":null,"res_lbl_1":"R10","res_lbl_2":"5 000 AMSL","res_lbl_3":"GND","category":"비행제한구역","source":"국토교통부 공역정보 KMZ","cycle":"AIP 2026년 10차"},"geometry":{"type":"MultiPolygon","coordinates":[[[[127.683333,37.633333],[127.683333,37.533333],[127.803333,37.533333],[127.783333,37.616666],[127.733334,37.65],[127.683333,37.633333]]]]}},{"type":"Feature","properties":{"ident":"RK R100","name":"NAMHYONGJEDO","type":"Restricted Area","airspaceClass":null,"upper":"500 AMSL","upperFt":500,"upperRef":"AMSL","lower":"GND","lowerFt":0,"lowerRef":"GND","remarks":null,"res_lbl_1":"R100","res_lbl_2":"500 AMSL","res_lbl_3":"GND","category":"비행제한구역","source":"국토교통부 공역정보 KMZ","cycle":"AIP 2026년 10차"},"geometry":{"type":"MultiPolygon","coordinates":[[[[129.030189,34.892573],[129.027847,34.901687],[129.023988,34.910443],[129.018685,34.918672],[129.012043,34.926212],[129.00419,34.932918],[128.995279,34.938657],[128.985483,34.943318],[128.974995,34.946811],[128.964018,34.949066],[128.952765,34.950041],[128.941457,34.949715],[128.930315,34.948096],[128.919555,34.945215],[128.909389,34.941128],[128.900012,34.935915],[128.89161,34.929678],[128.884344,34.922538],[128.878357,34.914634],[128.873765,34.906121],[128.870657,34.897163],[128.869092,34.887937],[128.869101,34.878621],[128.870683,34.869396],[128.873807,34.860443],[128.878412,34.851935],[128.884407,34.844038],[128.891675,34.836905],[128.900076,34.830675],[128.909445,34.825469],[128.919601,34.821388],[128.930345,34.818511],[128.941471,34.816895],[128.952761,34.81657],[128.963995,34.817543],[128.974956,34.819795],[128.985432,34.823282],[128.995218,34.827937],[129.004125,34.833669],[129.011978,34.840367],[129.018627,34.8479],[129.023939,34.856123],[129.027813,34.864875],[129.030171,34.873986],[129.030969,34.883279],[129.030189,34.892573]]]]}},{"type":"Feature","properties":{"ident":"RK R104","name":"MIYEODO","type":"Restricted Area","airspaceClass":null,"upper":"FL 150","upperFt":15000,"upperRef":"FL","lower":"GND","lowerFt":0,"lowerRef":"GND","remarks":null,"res_lbl_1":"R104","res_lbl_2":"FL 150","res_lbl_3":"GND","category":"비행제한구역","source":"국토교통부 공역정보 KMZ","cycle":"AIP 2026년 10차"},"geometry":{"type":"MultiPolygon","coordinates":[[[[126.541592,35.559029],[126.538644,35.570421],[126.533782,35.581366],[126.527102,35.591652],[126.518732,35.601078],[126.508835,35.60946],[126.497605,35.616634],[126.485259,35.622461],[126.472038,35.626827],[126.458201,35.629647],[126.444018,35.630865],[126.429764,35.630459],[126.415719,35.628435],[126.402157,35.624833],[126.389342,35.619724],[126.377525,35.613207],[126.366936,35.60541],[126.357781,35.596484],[126.350237,35.586605],[126.344453,35.575963],[126.340538,35.564767],[126.338569,35.553235],[126.338584,35.541591],[126.340581,35.530062],[126.34452,35.518872],[126.350325,35.50824],[126.357882,35.49837],[126.367042,35.489457],[126.377628,35.481671],[126.389434,35.475165],[126.402231,35.470066],[126.415769,35.466471],[126.429786,35.464451],[126.44401,35.464045],[126.458165,35.465261],[126.471976,35.468075],[126.485175,35.472433],[126.497507,35.47825],[126.50873,35.485413],[126.518628,35.493783],[126.527006,35.503197],[126.533703,35.513473],[126.538588,35.524411],[126.541563,35.535798],[126.542572,35.547413],[126.541592,35.559029]]]]}},{"type":"Feature","properties":{"ident":"RK R105","name":"JIKDO","type":"Restricted Area","airspaceClass":null,"upper":"FL 400","upperFt":40000,"upperRef":"FL","lower":"GND","lowerFt":0,"lowerRef":"GND","remarks":null,"res_lbl_1":"R105","res_lbl_2":"FL 400","res_lbl_3":"GND","category":"비행제한구역","source":"국토교통부 공역정보 KMZ","cycle":"AIP 2026년 10차"},"geometry":{"type":"MultiPolygon","coordinates":[[[[126.279421,35.913436],[126.273526,35.936223],[126.263785,35.958121],[126.250383,35.978701],[126.233581,35.997563],[126.213704,36.014338],[126.191139,36.028698],[126.166326,36.040362],[126.139749,36.049102],[126.111929,36.054747],[126.08341,36.057186],[126.05475,36.056372],[126.026511,36.05232],[125.999246,36.04511],[125.973488,36.034883],[125.949741,36.021839],[125.928468,36.006233],[125.910083,35.988371],[125.894945,35.968601],[125.883346,35.94731],[125.875508,35.924913],[125.871583,35.901847],[125.871643,35.87856],[125.875684,35.855507],[125.883622,35.833135],[125.895302,35.81188],[125.910493,35.792154],[125.928898,35.774339],[125.950158,35.758781],[125.973861,35.745782],[125.999545,35.735592],[126.026713,35.728411],[126.054839,35.724375],[126.08338,35.723564],[126.111782,35.725993],[126.139497,35.731616],[126.165986,35.740322],[126.19074,35.751945],[126.213276,35.766258],[126.233157,35.782985],[126.249996,35.801801],[126.263465,35.822342],[126.273298,35.844208],[126.279303,35.866976],[126.281358,35.890203],[126.279421,35.913436]]]]}},{"type":"Feature","properties":{"ident":"RK R108A","name":"ANHEUNG A","type":"Restricted Area","airspaceClass":null,"upper":"FL 270","upperFt":27000,"upperRef":"FL","lower":"GND","lowerFt":0,"lowerRef":"GND","remarks":null,"res_lbl_1":"R108A","res_lbl_2":"FL 270","res_lbl_3":"GND","category":"비행제한구역","source":"국토교통부 공역정보 KMZ","cycle":"AIP 2026년 10차"},"geometry":{"type":"MultiPolygon","coordinates":[[[[126.199639,36.67675],[126.154639,36.679528],[126.151305,36.549555],[126.230472,36.552333],[126.199639,36.67675]]]]}},{"type":"Feature","properties":{"ident":"RK R108B","name":"ANHEUNG B","type":"Restricted Area","airspaceClass":null,"upper":"FL 330","upperFt":33000,"upperRef":"FL","lower":"GND","lowerFt":0,"lowerRef":"GND","remarks":null,"res_lbl_1":"R108B","res_lbl_2":"FL 330","res_lbl_3":"GND","category":"비행제한구역","source":"국토교통부 공역정보 KMZ","cycle":"AIP 2026년 10차"},"geometry":{"type":"MultiPolygon","coordinates":[[[[126.199639,36.67675],[126.154639,36.679528],[126.124639,36.469555],[126.250472,36.490389],[126.199639,36.67675]]]]}},{"type":"Feature","properties":{"ident":"RK R108C","name":"ANHEUNG C","type":"Restricted Area","airspaceClass":null,"upper":"UNL","upperFt":null,"upperRef":"UNL","lower":"GND","lowerFt":0,"lowerRef":"GND","remarks":null,"res_lbl_1":"R108C","res_lbl_2":"UNL","res_lbl_3":"GND","category":"비행제한구역","source":"국토교통부 공역정보 KMZ","cycle":"AIP 2026년 10차"},"geometry":{"type":"MultiPolygon","coordinates":[[[[126.297944,36.569555],[126.17325,36.677305],[125.998,36.636194],[125.713889,35.021944],[126.052194,34.973361],[126.297944,36.569555]]]]}},{"type":"Feature","properties":{"ident":"RK R108D","name":"ANHEUNG D","type":"Restricted Area","airspaceClass":null,"upper":"UNL","upperFt":null,"upperRef":"UNL","lower":"GND","lowerFt":0,"lowerRef":"GND","remarks":null,"res_lbl_1":"R108D","res_lbl_2":"UNL","res_lbl_3":"GND","category":"비행제한구역","source":"국토교통부 공역정보 KMZ","cycle":"AIP 2026년 10차"},"geometry":{"type":"MultiPolygon","coordinates":[[[[126.197972,36.67675],[126.154639,36.679528],[126.006333,36.38625],[126.152139,36.36125],[126.197972,36.67675]]]]}},{"type":"Feature","properties":{"ident":"RK R108E","name":"ANHEUNG E","type":"Restricted Area","airspaceClass":null,"upper":"FL 400","upperFt":40000,"upperRef":"FL","lower":"GND","lowerFt":0,"lowerRef":"GND","remarks":null,"res_lbl_1":"R108E","res_lbl_2":"FL 400","res_lbl_3":"GND","category":"비행제한구역","source":"국토교통부 공역정보 KMZ","cycle":"AIP 2026년 10차"},"geometry":{"type":"MultiPolygon","coordinates":[[[[126.199917,36.686472],[126.167694,36.677583],[126.228528,36.559555],[126.265194,36.560111],[126.265194,36.615944],[126.199917,36.686472]]]]}},{"type":"Feature","properties":{"ident":"RK R108F","name":"ANHEUNG F","type":"Restricted Area","airspaceClass":null,"upper":"FL 800","upperFt":80000,"upperRef":"FL","lower":"GND","lowerFt":0,"lowerRef":"GND","remarks":null,"res_lbl_1":"R108F","res_lbl_2":"FL 800","res_lbl_3":"GND","category":"비행제한구역","source":"국토교통부 공역정보 KMZ","cycle":"AIP 2026년 10차"},"geometry":{"type":"MultiPolygon","coordinates":[[[[126.197972,36.67675],[126.154639,36.679528],[125.943833,36.302916],[126.009111,36.28875],[126.197972,36.67675]]]]}},{"type":"Feature","properties":{"ident":"RK R110","name":"PILSEUNG","type":"Restricted Area","airspaceClass":null,"upper":"FL 400","upperFt":40000,"upperRef":"FL","lower":"GND","lowerFt":0,"lowerRef":"GND","remarks":null,"res_lbl_1":"R110","res_lbl_2":"FL 400","res_lbl_3":"GND","category":"비행제한구역","source":"국토교통부 공역정보 KMZ","cycle":"AIP 2026년 10차"},"geometry":{"type":"MultiPolygon","coordinates":[[[[129.05,37.216666],[128.683333,37.216666],[128.683333,36.916666],[129.05,36.916666],[129.05,37.216666]]]]}},{"type":"Feature","properties":{"ident":"RK R111","name":"UNGCHON","type":"Restricted Area","airspaceClass":null,"upper":"FL 250","upperFt":25000,"upperRef":"FL","lower":"GND","lowerFt":0,"lowerRef":"GND","remarks":null,"res_lbl_1":"R111","res_lbl_2":"FL 250","res_lbl_3":"GND","category":"비행제한구역","source":"국토교통부 공역정보 KMZ","cycle":"AIP 2026년 10차"},"geometry":{"type":"MultiPolygon","coordinates":[[[[126.638056,36.106944],[126.652222,36.154444],[126.649444,36.240556],[126.416667,36.235278],[126.420833,36.101944],[126.638056,36.106944]]]]}},{"type":"Feature","properties":{"ident":"RK R114","name":"BISEUNG","type":"Restricted Area","airspaceClass":null,"upper":"3 000 AMSL","upperFt":3000,"upperRef":"AMSL","lower":"GND","lowerFt":0,"lowerRef":"GND","remarks":null,"res_lbl_1":"R114","res_lbl_2":"3 000 AMSL","res_lbl_3":"GND","category":"비행제한구역","source":"국토교통부 공역정보 KMZ","cycle":"AIP 2026년 10차"},"geometry":{"type":"MultiPolygon","coordinates":[[[[127.861666,37.572222],[127.794028,37.572222],[127.803333,37.533333],[127.828333,37.516666],[127.87,37.530555],[127.875555,37.559722],[127.861666,37.572222]]]]}},{"type":"Feature","properties":{"ident":"RK R116","name":"DAECHONGDO","type":"Restricted Area","airspaceClass":null,"upper":"2 500 AMSL","upperFt":2500,"upperRef":"AMSL","lower":"GND","lowerFt":0,"lowerRef":"GND","remarks":null,"res_lbl_1":"R116","res_lbl_2":"2 500 AMSL","res_lbl_3":"GND","category":"비행제한구역","source":"국토교통부 공역정보 KMZ","cycle":"AIP 2026년 10차"},"geometry":{"type":"MultiPolygon","coordinates":[[[[124.742396,37.80784],[124.739965,37.81695],[124.73596,37.825702],[124.730457,37.833927],[124.723562,37.841464],[124.715412,37.848167],[124.706161,37.853904],[124.695994,37.858563],[124.685106,37.862054],[124.67371,37.864309],[124.662029,37.865283],[124.650291,37.864958],[124.638724,37.863339],[124.627555,37.860459],[124.617001,37.856374],[124.607269,37.851163],[124.598547,37.844929],[124.591006,37.837791],[124.584792,37.829891],[124.580026,37.821381],[124.576801,37.812428],[124.575177,37.803206],[124.575188,37.793895],[124.576831,37.784675],[124.580075,37.775726],[124.584855,37.767223],[124.591078,37.75933],[124.598623,37.752201],[124.607343,37.745974],[124.617067,37.740771],[124.627608,37.736692],[124.63876,37.733817],[124.650306,37.732202],[124.662024,37.731877],[124.673684,37.73285],[124.685061,37.7351],[124.695934,37.738586],[124.706091,37.743238],[124.715336,37.748967],[124.723488,37.755661],[124.730389,37.76319],[124.735904,37.771408],[124.739925,37.780156],[124.742375,37.789262],[124.743204,37.79855],[124.742396,37.80784]]]]}},{"type":"Feature","properties":{"ident":"RK R117","name":"JAEUNDO","type":"Restricted Area","airspaceClass":null,"upper":"3 000 AMSL","upperFt":3000,"upperRef":"AMSL","lower":"GND","lowerFt":0,"lowerRef":"GND","remarks":null,"res_lbl_1":"R117","res_lbl_2":"3 000 AMSL","res_lbl_3":"GND","category":"비행제한구역","source":"국토교통부 공역정보 KMZ","cycle":"AIP 2026년 10차"},"geometry":{"type":"MultiPolygon","coordinates":[[[[125.833342,34.719867],[125.830423,34.73126],[125.82561,34.742207],[125.818998,34.752494],[125.810713,34.761921],[125.800918,34.770304],[125.789802,34.777479],[125.777582,34.783307],[125.764497,34.787673],[125.750801,34.790493],[125.736763,34.791712],[125.722656,34.791305],[125.708754,34.789281],[125.695331,34.785679],[125.682647,34.780569],[125.670951,34.774052],[125.66047,34.766253],[125.651408,34.757327],[125.643941,34.747446],[125.638215,34.736803],[125.63434,34.725605],[125.632391,34.714072],[125.632405,34.702426],[125.634381,34.690896],[125.63828,34.679704],[125.644025,34.66907],[125.651505,34.659199],[125.660571,34.650284],[125.67105,34.642497],[125.682735,34.63599],[125.695401,34.63089],[125.708802,34.627295],[125.722676,34.625274],[125.736756,34.624868],[125.750767,34.626084],[125.764437,34.628899],[125.777502,34.633257],[125.789708,34.639075],[125.800817,34.646239],[125.810613,34.654611],[125.818907,34.664027],[125.825535,34.674304],[125.830369,34.685244],[125.833314,34.696632],[125.834311,34.708249],[125.833342,34.719867]]]]}},{"type":"Feature","properties":{"ident":"RK R122","name":"CHEONDUKBONG","type":"Restricted Area","airspaceClass":null,"upper":"3 700 AMSL","upperFt":3700,"upperRef":"AMSL","lower":"GND","lowerFt":0,"lowerRef":"GND","remarks":null,"res_lbl_1":"R122","res_lbl_2":"3 700 AMSL","res_lbl_3":"GND","category":"비행제한구역","source":"국토교통부 공역정보 KMZ","cycle":"AIP 2026년 10차"},"geometry":{"type":"MultiPolygon","coordinates":[[[[127.473111,37.36725],[127.444778,37.370861],[127.412555,37.33475],[127.428667,37.321972],[127.473111,37.36725]]]]}},{"type":"Feature","properties":{"ident":"RK R124","name":"DEOKJOKDO","type":"Restricted Area","airspaceClass":null,"upper":"2 500 AMSL","upperFt":2500,"upperRef":"AMSL","lower":"GND","lowerFt":0,"lowerRef":"GND","remarks":null,"res_lbl_1":"R124","res_lbl_2":"2 500 AMSL","res_lbl_3":"GND","category":"비행제한구역","source":"국토교통부 공역정보 KMZ","cycle":"AIP 2026년 10차"},"geometry":{"type":"MultiPolygon","coordinates":[[[[126.166666,37.1],[125.7,37.1],[125.7,36.916666],[125.95,36.916666],[126.166666,37.1]]]]}},{"type":"Feature","properties":{"ident":"RK R125","name":"HEUKSANDO","type":"Restricted Area","airspaceClass":null,"upper":"3 500 AMSL","upperFt":3500,"upperRef":"AMSL","lower":"GND","lowerFt":0,"lowerRef":"GND","remarks":null,"res_lbl_1":"R125","res_lbl_2":"3 500 AMSL","res_lbl_3":"GND","category":"비행제한구역","source":"국토교통부 공역정보 KMZ","cycle":"AIP 2026년 10차"},"geometry":{"type":"MultiPolygon","coordinates":[[[[125.44982,34.561534],[125.446905,34.572928],[125.442102,34.583875],[125.435502,34.594162],[125.427233,34.603589],[125.417457,34.611972],[125.406362,34.619148],[125.394165,34.624976],[125.381105,34.629342],[125.367435,34.632162],[125.353424,34.633381],[125.339343,34.632974],[125.325468,34.63095],[125.312071,34.627348],[125.299411,34.622238],[125.287737,34.61572],[125.277276,34.607922],[125.268231,34.598995],[125.260778,34.589114],[125.255063,34.578471],[125.251195,34.567273],[125.24925,34.555739],[125.249264,34.544093],[125.251236,34.532562],[125.255128,34.521371],[125.260862,34.510736],[125.268327,34.500865],[125.277376,34.491949],[125.287835,34.484162],[125.299498,34.477655],[125.312141,34.472555],[125.325516,34.468959],[125.339364,34.466939],[125.353416,34.466533],[125.367401,34.467749],[125.381046,34.470564],[125.394086,34.474922],[125.406268,34.48074],[125.417356,34.487905],[125.427134,34.496276],[125.435412,34.505693],[125.442027,34.51597],[125.446853,34.52691],[125.449791,34.538299],[125.450787,34.549916],[125.44982,34.561534]]]]}},{"type":"Feature","properties":{"ident":"RK R127","name":"BEOLGYO","type":"Restricted Area","airspaceClass":null,"upper":"3 000 AMSL","upperFt":3000,"upperRef":"AMSL","lower":"GND","lowerFt":0,"lowerRef":"GND","remarks":null,"res_lbl_1":"R127","res_lbl_2":"3 000 AMSL","res_lbl_3":"GND","category":"비행제한구역","source":"국토교통부 공역정보 KMZ","cycle":"AIP 2026년 10차"},"geometry":{"type":"MultiPolygon","coordinates":[[[[127.32199,34.892296],[127.321549,34.894005],[127.320825,34.895646],[127.319829,34.897188],[127.318583,34.898602],[127.317111,34.899858],[127.31544,34.900934],[127.313604,34.901807],[127.311639,34.902462],[127.309581,34.902885],[127.307472,34.903067],[127.305353,34.903006],[127.303265,34.902703],[127.301249,34.902163],[127.299344,34.901397],[127.297586,34.90042],[127.29601,34.899251],[127.294647,34.897913],[127.293525,34.896432],[127.292662,34.894836],[127.292078,34.893157],[127.291783,34.891427],[127.291784,34.88968],[127.292079,34.88795],[127.292664,34.886271],[127.293526,34.884676],[127.29465,34.883194],[127.296013,34.881856],[127.297588,34.880688],[127.299346,34.879711],[127.30125,34.878945],[127.303266,34.878406],[127.305354,34.878102],[127.307472,34.878042],[127.30958,34.878224],[127.311637,34.878647],[127.313602,34.879301],[127.315438,34.880174],[127.317108,34.881249],[127.318581,34.882506],[127.319828,34.883919],[127.320823,34.885461],[127.321548,34.887102],[127.32199,34.888811],[127.322137,34.890553],[127.32199,34.892296]]]]}},{"type":"Feature","properties":{"ident":"RK R129","name":"SURYUNSAN","type":"Restricted Area","airspaceClass":null,"upper":"3 500 AMSL","upperFt":3500,"upperRef":"AMSL","lower":"GND","lowerFt":0,"lowerRef":"GND","remarks":null,"res_lbl_1":"R129","res_lbl_2":"3 500 AMSL","res_lbl_3":"GND","category":"비행제한구역","source":"국토교통부 공역정보 KMZ","cycle":"AIP 2026년 10차"},"geometry":{"type":"MultiPolygon","coordinates":[[[[126.6885,35.356639],[126.668528,35.349694],[126.688805,35.288889],[126.711,35.280278],[126.709056,35.351361],[126.6885,35.356639]]]]}},{"type":"Feature","properties":{"ident":"RK R132","name":"DAECHONGDO EAST","type":"Restricted Area","airspaceClass":null,"upper":"10 000 AMSL","upperFt":10000,"upperRef":"AMSL","lower":"GND","lowerFt":0,"lowerRef":"GND","remarks":null,"res_lbl_1":"R132","res_lbl_2":"10 000 AMSL","res_lbl_3":"GND","category":"비행제한구역","source":"국토교통부 공역정보 KMZ","cycle":"AIP 2026년 10차"},"geometry":{"type":"MultiPolygon","coordinates":[[[[124.733334,37.95],[124.683333,37.95],[124.783333,37.75],[124.833333,37.75],[124.733334,37.95]]]]}},{"type":"Feature","properties":{"ident":"RK R133","name":"CHOCHIDO","type":"Restricted Area","airspaceClass":null,"upper":"500 AMSL","upperFt":500,"upperRef":"AMSL","lower":"GND","lowerFt":0,"lowerRef":"GND","remarks":null,"res_lbl_1":"R133","res_lbl_2":"500 AMSL","res_lbl_3":"GND","category":"비행제한구역","source":"국토교통부 공역정보 KMZ","cycle":"AIP 2026년 10차"},"geometry":{"type":"MultiPolygon","coordinates":[[[[126.23445,37.376852],[126.233239,37.381407],[126.231246,37.385783],[126.228509,37.389895],[126.22508,37.393663],[126.221028,37.397013],[126.216429,37.39988],[126.211376,37.402209],[126.205965,37.403954],[126.200301,37.405081],[126.194497,37.405568],[126.188664,37.405406],[126.182916,37.404597],[126.177365,37.403157],[126.17212,37.401115],[126.167282,37.398511],[126.162947,37.395394],[126.159197,37.391826],[126.156107,37.387877],[126.153735,37.383623],[126.15213,37.379146],[126.15132,37.374535],[126.151323,37.369879],[126.152137,37.365269],[126.153747,37.360793],[126.156122,37.356541],[126.159215,37.352593],[126.162965,37.349027],[126.1673,37.345913],[126.172136,37.34331],[126.177378,37.341269],[126.182925,37.339831],[126.188668,37.339023],[126.194496,37.338861],[126.200295,37.339347],[126.205954,37.340473],[126.211361,37.342217],[126.216412,37.344544],[126.221009,37.347409],[126.225062,37.350758],[126.228492,37.354524],[126.231232,37.358634],[126.233229,37.363009],[126.234445,37.367562],[126.234854,37.372207],[126.23445,37.376852]]]]}},{"type":"Feature","properties":{"ident":"RK R137","name":"WOODO","type":"Restricted Area","airspaceClass":null,"upper":"5 000 AMSL","upperFt":5000,"upperRef":"AMSL","lower":"SFC","lowerFt":0,"lowerRef":"SFC","remarks":null,"res_lbl_1":"R137","res_lbl_2":"5 000 AMSL","res_lbl_3":"SFC","category":"비행제한구역","source":"국토교통부 공역정보 KMZ","cycle":"AIP 2026년 10차"},"geometry":{"type":"MultiPolygon","coordinates":[[[[126.005833,37.639722],[125.924166,37.640833],[125.923333,37.606111],[126.005278,37.606389],[126.005833,37.639722]]]]}},{"type":"Feature","properties":{"ident":"RK R138","name":"DAECHEON","type":"Restricted Area","airspaceClass":null,"upper":"4 400 AMSL","upperFt":4400,"upperRef":"AMSL","lower":"SFC","lowerFt":0,"lowerRef":"SFC","remarks":null,"res_lbl_1":"R138","res_lbl_2":"4 400 AMSL","res_lbl_3":"SFC","category":"비행제한구역","source":"국토교통부 공역정보 KMZ","cycle":"AIP 2026년 10차"},"geometry":{"type":"MultiPolygon","coordinates":[[[[126.531389,36.348072],[126.529184,36.347935],[126.527031,36.347527],[126.524981,36.346859],[126.52308,36.345944],[126.521375,36.344806],[126.519904,36.343471],[126.518702,36.341969],[126.517798,36.340337],[126.517213,36.338612],[126.51696,36.336836],[126.517045,36.335048],[126.517466,36.333292],[126.518213,36.331609],[126.51927,36.330038],[126.52061,36.328615],[126.522203,36.327375],[126.524011,36.326346],[126.525992,36.325553],[126.528099,36.325013],[126.530284,36.32474],[126.532494,36.32474],[126.534679,36.325013],[126.536786,36.325553],[126.538767,36.326346],[126.540575,36.327375],[126.542168,36.328615],[126.543508,36.330038],[126.544565,36.331609],[126.545312,36.333292],[126.545733,36.335048],[126.545818,36.336836],[126.545565,36.338612],[126.54498,36.340337],[126.544075,36.341969],[126.542874,36.343471],[126.541403,36.344806],[126.539697,36.345944],[126.537797,36.346859],[126.535746,36.347527],[126.533593,36.347935],[126.531389,36.348072]]]]}},{"type":"Feature","properties":{"ident":"RK R139","name":"JINCHEON","type":"Restricted Area","airspaceClass":null,"upper":"5 400 AMSL","upperFt":5400,"upperRef":"AMSL","lower":"GND","lowerFt":0,"lowerRef":"GND","remarks":null,"res_lbl_1":"R139","res_lbl_2":"5 400 AMSL","res_lbl_3":"GND","category":"비행제한구역","source":"국토교통부 공역정보 KMZ","cycle":"AIP 2026년 10차"},"geometry":{"type":"MultiPolygon","coordinates":[[[[127.406944,36.852237],[127.404725,36.852101],[127.402559,36.851693],[127.400495,36.851024],[127.398582,36.85011],[127.396865,36.848972],[127.395385,36.847637],[127.394175,36.846136],[127.393265,36.844503],[127.392676,36.842779],[127.392421,36.841002],[127.392506,36.839215],[127.39293,36.837459],[127.393683,36.835776],[127.394746,36.834205],[127.396095,36.832783],[127.397698,36.831543],[127.399518,36.830514],[127.401512,36.82972],[127.403633,36.829181],[127.405832,36.828908],[127.408057,36.828908],[127.410256,36.829181],[127.412377,36.82972],[127.414371,36.830514],[127.416191,36.831543],[127.417794,36.832783],[127.419143,36.834205],[127.420206,36.835776],[127.420958,36.837459],[127.421382,36.839215],[127.421468,36.841002],[127.421213,36.842779],[127.420624,36.844503],[127.419714,36.846136],[127.418504,36.847637],[127.417024,36.848972],[127.415307,36.85011],[127.413394,36.851024],[127.41133,36.851693],[127.409163,36.852101],[127.406944,36.852237]]]]}},{"type":"Feature","properties":{"ident":"RK R14","name":"PYEONGDONG","type":"Restricted Area","airspaceClass":null,"upper":null,"upperFt":null,"upperRef":null,"lower":null,"lowerFt":null,"lowerRef":null,"remarks":null,"res_lbl_1":"R14","res_lbl_2":null,"res_lbl_3":null,"category":"비행제한구역","source":"국토교통부 공역정보 KMZ","cycle":"AIP 2026년 10차"},"geometry":{"type":"MultiPolygon","coordinates":[[[[126.7,35.15],[126.682416,35.135],[126.688222,35.129444],[126.683333,35.1],[126.729542,35.088453],[126.757438,35.137948],[126.733334,35.15],[126.7,35.15]]]]}},{"type":"Feature","properties":{"ident":"RK R142A","name":"Pohang KCG A","type":"Restricted Area","airspaceClass":null,"upper":"300 AMSL","upperFt":300,"upperRef":"AMSL","lower":"SFC","lowerFt":0,"lowerRef":"SFC","remarks":null,"res_lbl_1":"R142A","res_lbl_2":"300 AMSL","res_lbl_3":"SFC","category":"비행제한구역","source":"국토교통부 공역정보 KMZ","cycle":"AIP 2026년 10차"},"geometry":{"type":"MultiPolygon","coordinates":[[[[129.566667,37.166709],[129.564428,37.16666],[129.562196,37.166516],[129.559977,37.166276],[129.557777,37.165941],[129.555603,37.165512],[129.553461,37.16499],[129.551357,37.164377],[129.549297,37.163674],[129.547287,37.162884],[129.545333,37.162009],[129.543441,37.16105],[129.541616,37.160012],[129.539863,37.158897],[129.538187,37.157708],[129.536594,37.156449],[129.535087,37.155124],[129.533672,37.153735],[129.532352,37.152288],[129.53113,37.150786],[129.530012,37.149233],[129.528999,37.147635],[129.528095,37.145996],[129.527302,37.14432],[129.526622,37.142612],[129.526058,37.140878],[129.525611,37.139122],[129.525283,37.137349],[129.525074,37.135565],[129.524985,37.133774],[129.525016,37.131982],[129.525167,37.130194],[129.525438,37.128415],[129.525827,37.12665],[129.526335,37.124905],[129.526958,37.123184],[129.527696,37.121492],[129.528547,37.119834],[129.529507,37.118215],[129.530574,37.11664],[129.531745,37.115113],[129.533017,37.113639],[129.534386,37.112221],[129.535848,37.110864],[129.537398,37.109572],[129.539033,37.108348],[129.540748,37.107197],[129.542537,37.10612],[129.544396,37.105123],[129.546318,37.104206],[129.5483,37.103374],[129.550334,37.102628],[129.552415,37.10197],[129.554538,37.101403],[129.556695,37.100927],[129.558881,37.100545],[129.561089,37.100258],[129.563314,37.100066],[129.565548,37.09997],[129.567785,37.09997],[129.570019,37.100066],[129.572244,37.100258],[129.574452,37.100545],[129.576638,37.100927],[129.578796,37.101403],[129.580918,37.10197],[129.582999,37.102628],[129.585034,37.103374],[129.587015,37.104206],[129.588938,37.105123],[129.590796,37.10612],[129.592586,37.107197],[129.5943,37.108348],[129.595935,37.109572],[129.597486,37.110864],[129.598947,37.112221],[129.600316,37.113639],[129.601588,37.115113],[129.602759,37.11664],[129.603827,37.118215],[129.604787,37.119834],[129.605637,37.121492],[129.606375,37.123184],[129.606999,37.124905],[129.607506,37.12665],[129.607896,37.128415],[129.608166,37.130194],[129.608318,37.131982],[129.608349,37.133774],[129.608259,37.135565],[129.60805,37.137349],[129.607722,37.139122],[129.607275,37.140878],[129.606711,37.142612],[129.606032,37.14432],[129.605239,37.145996],[129.604334,37.147635],[129.603322,37.149233],[129.602203,37.150786],[129.600982,37.152288],[129.599661,37.153735],[129.598246,37.155124],[129.596739,37.156449],[129.595146,37.157708],[129.593471,37.158897],[129.591718,37.160012],[129.589892,37.16105],[129.588,37.162009],[129.586046,37.162884],[129.584037,37.163674],[129.581977,37.164377],[129.579873,37.16499],[129.57773,37.165512],[129.575556,37.165941],[129.573356,37.166276],[129.571137,37.166516],[129.568905,37.16666],[129.566667,37.166709]]]]}},{"type":"Feature","properties":{"ident":"RK R144","name":"Tongyeong KCG","type":"Restricted Area","airspaceClass":null,"upper":"300 AMSL","upperFt":300,"upperRef":"AMSL","lower":"SFC","lowerFt":0,"lowerRef":"SFC","remarks":null,"res_lbl_1":"R144","res_lbl_2":"300 AMSL","res_lbl_3":"SFC","category":"비행제한구역","source":"국토교통부 공역정보 KMZ","cycle":"AIP 2026년 10차"},"geometry":{"type":"MultiPolygon","coordinates":[[[[128.433333,34.716778],[128.431153,34.716754],[128.428974,34.716681],[128.426798,34.716559],[128.424627,34.71639],[128.422462,34.716171],[128.420306,34.715905],[128.418158,34.715591],[128.416022,34.715229],[128.413898,34.714819],[128.411789,34.714363],[128.409695,34.713859],[128.407619,34.713309],[128.405561,34.712713],[128.403524,34.712072],[128.401508,34.711385],[128.399515,34.710653],[128.397547,34.709878],[128.395605,34.709059],[128.393691,34.708197],[128.391805,34.707292],[128.38995,34.706346],[128.388127,34.705359],[128.386336,34.704331],[128.384579,34.703264],[128.382859,34.702159],[128.381174,34.701015],[128.379528,34.699834],[128.377921,34.698617],[128.376355,34.697365],[128.37483,34.696078],[128.373347,34.694758],[128.371908,34.693405],[128.370514,34.69202],[128.369166,34.690605],[128.367864,34.689161],[128.36661,34.687688],[128.365405,34.686187],[128.364249,34.684661],[128.363144,34.683109],[128.362089,34.681533],[128.361086,34.679934],[128.360136,34.678313],[128.35924,34.676672],[128.358397,34.675011],[128.357609,34.673332],[128.356875,34.671636],[128.356198,34.669925],[128.355577,34.668199],[128.355012,34.66646],[128.354504,34.664709],[128.354053,34.662947],[128.353661,34.661176],[128.353326,34.659396],[128.353049,34.65761],[128.352831,34.655818],[128.352671,34.654023],[128.35257,34.652224],[128.352528,34.650423],[128.352544,34.648623],[128.352619,34.646823],[128.352753,34.645026],[128.352946,34.643232],[128.353197,34.641443],[128.353506,34.639661],[128.353873,34.637886],[128.354298,34.63612],[128.35478,34.634364],[128.35532,34.632619],[128.355916,34.630887],[128.356568,34.629169],[128.357276,34.627466],[128.35804,34.62578],[128.358858,34.624111],[128.35973,34.622461],[128.360656,34.620831],[128.361634,34.619222],[128.362665,34.617635],[128.363747,34.616072],[128.364879,34.614534],[128.366061,34.613022],[128.367292,34.611536],[128.368571,34.610079],[128.369897,34.60865],[128.371269,34.607252],[128.372686,34.605884],[128.374148,34.604549],[128.375652,34.603247],[128.377198,34.601978],[128.378784,34.600745],[128.380411,34.599547],[128.382075,34.598387],[128.383777,34.597263],[128.385515,34.596178],[128.387288,34.595132],[128.389094,34.594126],[128.390932,34.593161],[128.392801,34.592236],[128.394699,34.591354],[128.396625,34.590515],[128.398578,34.589718],[128.400557,34.588966],[128.402558,34.588258],[128.404583,34.587594],[128.406628,34.586976],[128.408692,34.586404],[128.410775,34.585878],[128.412874,34.585399],[128.414987,34.584967],[128.417114,34.584581],[128.419253,34.584244],[128.421402,34.583954],[128.423559,34.583712],[128.425724,34.583518],[128.427894,34.583373],[128.430068,34.583276],[128.432245,34.583227],[128.434422,34.583227],[128.436598,34.583276],[128.438773,34.583373],[128.440943,34.583518],[128.443107,34.583712],[128.445265,34.583954],[128.447414,34.584244],[128.449553,34.584581],[128.451679,34.584967],[128.453793,34.585399],[128.455892,34.585878],[128.457974,34.586404],[128.460039,34.586976],[128.462084,34.587594],[128.464108,34.588258],[128.46611,34.588966],[128.468088,34.589718],[128.470041,34.590515],[128.471968,34.591354],[128.473866,34.592236],[128.475735,34.593161],[128.477573,34.594126],[128.479379,34.595132],[128.481152,34.596178],[128.482889,34.597263],[128.484591,34.598387],[128.486256,34.599547],[128.487882,34.600745],[128.489469,34.601978],[128.491015,34.603247],[128.492519,34.604549],[128.49398,34.605884],[128.495397,34.607252],[128.496769,34.60865],[128.498095,34.610079],[128.499374,34.611536],[128.500605,34.613022],[128.501788,34.614534],[128.50292,34.616072],[128.504002,34.617635],[128.505032,34.619222],[128.506011,34.620831],[128.506937,34.622461],[128.507809,34.624111],[128.508627,34.62578],[128.50939,34.627466],[128.510099,34.629169],[128.510751,34.630887],[128.511347,34.632619],[128.511887,34.634364],[128.512369,34.63612],[128.512794,34.637886],[128.513161,34.639661],[128.51347,34.641443],[128.513721,34.643232],[128.513913,34.645026],[128.514047,34.646823],[128.514123,34.648623],[128.514139,34.650423],[128.514097,34.652224],[128.513996,34.654023],[128.513836,34.655818],[128.513618,34.65761],[128.513341,34.659396],[128.513006,34.661176],[128.512613,34.662947],[128.512163,34.664709],[128.511655,34.66646],[128.51109,34.668199],[128.510469,34.669925],[128.509791,34.671636],[128.509058,34.673332],[128.50827,34.675011],[128.507427,34.676672],[128.50653,34.678313],[128.50558,34.679934],[128.504578,34.681533],[128.503523,34.683109],[128.502418,34.684661],[128.501262,34.686187],[128.500056,34.687688],[128.498802,34.689161],[128.497501,34.690605],[128.496152,34.69202],[128.494758,34.693405],[128.49332,34.694758],[128.491837,34.696078],[128.490312,34.697365],[128.488745,34.698617],[128.487138,34.699834],[128.485492,34.701015],[128.483808,34.702159],[128.482087,34.703264],[128.480331,34.704331],[128.47854,34.705359],[128.476716,34.706346],[128.474861,34.707292],[128.472976,34.708197],[128.471061,34.709059],[128.469119,34.709878],[128.467152,34.710653],[128.465159,34.711385],[128.463143,34.712072],[128.461106,34.712713],[128.459048,34.713309],[128.456971,34.713859],[128.454878,34.714363],[128.452768,34.714819],[128.450645,34.715229],[128.448508,34.715591],[128.446361,34.715905],[128.444204,34.716171],[128.44204,34.71639],[128.439869,34.716559],[128.437693,34.716681],[128.435514,34.716754],[128.433333,34.716778]]]]}},{"type":"Feature","properties":{"ident":"RK R145","name":"Yeosu KCG","type":"Restricted Area","airspaceClass":null,"upper":"300 AMSL","upperFt":300,"upperRef":"AMSL","lower":"SFC","lowerFt":0,"lowerRef":"SFC","remarks":null,"res_lbl_1":"R145","res_lbl_2":"300 AMSL","res_lbl_3":"SFC","category":"비행제한구역","source":"국토교통부 공역정보 KMZ","cycle":"AIP 2026년 10차"},"geometry":{"type":"MultiPolygon","coordinates":[[[[128.081111,34.582363],[128.078932,34.582344],[128.076754,34.582285],[128.074578,34.582188],[128.072405,34.582052],[128.070236,34.581877],[128.068073,34.581663],[128.065915,34.581411],[128.063764,34.58112],[128.061622,34.580791],[128.059489,34.580423],[128.057365,34.580018],[128.055253,34.579574],[128.053153,34.579093],[128.051066,34.578575],[128.048994,34.578019],[128.046936,34.577427],[128.044894,34.576797],[128.042869,34.576132],[128.040862,34.57543],[128.038873,34.574693],[128.036905,34.57392],[128.034957,34.573113],[128.033031,34.57227],[128.031127,34.571394],[128.029246,34.570484],[128.02739,34.56954],[128.025559,34.568563],[128.023754,34.567554],[128.021975,34.566513],[128.020225,34.56544],[128.018502,34.564336],[128.016809,34.563202],[128.015146,34.562037],[128.013514,34.560844],[128.011914,34.559621],[128.010346,34.55837],[128.00881,34.557091],[128.007309,34.555785],[128.005842,34.554453],[128.00441,34.553094],[128.003014,34.551711],[128.001655,34.550303],[128.000333,34.54887],[127.999048,34.547415],[127.997802,34.545937],[127.996594,34.544437],[127.995426,34.542915],[127.994298,34.541373],[127.993211,34.539812],[127.992165,34.538231],[127.99116,34.536632],[127.990197,34.535015],[127.989276,34.533382],[127.988399,34.531732],[127.987565,34.530068],[127.986774,34.528388],[127.986027,34.526695],[127.985325,34.524989],[127.984668,34.523271],[127.984055,34.521541],[127.983488,34.519801],[127.982966,34.518051],[127.98249,34.516293],[127.98206,34.514526],[127.981677,34.512752],[127.981339,34.510971],[127.981049,34.509185],[127.980805,34.507394],[127.980607,34.505599],[127.980457,34.503801],[127.980353,34.502001],[127.980297,34.500199],[127.980287,34.498397],[127.980324,34.496595],[127.980409,34.494794],[127.98054,34.492995],[127.980718,34.491198],[127.980943,34.489406],[127.981215,34.487617],[127.981533,34.485834],[127.981898,34.484058],[127.982309,34.482288],[127.982766,34.480525],[127.983268,34.478772],[127.983817,34.477028],[127.98441,34.475294],[127.985049,34.473571],[127.985732,34.471859],[127.98646,34.470161],[127.987232,34.468476],[127.988048,34.466805],[127.988907,34.465149],[127.989808,34.463509],[127.990753,34.461885],[127.991739,34.460278],[127.992767,34.45869],[127.993837,34.45712],[127.994946,34.45557],[127.996096,34.45404],[127.997286,34.452531],[127.998514,34.451043],[127.999781,34.449578],[128.001086,34.448136],[128.002428,34.446717],[128.003807,34.445323],[128.005221,34.443953],[128.006671,34.44261],[128.008156,34.441292],[128.009674,34.440002],[128.011226,34.438738],[128.01281,34.437503],[128.014426,34.436297],[128.016073,34.435119],[128.017751,34.433972],[128.019457,34.432854],[128.021193,34.431767],[128.022956,34.430712],[128.024746,34.429688],[128.026563,34.428697],[128.028405,34.427738],[128.030271,34.426813],[128.032161,34.425921],[128.034074,34.425063],[128.036009,34.424239],[128.037964,34.42345],[128.03994,34.422697],[128.041935,34.421979],[128.043948,34.421296],[128.045978,34.42065],[128.048025,34.42004],[128.050087,34.419467],[128.052164,34.418931],[128.054253,34.418432],[128.056356,34.417971],[128.05847,34.417547],[128.060594,34.417162],[128.062728,34.416814],[128.064871,34.416504],[128.067021,34.416233],[128.069177,34.416001],[128.07134,34.415807],[128.073506,34.415651],[128.075677,34.415535],[128.077849,34.415457],[128.080024,34.415418],[128.082199,34.415418],[128.084373,34.415457],[128.086546,34.415535],[128.088716,34.415651],[128.090883,34.415807],[128.093045,34.416001],[128.095201,34.416233],[128.097351,34.416504],[128.099494,34.416814],[128.101628,34.417162],[128.103752,34.417547],[128.105866,34.417971],[128.107969,34.418432],[128.110059,34.418931],[128.112135,34.419467],[128.114197,34.42004],[128.116244,34.42065],[128.118274,34.421296],[128.120287,34.421979],[128.122282,34.422697],[128.124258,34.42345],[128.126214,34.424239],[128.128148,34.425063],[128.130061,34.425921],[128.131951,34.426813],[128.133818,34.427738],[128.135659,34.428697],[128.137476,34.429688],[128.139266,34.430712],[128.14103,34.431767],[128.142765,34.432854],[128.144472,34.433972],[128.146149,34.435119],[128.147796,34.436297],[128.149412,34.437503],[128.150996,34.438738],[128.152548,34.440002],[128.154066,34.441292],[128.155551,34.44261],[128.157001,34.443953],[128.158416,34.445323],[128.159794,34.446717],[128.161136,34.448136],[128.162441,34.449578],[128.163708,34.451043],[128.164936,34.452531],[128.166126,34.45404],[128.167276,34.45557],[128.168386,34.45712],[128.169455,34.45869],[128.170483,34.460278],[128.171469,34.461885],[128.172414,34.463509],[128.173316,34.465149],[128.174175,34.466805],[128.17499,34.468476],[128.175762,34.470161],[128.17649,34.471859],[128.177173,34.473571],[128.177812,34.475294],[128.178406,34.477028],[128.178954,34.478772],[128.179457,34.480525],[128.179913,34.482288],[128.180324,34.484058],[128.180689,34.485834],[128.181007,34.487617],[128.181279,34.489406],[128.181504,34.491198],[128.181682,34.492995],[128.181813,34.494794],[128.181898,34.496595],[128.181935,34.498397],[128.181926,34.500199],[128.181869,34.502001],[128.181766,34.503801],[128.181615,34.505599],[128.181418,34.507394],[128.181174,34.509185],[128.180883,34.510971],[128.180545,34.512752],[128.180162,34.514526],[128.179732,34.516293],[128.179256,34.518051],[128.178734,34.519801],[128.178167,34.521541],[128.177554,34.523271],[128.176897,34.524989],[128.176195,34.526695],[128.175448,34.528388],[128.174658,34.530068],[128.173823,34.531732],[128.172946,34.533382],[128.172025,34.535015],[128.171062,34.536632],[128.170058,34.538231],[128.169011,34.539812],[128.167924,34.541373],[128.166796,34.542915],[128.165628,34.544437],[128.164421,34.545937],[128.163174,34.547415],[128.16189,34.54887],[128.160567,34.550303],[128.159208,34.551711],[128.157812,34.553094],[128.15638,34.554453],[128.154913,34.555785],[128.153412,34.557091],[128.151877,34.55837],[128.150308,34.559621],[128.148708,34.560844],[128.147076,34.562037],[128.145413,34.563202],[128.14372,34.564336],[128.141998,34.56544],[128.140247,34.566513],[128.138468,34.567554],[128.136663,34.568563],[128.134832,34.56954],[128.132976,34.570484],[128.131095,34.571394],[128.129192,34.57227],[128.127265,34.573113],[128.125317,34.57392],[128.123349,34.574693],[128.121361,34.57543],[128.119353,34.576132],[128.117329,34.576797],[128.115287,34.577427],[128.113229,34.578019],[128.111156,34.578575],[128.109069,34.579093],[128.106969,34.579574],[128.104857,34.580018],[128.102734,34.580423],[128.1006,34.580791],[128.098458,34.58112],[128.096307,34.581411],[128.09415,34.581663],[128.091986,34.581877],[128.089817,34.582052],[128.087644,34.582188],[128.085468,34.582285],[128.08329,34.582344],[128.081111,34.582363]]]]}},{"type":"Feature","properties":{"ident":"RK R146","name":"Wando KCG","type":"Restricted Area","airspaceClass":null,"upper":"300 AMSL","upperFt":300,"upperRef":"AMSL","lower":"SFC","lowerFt":0,"lowerRef":"SFC","remarks":null,"res_lbl_1":"R146","res_lbl_2":"300 AMSL","res_lbl_3":"SFC","category":"비행제한구역","source":"국토교통부 공역정보 KMZ","cycle":"AIP 2026년 10차"},"geometry":{"type":"MultiPolygon","coordinates":[[[[126.864722,34.153203],[126.862554,34.153183],[126.860387,34.153125],[126.858222,34.153027],[126.856061,34.152891],[126.853903,34.152716],[126.85175,34.152502],[126.849603,34.15225],[126.847464,34.151959],[126.845332,34.15163],[126.84321,34.151262],[126.841097,34.150857],[126.838996,34.150413],[126.836907,34.149932],[126.83483,34.149414],[126.832768,34.148858],[126.830721,34.148266],[126.828689,34.147636],[126.826674,34.146971],[126.824677,34.146269],[126.822699,34.145532],[126.820741,34.144759],[126.818803,34.143951],[126.816886,34.143109],[126.814992,34.142233],[126.813121,34.141322],[126.811274,34.140378],[126.809452,34.139402],[126.807656,34.138392],[126.805887,34.137351],[126.804145,34.136278],[126.802432,34.135174],[126.800747,34.13404],[126.799093,34.132875],[126.797469,34.131682],[126.795877,34.130459],[126.794316,34.129208],[126.792789,34.127929],[126.791295,34.126623],[126.789836,34.12529],[126.788411,34.123932],[126.787022,34.122548],[126.78567,34.12114],[126.784354,34.119708],[126.783076,34.118252],[126.781836,34.116774],[126.780635,34.115274],[126.779473,34.113752],[126.77835,34.11221],[126.777268,34.110648],[126.776227,34.109068],[126.775228,34.107469],[126.77427,34.105852],[126.773354,34.104218],[126.772481,34.102569],[126.771651,34.100904],[126.770864,34.099224],[126.770121,34.097531],[126.769423,34.095825],[126.768768,34.094107],[126.768159,34.092377],[126.767594,34.090637],[126.767075,34.088887],[126.766602,34.087128],[126.766174,34.085361],[126.765792,34.083587],[126.765457,34.081806],[126.765167,34.08002],[126.764924,34.078229],[126.764728,34.076434],[126.764578,34.074635],[126.764475,34.072835],[126.764419,34.071033],[126.764409,34.069231],[126.764446,34.067428],[126.76453,34.065627],[126.764661,34.063828],[126.764838,34.062032],[126.765062,34.060239],[126.765332,34.058451],[126.765649,34.056668],[126.766012,34.054891],[126.766421,34.05312],[126.766875,34.051358],[126.767375,34.049604],[126.767921,34.04786],[126.768511,34.046126],[126.769147,34.044403],[126.769827,34.042692],[126.770551,34.040993],[126.771319,34.039308],[126.77213,34.037636],[126.772985,34.03598],[126.773882,34.03434],[126.774821,34.032716],[126.775803,34.031109],[126.776826,34.029521],[126.777889,34.027951],[126.778994,34.026401],[126.780138,34.02487],[126.781321,34.023361],[126.782543,34.021873],[126.783804,34.020408],[126.785102,34.018966],[126.786437,34.017547],[126.787809,34.016153],[126.789216,34.014783],[126.790659,34.013439],[126.792136,34.012122],[126.793647,34.010831],[126.795191,34.009568],[126.796767,34.008332],[126.798375,34.007126],[126.800013,34.005948],[126.801682,34.004801],[126.80338,34.003683],[126.805107,34.002596],[126.806861,34.001541],[126.808642,34.000517],[126.81045,33.999526],[126.812282,33.998567],[126.814139,33.997641],[126.81602,33.996749],[126.817923,33.995891],[126.819848,33.995067],[126.821794,33.994279],[126.823759,33.993525],[126.825744,33.992807],[126.827747,33.992124],[126.829767,33.991478],[126.831803,33.990868],[126.833855,33.990295],[126.835921,33.989759],[126.838,33.98926],[126.840092,33.988799],[126.842195,33.988375],[126.844309,33.987989],[126.846432,33.987641],[126.848564,33.987332],[126.850703,33.987061],[126.852849,33.986828],[126.855,33.986634],[126.857156,33.986479],[126.859315,33.986362],[126.861477,33.986285],[126.86364,33.986246],[126.865804,33.986246],[126.867967,33.986285],[126.870129,33.986362],[126.872289,33.986479],[126.874444,33.986634],[126.876596,33.986828],[126.878741,33.987061],[126.88088,33.987332],[126.883012,33.987641],[126.885135,33.987989],[126.887249,33.988375],[126.889352,33.988799],[126.891444,33.98926],[126.893523,33.989759],[126.895589,33.990295],[126.897641,33.990868],[126.899677,33.991478],[126.901697,33.992124],[126.9037,33.992807],[126.905685,33.993525],[126.907651,33.994279],[126.909597,33.995067],[126.911522,33.995891],[126.913425,33.996749],[126.915305,33.997641],[126.917162,33.998567],[126.918995,33.999526],[126.920802,34.000517],[126.922583,34.001541],[126.924338,34.002596],[126.926064,34.003683],[126.927762,34.004801],[126.929431,34.005948],[126.93107,34.007126],[126.932678,34.008332],[126.934254,34.009568],[126.935798,34.010831],[126.937308,34.012122],[126.938785,34.013439],[126.940228,34.014783],[126.941635,34.016153],[126.943007,34.017547],[126.944342,34.018966],[126.945641,34.020408],[126.946901,34.021873],[126.948123,34.023361],[126.949307,34.02487],[126.950451,34.026401],[126.951555,34.027951],[126.952619,34.029521],[126.953642,34.031109],[126.954623,34.032716],[126.955563,34.03434],[126.95646,34.03598],[126.957314,34.037636],[126.958126,34.039308],[126.958894,34.040993],[126.959618,34.042692],[126.960298,34.044403],[126.960933,34.046126],[126.961524,34.04786],[126.962069,34.049604],[126.962569,34.051358],[126.963024,34.05312],[126.963433,34.054891],[126.963795,34.056668],[126.964112,34.058451],[126.964382,34.060239],[126.964606,34.062032],[126.964783,34.063828],[126.964914,34.065627],[126.964998,34.067428],[126.965035,34.069231],[126.965026,34.071033],[126.964969,34.072835],[126.964866,34.074635],[126.964716,34.076434],[126.96452,34.078229],[126.964277,34.08002],[126.963988,34.081806],[126.963652,34.083587],[126.96327,34.085361],[126.962843,34.087128],[126.962369,34.088887],[126.96185,34.090637],[126.961286,34.092377],[126.960676,34.094107],[126.960022,34.095825],[126.959323,34.097531],[126.95858,34.099224],[126.957794,34.100904],[126.956964,34.102569],[126.956091,34.104218],[126.955175,34.105852],[126.954217,34.107469],[126.953217,34.109068],[126.952176,34.110648],[126.951094,34.11221],[126.949972,34.113752],[126.94881,34.115274],[126.947609,34.116774],[126.946369,34.118252],[126.94509,34.119708],[126.943775,34.12114],[126.942422,34.122548],[126.941033,34.123932],[126.939609,34.12529],[126.938149,34.126623],[126.936656,34.127929],[126.935128,34.129208],[126.933568,34.130459],[126.931975,34.131682],[126.930352,34.132875],[126.928697,34.13404],[126.927013,34.135174],[126.925299,34.136278],[126.923557,34.137351],[126.921788,34.138392],[126.919992,34.139402],[126.91817,34.140378],[126.916323,34.141322],[126.914452,34.142233],[126.912558,34.143109],[126.910642,34.143951],[126.908704,34.144759],[126.906745,34.145532],[126.904767,34.146269],[126.90277,34.146971],[126.900755,34.147636],[126.898724,34.148266],[126.896676,34.148858],[126.894614,34.149414],[126.892538,34.149932],[126.890448,34.150413],[126.888347,34.150857],[126.886235,34.151262],[126.884112,34.15163],[126.881981,34.151959],[126.879841,34.15225],[126.877694,34.152502],[126.875542,34.152716],[126.873384,34.152891],[126.871222,34.153027],[126.869057,34.153125],[126.86689,34.153183],[126.864722,34.153203]]]]}},{"type":"Feature","properties":{"ident":"RK R148A","name":"Mokpo KCG A","type":"Restricted Area","airspaceClass":null,"upper":"300 AMSL","upperFt":300,"upperRef":"AMSL","lower":"SFC","lowerFt":0,"lowerRef":"SFC","remarks":null,"res_lbl_1":"R148A","res_lbl_2":"300 AMSL","res_lbl_3":"SFC","category":"비행제한구역","source":"국토교통부 공역정보 KMZ","cycle":"AIP 2026년 10차"},"geometry":{"type":"MultiPolygon","coordinates":[[[[126.223333,34.80118],[126.221157,34.801141],[126.218984,34.801025],[126.216819,34.800832],[126.214667,34.800563],[126.21253,34.800217],[126.210414,34.799796],[126.208321,34.7993],[126.206256,34.79873],[126.204223,34.798087],[126.202226,34.797373],[126.200267,34.796588],[126.198352,34.795735],[126.196482,34.794814],[126.194663,34.793828],[126.192896,34.792778],[126.191186,34.791667],[126.189536,34.790495],[126.187948,34.789267],[126.186426,34.787983],[126.184972,34.786646],[126.18359,34.785259],[126.182281,34.783824],[126.181048,34.782343],[126.179894,34.780821],[126.17882,34.779259],[126.177828,34.77766],[126.176921,34.776027],[126.1761,34.774364],[126.175366,34.772673],[126.174721,34.770958],[126.174167,34.769221],[126.173703,34.767466],[126.173331,34.765697],[126.173052,34.763916],[126.172866,34.762126],[126.172774,34.760332],[126.172775,34.758536],[126.172869,34.756742],[126.173058,34.754952],[126.173339,34.753172],[126.173713,34.751402],[126.174178,34.749648],[126.174735,34.747912],[126.175381,34.746197],[126.176117,34.744506],[126.17694,34.742844],[126.177848,34.741212],[126.178841,34.739614],[126.179916,34.738052],[126.181071,34.736531],[126.182305,34.735051],[126.183615,34.733617],[126.184998,34.732231],[126.186452,34.730895],[126.187974,34.729612],[126.189561,34.728384],[126.191211,34.727214],[126.192921,34.726103],[126.194687,34.725054],[126.196505,34.724069],[126.198374,34.723149],[126.200288,34.722296],[126.202245,34.721512],[126.204241,34.720799],[126.206273,34.720157],[126.208335,34.719587],[126.210426,34.719092],[126.212541,34.718671],[126.214675,34.718325],[126.216826,34.718056],[126.218988,34.717863],[126.221159,34.717747],[126.223333,34.717709],[126.225508,34.717747],[126.227678,34.717863],[126.229841,34.718056],[126.231992,34.718325],[126.234126,34.718671],[126.236241,34.719092],[126.238331,34.719587],[126.240394,34.720157],[126.242425,34.720799],[126.244422,34.721512],[126.246379,34.722296],[126.248293,34.723149],[126.250161,34.724069],[126.25198,34.725054],[126.253746,34.726103],[126.255455,34.727214],[126.257105,34.728384],[126.258693,34.729612],[126.260215,34.730895],[126.261669,34.732231],[126.263052,34.733617],[126.264362,34.735051],[126.265595,34.736531],[126.266751,34.738052],[126.267826,34.739614],[126.268819,34.741212],[126.269727,34.742844],[126.27055,34.744506],[126.271285,34.746197],[126.271932,34.747912],[126.272488,34.749648],[126.272954,34.751402],[126.273328,34.753172],[126.273609,34.754952],[126.273797,34.756742],[126.273892,34.758536],[126.273893,34.760332],[126.273801,34.762126],[126.273615,34.763916],[126.273335,34.765697],[126.272964,34.767466],[126.2725,34.769221],[126.271945,34.770958],[126.271301,34.772673],[126.270567,34.774364],[126.269746,34.776027],[126.268839,34.77766],[126.267847,34.779259],[126.266773,34.780821],[126.265619,34.782343],[126.264386,34.783824],[126.263077,34.785259],[126.261694,34.786646],[126.26024,34.787983],[126.258718,34.789267],[126.257131,34.790495],[126.25548,34.791667],[126.25377,34.792778],[126.252004,34.793828],[126.250184,34.794814],[126.248315,34.795735],[126.246399,34.796588],[126.244441,34.797373],[126.242443,34.798087],[126.24041,34.79873],[126.238346,34.7993],[126.236253,34.799796],[126.234137,34.800217],[126.232,34.800563],[126.229848,34.800832],[126.227683,34.801025],[126.22551,34.801141],[126.223333,34.80118]]]]}},{"type":"Feature","properties":{"ident":"RK R148B","name":"Mokpo KCG B","type":"Restricted Area","airspaceClass":null,"upper":"300 AMSL","upperFt":300,"upperRef":"AMSL","lower":"SFC","lowerFt":0,"lowerRef":"SFC","remarks":null,"res_lbl_1":"R148B","res_lbl_2":"300 AMSL","res_lbl_3":"SFC","category":"비행제한구역","source":"국토교통부 공역정보 KMZ","cycle":"AIP 2026년 10차"},"geometry":{"type":"MultiPolygon","coordinates":[[[[125.914722,34.486503],[125.912548,34.486478],[125.910375,34.486406],[125.908205,34.486284],[125.90604,34.486114],[125.903881,34.485896],[125.90173,34.48563],[125.899589,34.485316],[125.897459,34.484954],[125.895341,34.484544],[125.893237,34.484087],[125.891149,34.483584],[125.889079,34.483034],[125.887026,34.482438],[125.884995,34.481796],[125.882984,34.481109],[125.880997,34.480378],[125.879035,34.479602],[125.877098,34.478783],[125.875189,34.477921],[125.873309,34.477016],[125.871459,34.47607],[125.86964,34.475083],[125.867854,34.474056],[125.866103,34.472989],[125.864386,34.471883],[125.862707,34.470739],[125.861065,34.469558],[125.859463,34.468341],[125.8579,34.467089],[125.85638,34.465802],[125.854901,34.464482],[125.853466,34.463129],[125.852076,34.461744],[125.850731,34.460329],[125.849433,34.458885],[125.848183,34.457412],[125.846981,34.455911],[125.845828,34.454384],[125.844726,34.452832],[125.843674,34.451256],[125.842674,34.449657],[125.841727,34.448036],[125.840833,34.446395],[125.839992,34.444734],[125.839206,34.443056],[125.838475,34.44136],[125.837799,34.439648],[125.837179,34.437922],[125.836616,34.436183],[125.83611,34.434432],[125.83566,34.43267],[125.835269,34.430898],[125.834935,34.429119],[125.834659,34.427333],[125.834441,34.425541],[125.834282,34.423745],[125.834181,34.421946],[125.834139,34.420146],[125.834155,34.418345],[125.83423,34.416545],[125.834364,34.414748],[125.834555,34.412954],[125.834806,34.411165],[125.835114,34.409383],[125.83548,34.407608],[125.835904,34.405842],[125.836385,34.404086],[125.836923,34.402341],[125.837517,34.400609],[125.838168,34.398891],[125.838874,34.397188],[125.839635,34.395501],[125.840451,34.393832],[125.841321,34.392182],[125.842244,34.390552],[125.84322,34.388943],[125.844248,34.387356],[125.845327,34.385794],[125.846456,34.384255],[125.847635,34.382743],[125.848863,34.381257],[125.850138,34.3798],[125.85146,34.378371],[125.852829,34.376972],[125.854242,34.375605],[125.855699,34.37427],[125.857199,34.372967],[125.858741,34.371699],[125.860323,34.370465],[125.861945,34.369268],[125.863605,34.368107],[125.865302,34.366983],[125.867035,34.365898],[125.868803,34.364852],[125.870604,34.363846],[125.872437,34.362881],[125.874301,34.361957],[125.876194,34.361074],[125.878115,34.360235],[125.880063,34.359438],[125.882035,34.358686],[125.884032,34.357978],[125.886051,34.357314],[125.88809,34.356696],[125.890149,34.356124],[125.892226,34.355598],[125.894319,34.355119],[125.896426,34.354686],[125.898548,34.354301],[125.90068,34.353963],[125.902823,34.353674],[125.904975,34.353432],[125.907134,34.353238],[125.909298,34.353093],[125.911466,34.352996],[125.913637,34.352947],[125.915808,34.352947],[125.917978,34.352996],[125.920147,34.353093],[125.922311,34.353238],[125.924469,34.353432],[125.926621,34.353674],[125.928764,34.353963],[125.930897,34.354301],[125.933018,34.354686],[125.935126,34.355119],[125.937219,34.355598],[125.939296,34.356124],[125.941354,34.356696],[125.943394,34.357314],[125.945413,34.357978],[125.947409,34.358686],[125.949382,34.359438],[125.951329,34.360235],[125.953251,34.361074],[125.955144,34.361957],[125.957007,34.362881],[125.95884,34.363846],[125.960641,34.364852],[125.962409,34.365898],[125.964142,34.366983],[125.96584,34.368107],[125.9675,34.369268],[125.969122,34.370465],[125.970704,34.371699],[125.972246,34.372967],[125.973746,34.37427],[125.975203,34.375605],[125.976616,34.376972],[125.977984,34.378371],[125.979306,34.3798],[125.980582,34.381257],[125.98181,34.382743],[125.982988,34.384255],[125.984118,34.385794],[125.985197,34.387356],[125.986224,34.388943],[125.9872,34.390552],[125.988123,34.392182],[125.988993,34.393832],[125.989809,34.395501],[125.99057,34.397188],[125.991277,34.398891],[125.991927,34.400609],[125.992522,34.402341],[125.99306,34.404086],[125.993541,34.405842],[125.993964,34.407608],[125.994331,34.409383],[125.994639,34.411165],[125.994889,34.412954],[125.995081,34.414748],[125.995214,34.416545],[125.995289,34.418345],[125.995306,34.420146],[125.995263,34.421946],[125.995163,34.423745],[125.995003,34.425541],[125.994786,34.427333],[125.99451,34.429119],[125.994176,34.430898],[125.993784,34.43267],[125.993335,34.434432],[125.992828,34.436183],[125.992265,34.437922],[125.991645,34.439648],[125.99097,34.44136],[125.990239,34.443056],[125.989452,34.444734],[125.988612,34.446395],[125.987718,34.448036],[125.98677,34.449657],[125.98577,34.451256],[125.984719,34.452832],[125.983616,34.454384],[125.982464,34.455911],[125.981261,34.457412],[125.980011,34.458885],[125.978713,34.460329],[125.977368,34.461744],[125.975978,34.463129],[125.974543,34.464482],[125.973065,34.465802],[125.971544,34.467089],[125.969982,34.468341],[125.968379,34.469558],[125.966738,34.470739],[125.965058,34.471883],[125.963342,34.472989],[125.96159,34.474056],[125.959804,34.475083],[125.957986,34.47607],[125.956136,34.477016],[125.954255,34.477921],[125.952346,34.478783],[125.95041,34.479602],[125.948447,34.480378],[125.94646,34.481109],[125.94445,34.481796],[125.942418,34.482438],[125.940366,34.483034],[125.938295,34.483584],[125.936207,34.484087],[125.934104,34.484544],[125.931986,34.484954],[125.929855,34.485316],[125.927714,34.48563],[125.925563,34.485896],[125.923405,34.486114],[125.92124,34.486284],[125.91907,34.486406],[125.916897,34.486478],[125.914722,34.486503]]]]}},{"type":"Feature","properties":{"ident":"RK R149","name":"Jeju KCG","type":"Restricted Area","airspaceClass":null,"upper":"300 AMSL","upperFt":300,"upperRef":"AMSL","lower":"SFC","lowerFt":0,"lowerRef":"SFC","remarks":null,"res_lbl_1":"R149","res_lbl_2":"300 AMSL","res_lbl_3":"SFC","category":"비행제한구역","source":"국토교통부 공역정보 KMZ","cycle":"AIP 2026년 10차"},"geometry":{"type":"MultiPolygon","coordinates":[[[[126.216667,33.829318],[126.214507,33.829299],[126.212348,33.82924],[126.210192,33.829143],[126.208038,33.829007],[126.205888,33.828832],[126.203744,33.828618],[126.201605,33.828365],[126.199474,33.828074],[126.19735,33.827745],[126.195236,33.827378],[126.193131,33.826972],[126.191038,33.826529],[126.188956,33.826048],[126.186888,33.825529],[126.184833,33.824974],[126.182794,33.824381],[126.18077,33.823752],[126.178763,33.823086],[126.176773,33.822384],[126.174803,33.821647],[126.172852,33.820874],[126.170921,33.820067],[126.169012,33.819224],[126.167125,33.818348],[126.165261,33.817437],[126.163421,33.816493],[126.161606,33.815516],[126.159817,33.814507],[126.158054,33.813466],[126.156319,33.812393],[126.154612,33.811289],[126.152934,33.810155],[126.151286,33.80899],[126.149668,33.807796],[126.148081,33.806573],[126.146527,33.805322],[126.145005,33.804043],[126.143517,33.802737],[126.142063,33.801405],[126.140644,33.800046],[126.139261,33.798662],[126.137913,33.797254],[126.136602,33.795822],[126.135329,33.794366],[126.134094,33.792888],[126.132897,33.791387],[126.131739,33.789866],[126.130621,33.788324],[126.129543,33.786762],[126.128506,33.785181],[126.12751,33.783582],[126.126556,33.781965],[126.125644,33.780332],[126.124774,33.778682],[126.123947,33.777017],[126.123163,33.775337],[126.122423,33.773644],[126.121727,33.771938],[126.121075,33.770219],[126.120468,33.76849],[126.119906,33.766749],[126.119389,33.764999],[126.118917,33.76324],[126.118491,33.761473],[126.11811,33.759699],[126.117776,33.757918],[126.117488,33.756132],[126.117246,33.754341],[126.11705,33.752545],[126.116901,33.750747],[126.116798,33.748947],[126.116742,33.747145],[126.116732,33.745342],[126.116769,33.74354],[126.116853,33.741739],[126.116983,33.739939],[126.11716,33.738143],[126.117383,33.73635],[126.117652,33.734562],[126.117967,33.732778],[126.118329,33.731001],[126.118736,33.729231],[126.119189,33.727469],[126.119687,33.725715],[126.12023,33.72397],[126.120819,33.722236],[126.121452,33.720513],[126.122129,33.718802],[126.12285,33.717103],[126.123615,33.715417],[126.124424,33.713746],[126.125275,33.71209],[126.126169,33.71045],[126.127105,33.708826],[126.128083,33.707219],[126.129101,33.70563],[126.130161,33.70406],[126.131261,33.70251],[126.132401,33.700979],[126.13358,33.69947],[126.134798,33.697982],[126.136053,33.696517],[126.137347,33.695074],[126.138677,33.693656],[126.140043,33.692261],[126.141445,33.690892],[126.142882,33.689548],[126.144354,33.68823],[126.145859,33.686939],[126.147397,33.685676],[126.148967,33.684441],[126.150569,33.683234],[126.152201,33.682056],[126.153864,33.680908],[126.155556,33.679791],[126.157276,33.678704],[126.159023,33.677648],[126.160798,33.676625],[126.162599,33.675633],[126.164424,33.674674],[126.166274,33.673749],[126.168148,33.672857],[126.170044,33.671998],[126.171961,33.671175],[126.1739,33.670386],[126.175858,33.669632],[126.177835,33.668914],[126.179831,33.668231],[126.181843,33.667585],[126.183872,33.666975],[126.185916,33.666402],[126.187974,33.665866],[126.190045,33.665367],[126.192129,33.664906],[126.194225,33.664482],[126.19633,33.664096],[126.198446,33.663748],[126.200569,33.663439],[126.2027,33.663168],[126.204838,33.662935],[126.206981,33.662741],[126.209129,33.662586],[126.21128,33.662469],[126.213434,33.662391],[126.215589,33.662352],[126.217744,33.662352],[126.2199,33.662391],[126.222053,33.662469],[126.224204,33.662586],[126.226352,33.662741],[126.228495,33.662935],[126.230633,33.663168],[126.232764,33.663439],[126.234888,33.663748],[126.237003,33.664096],[126.239109,33.664482],[126.241204,33.664906],[126.243288,33.665367],[126.24536,33.665866],[126.247418,33.666402],[126.249462,33.666975],[126.25149,33.667585],[126.253503,33.668231],[126.255498,33.668914],[126.257475,33.669632],[126.259434,33.670386],[126.261372,33.671175],[126.26329,33.671998],[126.265186,33.672857],[126.267059,33.673749],[126.268909,33.674674],[126.270735,33.675633],[126.272535,33.676625],[126.27431,33.677648],[126.276058,33.678704],[126.277778,33.679791],[126.279469,33.680908],[126.281132,33.682056],[126.282764,33.683234],[126.284366,33.684441],[126.285936,33.685676],[126.287474,33.686939],[126.288979,33.68823],[126.290451,33.689548],[126.291888,33.690892],[126.29329,33.692261],[126.294657,33.693656],[126.295987,33.695074],[126.29728,33.696517],[126.298536,33.697982],[126.299753,33.69947],[126.300932,33.700979],[126.302072,33.70251],[126.303172,33.70406],[126.304232,33.70563],[126.305251,33.707219],[126.306229,33.708826],[126.307165,33.71045],[126.308058,33.71209],[126.30891,33.713746],[126.309718,33.715417],[126.310483,33.717103],[126.311204,33.718802],[126.311882,33.720513],[126.312515,33.722236],[126.313103,33.72397],[126.313646,33.725715],[126.314145,33.727469],[126.314598,33.729231],[126.315005,33.731001],[126.315366,33.732778],[126.315681,33.734562],[126.315951,33.73635],[126.316174,33.738143],[126.31635,33.739939],[126.31648,33.741739],[126.316564,33.74354],[126.316601,33.745342],[126.316591,33.747145],[126.316535,33.748947],[126.316433,33.750747],[126.316283,33.752545],[126.316088,33.754341],[126.315846,33.756132],[126.315557,33.757918],[126.315223,33.759699],[126.314843,33.761473],[126.314416,33.76324],[126.313945,33.764999],[126.313427,33.766749],[126.312865,33.76849],[126.312258,33.770219],[126.311606,33.771938],[126.31091,33.773644],[126.31017,33.775337],[126.309386,33.777017],[126.30856,33.778682],[126.30769,33.780332],[126.306777,33.781965],[126.305823,33.783582],[126.304827,33.785181],[126.30379,33.786762],[126.302712,33.788324],[126.301594,33.789866],[126.300436,33.791387],[126.29924,33.792888],[126.298004,33.794366],[126.296731,33.795822],[126.29542,33.797254],[126.294073,33.798662],[126.292689,33.800046],[126.29127,33.801405],[126.289816,33.802737],[126.288328,33.804043],[126.286806,33.805322],[126.285252,33.806573],[126.283665,33.807796],[126.282048,33.80899],[126.280399,33.810155],[126.278721,33.811289],[126.277014,33.812393],[126.275279,33.813466],[126.273516,33.814507],[126.271727,33.815516],[126.269912,33.816493],[126.268072,33.817437],[126.266209,33.818348],[126.264322,33.819224],[126.262412,33.820067],[126.260482,33.820874],[126.258531,33.821647],[126.25656,33.822384],[126.254571,33.823086],[126.252563,33.823752],[126.25054,33.824381],[126.2485,33.824974],[126.246445,33.825529],[126.244377,33.826048],[126.242295,33.826529],[126.240202,33.826972],[126.238098,33.827378],[126.235983,33.827745],[126.23386,33.828074],[126.231728,33.828365],[126.22959,33.828618],[126.227445,33.828832],[126.225295,33.829007],[126.223142,33.829143],[126.220985,33.82924],[126.218826,33.829299],[126.216667,33.829318]]]]}},{"type":"Feature","properties":{"ident":"RK R151A","name":"Gunsan KCG","type":"Restricted Area","airspaceClass":null,"upper":"100 AMSL","upperFt":100,"upperRef":"AMSL","lower":"SFC","lowerFt":0,"lowerRef":"SFC","remarks":null,"res_lbl_1":"R151A","res_lbl_2":"100 AMSL","res_lbl_3":"SFC","category":"비행제한구역","source":"국토교통부 공역정보 KMZ","cycle":"AIP 2026년 10차"},"geometry":{"type":"MultiPolygon","coordinates":[[[[126.313889,35.833333],[126.25,35.75],[126.333333,35.75],[126.333333,35.833333],[126.313889,35.833333]]]]}},{"type":"Feature","properties":{"ident":"RK R152","name":"GOESAN","type":"Restricted Area","airspaceClass":null,"upper":"2 100 AMSL","upperFt":2100,"upperRef":"AMSL","lower":"SFC","lowerFt":0,"lowerRef":"SFC","remarks":null,"res_lbl_1":"R152","res_lbl_2":"2 100 AMSL","res_lbl_3":"SFC","category":"비행제한구역","source":"국토교통부 공역정보 KMZ","cycle":"AIP 2026년 10차"},"geometry":{"type":"MultiPolygon","coordinates":[[[[127.805278,36.906988],[127.803047,36.90694],[127.800822,36.906795],[127.798611,36.906555],[127.796418,36.90622],[127.794252,36.905791],[127.792117,36.905269],[127.79002,36.904656],[127.787967,36.903953],[127.785964,36.903163],[127.784017,36.902288],[127.782131,36.901329],[127.780312,36.900291],[127.778565,36.899176],[127.776895,36.897987],[127.775307,36.896728],[127.773806,36.895402],[127.772395,36.894014],[127.771079,36.892566],[127.769862,36.891064],[127.768747,36.889512],[127.767738,36.887914],[127.766837,36.886274],[127.766046,36.884598],[127.765369,36.88289],[127.764807,36.881156],[127.764362,36.8794],[127.764035,36.877627],[127.763826,36.875843],[127.763737,36.874052],[127.763768,36.87226],[127.763919,36.870472],[127.764189,36.868693],[127.764577,36.866928],[127.765083,36.865182],[127.765704,36.863461],[127.76644,36.861769],[127.767287,36.860111],[127.768244,36.858493],[127.769308,36.856917],[127.770475,36.85539],[127.771742,36.853916],[127.773107,36.852498],[127.774563,36.851141],[127.776109,36.849849],[127.777738,36.848625],[127.779447,36.847473],[127.78123,36.846397],[127.783082,36.845399],[127.784998,36.844483],[127.786973,36.84365],[127.789,36.842904],[127.791075,36.842246],[127.79319,36.841679],[127.79534,36.841204],[127.797518,36.840822],[127.799719,36.840534],[127.801936,36.840342],[127.804163,36.840246],[127.806393,36.840246],[127.808619,36.840342],[127.810836,36.840534],[127.813037,36.840822],[127.815216,36.841204],[127.817366,36.841679],[127.819481,36.842246],[127.821555,36.842904],[127.823582,36.84365],[127.825557,36.844483],[127.827473,36.845399],[127.829326,36.846397],[127.831109,36.847473],[127.832817,36.848625],[127.834447,36.849849],[127.835992,36.851141],[127.837449,36.852498],[127.838813,36.853916],[127.840081,36.85539],[127.841248,36.856917],[127.842312,36.858493],[127.843269,36.860111],[127.844116,36.861769],[127.844851,36.863461],[127.845473,36.865182],[127.845979,36.866928],[127.846367,36.868693],[127.846637,36.870472],[127.846787,36.87226],[127.846818,36.874052],[127.846729,36.875843],[127.846521,36.877627],[127.846194,36.8794],[127.845748,36.881156],[127.845186,36.88289],[127.844509,36.884598],[127.843719,36.886274],[127.842818,36.887914],[127.841808,36.889512],[127.840693,36.891064],[127.839476,36.892566],[127.83816,36.894014],[127.83675,36.895402],[127.835248,36.896728],[127.83366,36.897987],[127.831991,36.899176],[127.830244,36.900291],[127.828425,36.901329],[127.826539,36.902288],[127.824592,36.903163],[127.822589,36.903953],[127.820536,36.904656],[127.818439,36.905269],[127.816304,36.905791],[127.814137,36.90622],[127.811945,36.906555],[127.809733,36.906795],[127.807509,36.90694],[127.805278,36.906988]]]]}},{"type":"Feature","properties":{"ident":"RK R154","name":"연평도 남부","type":"Restricted Area","airspaceClass":null,"upper":"3 000 AMSL","upperFt":3000,"upperRef":"AMSL","lower":"SFC","lowerFt":0,"lowerRef":"SFC","remarks":null,"res_lbl_1":"R154","res_lbl_2":"3 000 AMSL","res_lbl_3":"SFC","category":"비행제한구역","source":"국토교통부 공역정보 KMZ","cycle":"AIP 2026년 10차"},"geometry":{"type":"MultiPolygon","coordinates":[[[[125.72,37.696111],[125.700833,37.659167],[125.903333,37.588056],[125.919444,37.629722],[125.72,37.696111]]]]}},{"type":"Feature","properties":{"ident":"RK R155A","name":"SEONGJU","type":"Restricted Area","airspaceClass":null,"upper":"9 500 AMSL","upperFt":9500,"upperRef":"AMSL","lower":"SFC","lowerFt":0,"lowerRef":"SFC","remarks":"Restricted","res_lbl_1":"R155A","res_lbl_2":"9 500 AMSL","res_lbl_3":"SFC","category":"비행제한구역","source":"국토교통부 공역정보 KMZ","cycle":"AIP 2026년 10차"},"geometry":{"type":"MultiPolygon","coordinates":[[[[128.225833,36.070314],[128.223633,36.07025],[128.221445,36.070059],[128.219278,36.069741],[128.217145,36.069299],[128.215057,36.068735],[128.213023,36.068051],[128.211055,36.06725],[128.209162,36.066338],[128.207354,36.065319],[128.20564,36.064197],[128.20403,36.062979],[128.20253,36.061671],[128.201149,36.060279],[128.199895,36.05881],[128.198772,36.057273],[128.197787,36.055675],[128.196946,36.054024],[128.196251,36.052328],[128.195708,36.050596],[128.195317,36.048837],[128.195083,36.04706],[128.195005,36.045274],[128.195084,36.043488],[128.19532,36.041711],[128.195712,36.039952],[128.196256,36.038221],[128.196952,36.036525],[128.197795,36.034874],[128.19878,36.033276],[128.199903,36.031739],[128.201159,36.030272],[128.20254,36.02888],[128.204039,36.027573],[128.20565,36.026355],[128.207363,36.025234],[128.209171,36.024215],[128.211063,36.023303],[128.21303,36.022503],[128.215063,36.02182],[128.217151,36.021255],[128.219282,36.020814],[128.221447,36.020496],[128.223635,36.020305],[128.225833,36.020242],[128.228032,36.020305],[128.230219,36.020496],[128.232384,36.020814],[128.234516,36.021255],[128.236604,36.02182],[128.238636,36.022503],[128.240604,36.023303],[128.242496,36.024215],[128.244303,36.025234],[128.246017,36.026355],[128.247627,36.027573],[128.249127,36.02888],[128.250508,36.030272],[128.251763,36.031739],[128.252887,36.033276],[128.253872,36.034874],[128.254715,36.036525],[128.25541,36.038221],[128.255955,36.039952],[128.256346,36.041711],[128.256582,36.043488],[128.256662,36.045274],[128.256584,36.04706],[128.256349,36.048837],[128.255959,36.050596],[128.255415,36.052328],[128.254721,36.054024],[128.253879,36.055675],[128.252895,36.057273],[128.251772,36.05881],[128.250517,36.060279],[128.249137,36.061671],[128.247637,36.062979],[128.246026,36.064197],[128.244313,36.065319],[128.242505,36.066338],[128.240612,36.06725],[128.238644,36.068051],[128.23661,36.068735],[128.234521,36.069299],[128.232388,36.069741],[128.230222,36.070059],[128.228033,36.07025],[128.225833,36.070314]]]]}},{"type":"Feature","properties":{"ident":"RK R155B","name":"SEONGJU","type":"Restricted Area","airspaceClass":null,"upper":"FL 196","upperFt":19600,"upperRef":"FL","lower":"SFC","lowerFt":0,"lowerRef":"SFC","remarks":"Restricted","res_lbl_1":"R155B","res_lbl_2":"FL 196","res_lbl_3":"SFC","category":"비행제한구역","source":"국토교통부 공역정보 KMZ","cycle":"AIP 2026년 10차"},"geometry":{"type":"MultiPolygon","coordinates":[[[[128.280272,36.068797],[128.278388,36.071257],[128.276389,36.073624],[128.274278,36.075892],[128.272061,36.078056],[128.269742,36.080111],[128.267328,36.082053],[128.264823,36.083876],[128.262234,36.085578],[128.259566,36.087153],[128.256826,36.088599],[128.254019,36.089911],[128.251153,36.091088],[128.248233,36.092125],[128.245268,36.093021],[128.242262,36.093774],[128.239224,36.094382],[128.23616,36.094844],[128.233078,36.095158],[128.229984,36.095324],[128.226886,36.095342],[128.223748,36.095844],[128.220584,36.096152],[128.217408,36.096263],[128.21423,36.096177],[128.211064,36.095895],[128.207922,36.095418],[128.204815,36.094746],[128.201756,36.093884],[128.198756,36.092834],[128.195827,36.0916],[128.19298,36.090188],[128.190225,36.088602],[128.187574,36.086848],[128.185037,36.084934],[128.182623,36.082866],[128.180342,36.080653],[128.178202,36.078303],[128.176212,36.075825],[128.174379,36.073228],[128.17271,36.070523],[128.171212,36.06772],[128.16989,36.064829],[128.168749,36.061863],[128.167795,36.058831],[128.16703,36.055746],[128.166457,36.05262],[128.166079,36.049464],[128.165897,36.046291],[128.165912,36.043112],[128.166123,36.039941],[128.166531,36.036789],[128.167133,36.033668],[128.167927,36.03059],[128.168909,36.027567],[128.170077,36.024611],[128.171426,36.021733],[128.171428,36.021733],[128.174148,36.022911],[128.176869,36.024089],[128.17959,36.025267],[128.182311,36.026445],[128.185031,36.027623],[128.187752,36.0288],[128.190473,36.029978],[128.193193,36.031156],[128.195914,36.032334],[128.198635,36.033512],[128.197795,36.034874],[128.196952,36.036525],[128.196256,36.038221],[128.195712,36.039952],[128.19532,36.041711],[128.195084,36.043488],[128.195005,36.045274],[128.195083,36.04706],[128.195317,36.048837],[128.195708,36.050596],[128.196251,36.052328],[128.196946,36.054024],[128.197787,36.055675],[128.198772,36.057273],[128.199895,36.05881],[128.201149,36.060279],[128.20253,36.061671],[128.20403,36.062979],[128.20564,36.064197],[128.207354,36.065319],[128.209162,36.066338],[128.211055,36.06725],[128.213023,36.068051],[128.215057,36.068735],[128.217145,36.069299],[128.219278,36.069741],[128.221445,36.070059],[128.223633,36.07025],[128.225833,36.070314],[128.228033,36.07025],[128.230222,36.070059],[128.232388,36.069741],[128.234521,36.069299],[128.23661,36.068735],[128.238644,36.068051],[128.240612,36.06725],[128.242505,36.066338],[128.244313,36.065319],[128.246026,36.064197],[128.247637,36.062979],[128.249137,36.061671],[128.250517,36.060279],[128.251772,36.05881],[128.252895,36.057273],[128.253041,36.057036],[128.255764,36.058213],[128.258487,36.059389],[128.26121,36.060565],[128.263933,36.061741],[128.266656,36.062917],[128.26938,36.064093],[128.272103,36.065269],[128.274826,36.066445],[128.277549,36.067621],[128.280272,36.068797]]]]}},{"type":"Feature","properties":{"ident":"RK R157","name":"JANGSAN","type":"Restricted Area","airspaceClass":null,"upper":"6 000 AMSL","upperFt":6000,"upperRef":"AMSL","lower":"SFC","lowerFt":0,"lowerRef":"SFC","remarks":null,"res_lbl_1":"R157","res_lbl_2":"6 000 AMSL","res_lbl_3":"SFC","category":"비행제한구역","source":"국토교통부 공역정보 KMZ","cycle":"AIP 2026년 10차"},"geometry":{"type":"MultiPolygon","coordinates":[[[[129.150833,35.212241],[129.14866,35.212104],[129.146537,35.211696],[129.144516,35.211027],[129.142642,35.210113],[129.140961,35.208975],[129.139511,35.207639],[129.138326,35.206137],[129.137435,35.204505],[129.136857,35.202779],[129.136608,35.201002],[129.136691,35.199215],[129.137107,35.197458],[129.137844,35.195775],[129.138885,35.194203],[129.140206,35.192781],[129.141777,35.19154],[129.143559,35.190511],[129.145512,35.189717],[129.14759,35.189178],[129.149744,35.188905],[129.151923,35.188905],[129.154077,35.189178],[129.156154,35.189717],[129.158107,35.190511],[129.15989,35.19154],[129.16146,35.192781],[129.162782,35.194203],[129.163823,35.195775],[129.16456,35.197458],[129.164975,35.199215],[129.165059,35.201002],[129.164809,35.202779],[129.164232,35.204505],[129.163341,35.206137],[129.162156,35.207639],[129.160706,35.208975],[129.159025,35.210113],[129.157151,35.211027],[129.155129,35.211696],[129.153007,35.212104],[129.150833,35.212241]]]]}},{"type":"Feature","properties":{"ident":"RK R158","name":"JONJAE","type":"Restricted Area","airspaceClass":null,"upper":"6 400 AMSL","upperFt":6400,"upperRef":"AMSL","lower":"SFC","lowerFt":0,"lowerRef":"SFC","remarks":null,"res_lbl_1":"R158","res_lbl_2":"6 400 AMSL","res_lbl_3":"SFC","category":"비행제한구역","source":"국토교통부 공역정보 KMZ","cycle":"AIP 2026년 10차"},"geometry":{"type":"MultiPolygon","coordinates":[[[[127.229722,34.86613],[127.227558,34.865993],[127.225444,34.865586],[127.223431,34.864917],[127.221565,34.864002],[127.219891,34.862864],[127.218447,34.861528],[127.217267,34.860026],[127.21638,34.858394],[127.215805,34.856669],[127.215556,34.854891],[127.21564,34.853103],[127.216053,34.851347],[127.216787,34.849663],[127.217824,34.848092],[127.21914,34.846669],[127.220704,34.845429],[127.222479,34.844399],[127.224424,34.843606],[127.226493,34.843066],[127.228637,34.842793],[127.230807,34.842793],[127.232952,34.843066],[127.235021,34.843606],[127.236966,34.844399],[127.238741,34.845429],[127.240304,34.846669],[127.24162,34.848092],[127.242657,34.849663],[127.243391,34.851347],[127.243805,34.853103],[127.243888,34.854891],[127.243639,34.856669],[127.243065,34.858394],[127.242177,34.860026],[127.240997,34.861528],[127.239553,34.862864],[127.237879,34.864002],[127.236013,34.864917],[127.234,34.865586],[127.231887,34.865993],[127.229722,34.86613]]]]}},{"type":"Feature","properties":{"ident":"RK R17","name":"YEOJU","type":"Restricted Area","airspaceClass":null,"upper":"FL 150","upperFt":15000,"upperRef":"FL","lower":"GND","lowerFt":0,"lowerRef":"GND","remarks":null,"res_lbl_1":"R17","res_lbl_2":"FL 150","res_lbl_3":"GND","category":"비행제한구역","source":"국토교통부 공역정보 KMZ","cycle":"AIP 2026년 10차"},"geometry":{"type":"MultiPolygon","coordinates":[[[[127.701154,37.347631],[127.698138,37.359019],[127.693164,37.369962],[127.686329,37.380245],[127.677766,37.389668],[127.66764,37.398048],[127.656148,37.405221],[127.643514,37.411046],[127.629987,37.415411],[127.615827,37.418231],[127.601313,37.419449],[127.586727,37.419042],[127.572356,37.417018],[127.558478,37.413418],[127.545365,37.40831],[127.533274,37.401795],[127.522438,37.393999],[127.51307,37.385076],[127.505352,37.375199],[127.499433,37.36456],[127.495429,37.353367],[127.493415,37.341838],[127.493431,37.330198],[127.495476,37.318673],[127.499508,37.307487],[127.505448,37.296857],[127.51318,37.286991],[127.522554,37.278081],[127.533385,37.270298],[127.545466,37.263795],[127.558558,37.258697],[127.57241,37.255103],[127.586752,37.253084],[127.601305,37.252678],[127.615787,37.253894],[127.629918,37.256707],[127.643423,37.261063],[127.65604,37.266878],[127.667524,37.274038],[127.677652,37.282405],[127.686226,37.291817],[127.693078,37.302089],[127.698077,37.313023],[127.701122,37.324407],[127.702155,37.336018],[127.701154,37.347631]]]]}},{"type":"Feature","properties":{"ident":"RK R19","name":"JOCHIWON","type":"Restricted Area","airspaceClass":null,"upper":"3 400 AMSL","upperFt":3400,"upperRef":"AMSL","lower":"GND","lowerFt":0,"lowerRef":"GND","remarks":null,"res_lbl_1":"R19","res_lbl_2":"3 400 AMSL","res_lbl_3":"GND","category":"비행제한구역","source":"국토교통부 공역정보 KMZ","cycle":"AIP 2026년 10차"},"geometry":{"type":"MultiPolygon","coordinates":[[[[127.265429,36.615742],[127.26423,36.620297],[127.262256,36.624674],[127.259546,36.628786],[127.256152,36.632554],[127.252139,36.635905],[127.247587,36.638773],[127.242583,36.641102],[127.237226,36.642848],[127.231619,36.643975],[127.225872,36.644462],[127.220097,36.644299],[127.214406,36.64349],[127.20891,36.64205],[127.203717,36.640008],[127.198928,36.637403],[127.194635,36.634286],[127.190922,36.630718],[127.187863,36.626768],[127.185515,36.622513],[127.183925,36.618036],[127.183123,36.613425],[127.183126,36.608768],[127.183932,36.604157],[127.185526,36.599681],[127.187877,36.595428],[127.190939,36.59148],[127.194653,36.587913],[127.198945,36.584798],[127.203733,36.582195],[127.208923,36.580155],[127.214415,36.578716],[127.2201,36.577908],[127.225871,36.577745],[127.231613,36.578232],[127.237215,36.579358],[127.242569,36.581102],[127.24757,36.583429],[127.252121,36.586295],[127.256134,36.589644],[127.25953,36.593411],[127.262243,36.597521],[127.26422,36.601897],[127.265424,36.606451],[127.265829,36.611096],[127.265429,36.615742]]]]}},{"type":"Feature","properties":{"ident":"RK R20","name":"BOEUN","type":"Restricted Area","airspaceClass":null,"upper":"5 000 AMSL","upperFt":5000,"upperRef":"AMSL","lower":"GND","lowerFt":0,"lowerRef":"GND","remarks":null,"res_lbl_1":"R20","res_lbl_2":"5 000 AMSL","res_lbl_3":"GND","category":"비행제한구역","source":"국토교통부 공역정보 KMZ","cycle":"AIP 2026년 10차"},"geometry":{"type":"MultiPolygon","coordinates":[[[[127.824247,36.481298],[127.82305,36.485853],[127.82108,36.49023],[127.818374,36.494342],[127.814986,36.498111],[127.81098,36.501461],[127.806436,36.504329],[127.801441,36.506659],[127.796093,36.508404],[127.790495,36.509531],[127.784758,36.510018],[127.778993,36.509855],[127.773313,36.509046],[127.767826,36.507607],[127.762642,36.505564],[127.757861,36.502959],[127.753575,36.499842],[127.749869,36.496274],[127.746815,36.492324],[127.744471,36.488069],[127.742884,36.483592],[127.742084,36.47898],[127.742086,36.474324],[127.742891,36.469712],[127.744483,36.465237],[127.74683,36.460983],[127.749886,36.457035],[127.753593,36.453468],[127.757878,36.450353],[127.762657,36.44775],[127.767839,36.44571],[127.773321,36.444271],[127.778997,36.443463],[127.784757,36.4433],[127.790489,36.443787],[127.796082,36.444913],[127.801427,36.446657],[127.806419,36.448984],[127.810963,36.45185],[127.814969,36.455199],[127.818358,36.458966],[127.821067,36.463077],[127.823041,36.467452],[127.824242,36.472007],[127.824647,36.476652],[127.824247,36.481298]]]]}},{"type":"Feature","properties":{"ident":"RK R21","name":"EONYANG","type":"Restricted Area","airspaceClass":null,"upper":"5 000 AMSL","upperFt":5000,"upperRef":"AMSL","lower":"GND","lowerFt":0,"lowerRef":"GND","remarks":null,"res_lbl_1":"R21","res_lbl_2":"5 000 AMSL","res_lbl_3":"GND","category":"비행제한구역","source":"국토교통부 공역정보 KMZ","cycle":"AIP 2026년 10차"},"geometry":{"type":"MultiPolygon","coordinates":[[[[129.115423,35.526299],[129.114241,35.530855],[129.112294,35.535232],[129.109621,35.539345],[129.106273,35.543114],[129.102316,35.546466],[129.097826,35.549334],[129.092891,35.551664],[129.087607,35.553409],[129.082077,35.554536],[129.076409,35.555023],[129.070713,35.554861],[129.0651,35.554052],[129.05968,35.552612],[129.054558,35.550569],[129.049834,35.547964],[129.0456,35.544847],[129.041938,35.541278],[129.03892,35.537327],[129.036605,35.533071],[129.035036,35.528594],[129.034245,35.523981],[129.034248,35.519324],[129.035043,35.514712],[129.036615,35.510235],[129.038935,35.505981],[129.041955,35.502032],[129.045617,35.498465],[129.04985,35.495349],[129.054572,35.492746],[129.059692,35.490705],[129.065108,35.489266],[129.070716,35.488458],[129.076407,35.488295],[129.082072,35.488782],[129.087597,35.489908],[129.092877,35.491652],[129.09781,35.49398],[129.102299,35.496847],[129.106257,35.500196],[129.109606,35.503963],[129.112282,35.508075],[129.114233,35.512451],[129.115419,35.517006],[129.115819,35.521653],[129.115423,35.526299]]]]}},{"type":"Feature","properties":{"ident":"RK R35","name":"MAESANRI","type":"Restricted Area","airspaceClass":null,"upper":"2 500 AMSL","upperFt":2500,"upperRef":"AMSL","lower":"GND","lowerFt":0,"lowerRef":"GND","remarks":null,"res_lbl_1":"R35","res_lbl_2":"2 500 AMSL","res_lbl_3":"GND","category":"비행제한구역","source":"국토교통부 공역정보 KMZ","cycle":"AIP 2026년 10차"},"geometry":{"type":"MultiPolygon","coordinates":[[[[127.297777,37.365185],[127.296566,37.36974],[127.294573,37.374116],[127.291836,37.378228],[127.288408,37.381996],[127.284356,37.385346],[127.279759,37.388214],[127.274706,37.390543],[127.269296,37.392288],[127.263634,37.393415],[127.25783,37.393902],[127.251998,37.393739],[127.246251,37.39293],[127.240701,37.391491],[127.235457,37.389449],[127.23062,37.386844],[127.226285,37.383728],[127.222536,37.38016],[127.219446,37.37621],[127.217075,37.371956],[127.215469,37.36748],[127.21466,37.362869],[127.214662,37.358212],[127.215477,37.353602],[127.217087,37.349127],[127.219461,37.344874],[127.222553,37.340926],[127.226304,37.33736],[127.230638,37.334246],[127.235473,37.331643],[127.240714,37.329603],[127.24626,37.328165],[127.252002,37.327356],[127.257829,37.327194],[127.263627,37.32768],[127.269285,37.328806],[127.274692,37.33055],[127.279742,37.332877],[127.284338,37.335743],[127.28839,37.339091],[127.29182,37.342857],[127.29456,37.346967],[127.296556,37.351342],[127.297771,37.355896],[127.298181,37.36054],[127.297777,37.365185]]]]}},{"type":"Feature","properties":{"ident":"RK R75","name":"RK R75","type":"Restricted Area","airspaceClass":null,"upper":"10 000 AMSL","upperFt":10000,"upperRef":"AMSL","lower":"SFC","lowerFt":0,"lowerRef":"SFC","remarks":null,"res_lbl_1":"R75","res_lbl_2":"10 000 AMSL","res_lbl_3":"SFC","category":"비행제한구역","source":"국토교통부 공역정보 KMZ","cycle":"AIP 2026년 10차"},"geometry":{"type":"MultiPolygon","coordinates":[[[[127.027778,37.7],[126.883056,37.632778],[126.806667,37.663611],[126.803611,37.631111],[126.798333,37.616944],[126.804722,37.591667],[126.806667,37.569167],[126.956111,37.448056],[127.060556,37.448056],[127.113056,37.5425],[127.158333,37.579722],[127.141667,37.615556],[127.133333,37.640833],[127.086944,37.675833],[127.054722,37.693333],[127.027778,37.7]]]]}},{"type":"Feature","properties":{"ident":"RK R77","name":"MACHAJIN","type":"Restricted Area","airspaceClass":null,"upper":"FL 150","upperFt":15000,"upperRef":"FL","lower":"GND","lowerFt":0,"lowerRef":"GND","remarks":null,"res_lbl_1":"R77","res_lbl_2":"FL 150","res_lbl_3":"GND","category":"비행제한구역","source":"국토교통부 공역정보 KMZ","cycle":"AIP 2026년 10차"},"geometry":{"type":"MultiPolygon","coordinates":[[[[128.5175,38.501667],[128.518333,38.503333],[128.519166,38.505],[128.519999,38.506667],[128.520833,38.508333],[128.521666,38.51],[128.522499,38.511667],[128.523332,38.513333],[128.524166,38.515],[128.524999,38.516667],[128.525832,38.518333],[128.526666,38.52],[128.527499,38.521667],[128.528333,38.523333],[128.529166,38.525],[128.529999,38.526667],[128.530833,38.528333],[128.531666,38.53],[128.5325,38.531667],[128.533016,38.532698],[128.533333,38.533333],[128.517575,38.564851],[128.5175,38.565],[128.516667,38.566667],[128.514423,38.566346],[128.512179,38.566026],[128.509935,38.565705],[128.507691,38.565385],[128.505448,38.565064],[128.503204,38.564744],[128.50096,38.564423],[128.498716,38.564103],[128.496472,38.563782],[128.494229,38.563462],[128.491985,38.563141],[128.489741,38.562821],[128.487497,38.5625],[128.485254,38.562179],[128.48301,38.561859],[128.480766,38.561538],[128.478523,38.561218],[128.476279,38.560897],[128.474035,38.560577],[128.471792,38.560256],[128.469548,38.559936],[128.467304,38.559615],[128.465061,38.559295],[128.462817,38.558974],[128.460574,38.558654],[128.45833,38.558333],[128.456086,38.558013],[128.453843,38.557692],[128.451599,38.557372],[128.449356,38.557051],[128.447112,38.556731],[128.444869,38.55641],[128.442625,38.55609],[128.440382,38.555769],[128.438138,38.555449],[128.435895,38.555128],[128.433651,38.554808],[128.431408,38.554487],[128.429164,38.554167],[128.426921,38.553846],[128.424677,38.553526],[128.422434,38.553205],[128.42019,38.552885],[128.417947,38.552564],[128.415704,38.552244],[128.41346,38.551923],[128.411217,38.551603],[128.408973,38.551282],[128.40673,38.550962],[128.404487,38.550641],[128.402243,38.550321],[128.4,38.55],[128.4,38.548246],[128.4,38.546491],[128.4,38.544737],[128.4,38.542982],[128.4,38.541228],[128.4,38.539474],[128.4,38.537719],[128.4,38.535965],[128.4,38.534211],[128.4,38.532456],[128.4,38.530702],[128.4,38.528947],[128.4,38.527193],[128.4,38.525439],[128.4,38.523684],[128.4,38.52193],[128.4,38.520175],[128.4,38.518421],[128.4,38.516667],[128.402244,38.516346],[128.404488,38.516026],[128.406732,38.515705],[128.408975,38.515385],[128.411219,38.515064],[128.413463,38.514744],[128.415707,38.514423],[128.41795,38.514103],[128.420194,38.513782],[128.422438,38.513462],[128.424682,38.513141],[128.426925,38.512821],[128.429169,38.5125],[128.431413,38.512179],[128.433657,38.511859],[128.4359,38.511538],[128.438144,38.511218],[128.440388,38.510897],[128.442631,38.510577],[128.444875,38.510256],[128.447119,38.509936],[128.449362,38.509615],[128.451606,38.509295],[128.453849,38.508974],[128.456093,38.508654],[128.458337,38.508333],[128.46058,38.508013],[128.462824,38.507692],[128.465067,38.507372],[128.467311,38.507051],[128.469555,38.506731],[128.471798,38.50641],[128.474042,38.50609],[128.476285,38.505769],[128.478529,38.505449],[128.480772,38.505128],[128.483016,38.504808],[128.485259,38.504487],[128.487503,38.504167],[128.489746,38.503846],[128.491989,38.503526],[128.494233,38.503205],[128.496476,38.502885],[128.49872,38.502564],[128.500963,38.502244],[128.503206,38.501923],[128.50545,38.501603],[128.507693,38.501282],[128.509937,38.500962],[128.51218,38.500641],[128.514423,38.500321],[128.516666,38.5],[128.516666,38.5],[128.516667,38.5],[128.516667,38.5],[128.5175,38.501667]]]]}},{"type":"Feature","properties":{"ident":"RK R81","name":"NAKDONG","type":"Restricted Area","airspaceClass":null,"upper":"FL 220","upperFt":22000,"upperRef":"FL","lower":"SFC","lowerFt":0,"lowerRef":"SFC","remarks":"Restricted","res_lbl_1":"R81","res_lbl_2":"FL 220","res_lbl_3":"SFC","category":"비행제한구역","source":"국토교통부 공역정보 KMZ","cycle":"AIP 2026년 10차"},"geometry":{"type":"MultiPolygon","coordinates":[[[[128.382963,36.414302],[128.379983,36.425693],[128.375069,36.436637],[128.368316,36.446921],[128.359856,36.456346],[128.349852,36.464727],[128.338499,36.4719],[128.326019,36.477727],[128.312655,36.482092],[128.298667,36.484912],[128.284329,36.48613],[128.269921,36.485723],[128.255723,36.483699],[128.242014,36.480098],[128.22906,36.47499],[128.217115,36.468474],[128.20641,36.460677],[128.197155,36.451753],[128.18953,36.441874],[128.183683,36.431234],[128.179726,36.42004],[128.177737,36.408509],[128.177752,36.396867],[128.179771,36.38534],[128.183754,36.374152],[128.189622,36.363521],[128.19726,36.353653],[128.20652,36.34474],[128.217221,36.336956],[128.229155,36.330452],[128.24209,36.325353],[128.255775,36.321759],[128.269944,36.319739],[128.284322,36.319333],[128.29863,36.320549],[128.31259,36.323363],[128.325932,36.32772],[128.338397,36.333536],[128.349742,36.340697],[128.359747,36.349066],[128.368217,36.358479],[128.374987,36.368753],[128.379924,36.379689],[128.382933,36.391075],[128.383952,36.402688],[128.382963,36.414302]]]]}},{"type":"Feature","properties":{"ident":"RK R89","name":"OCHON","type":"Restricted Area","airspaceClass":null,"upper":"1 000 AMSL","upperFt":1000,"upperRef":"AMSL","lower":"GND","lowerFt":0,"lowerRef":"GND","remarks":null,"res_lbl_1":"R89","res_lbl_2":"1 000 AMSL","res_lbl_3":"GND","category":"비행제한구역","source":"국토교통부 공역정보 KMZ","cycle":"AIP 2026년 10차"},"geometry":{"type":"MultiPolygon","coordinates":[[[[129.397694,35.953028],[129.347694,35.936361],[129.331028,35.869694],[129.431028,35.953028],[129.397694,35.953028]]]]}},{"type":"Feature","properties":{"ident":"RK R90A","name":"SUSONG-A","type":"Restricted Area","airspaceClass":null,"upper":"2 000 AMSL","upperFt":2000,"upperRef":"AMSL","lower":"GND","lowerFt":0,"lowerRef":"GND","remarks":null,"res_lbl_1":"R90A","res_lbl_2":"2 000 AMSL","res_lbl_3":"GND","category":"비행제한구역","source":"국토교통부 공역정보 KMZ","cycle":"AIP 2026년 10차"},"geometry":{"type":"MultiPolygon","coordinates":[[[[129.454889,35.92275],[129.429889,35.926916],[129.442972,35.891916],[129.474083,35.894694],[129.517111,35.886361],[129.521278,35.890528],[129.454889,35.92275]]]]}},{"type":"Feature","properties":{"ident":"RK R90B","name":"SUSONG-B","type":"Restricted Area","airspaceClass":null,"upper":"5 500 AMSL","upperFt":5500,"upperRef":"AMSL","lower":"GND","lowerFt":0,"lowerRef":"GND","remarks":null,"res_lbl_1":"R90B","res_lbl_2":"5 500 AMSL","res_lbl_3":"GND","category":"비행제한구역","source":"국토교통부 공역정보 KMZ","cycle":"AIP 2026년 10차"},"geometry":{"type":"MultiPolygon","coordinates":[[[[129.474083,35.894694],[129.442972,35.891916],[129.462667,35.836916],[129.496,35.843583],[129.517111,35.886361],[129.474083,35.894694]]]]}},{"type":"Feature","properties":{"ident":"RK R97A","name":"CHEOLMAE-A","type":"Restricted Area","airspaceClass":null,"upper":"FL 300","upperFt":30000,"upperRef":"FL","lower":"GND","lowerFt":0,"lowerRef":"GND","remarks":null,"res_lbl_1":"R97A","res_lbl_2":"FL 300","res_lbl_3":"GND","category":"비행제한구역","source":"국토교통부 공역정보 KMZ","cycle":"AIP 2026년 10차"},"geometry":{"type":"MultiPolygon","coordinates":[[[[126.583333,36.3],[126.516666,36.333333],[126.183333,36.216666],[126.4,36.033333],[126.583333,36.3]]]]}},{"type":"Feature","properties":{"ident":"RK R97B","name":"CHEOLMAE-B","type":"Restricted Area","airspaceClass":null,"upper":"UNL","upperFt":null,"upperRef":"UNL","lower":"SFC","lowerFt":0,"lowerRef":"SFC","remarks":null,"res_lbl_1":"R97B","res_lbl_2":"UNL","res_lbl_3":"SFC","category":"비행제한구역","source":"국토교통부 공역정보 KMZ","cycle":"AIP 2026년 10차"},"geometry":{"type":"MultiPolygon","coordinates":[[[[126.166666,36.333333],[125.95,36.333333],[125.95,36.233333],[126.05,36.2],[126.366666,35.883333],[126.633333,36.233333],[126.502111,36.35625],[126.245472,36.36875],[126.166666,36.333333]]]]}},{"type":"Feature","properties":{"ident":"RK R97D","name":"CHEOLMAE-D","type":"Restricted Area","airspaceClass":null,"upper":"UNL","upperFt":null,"upperRef":"UNL","lower":"SFC","lowerFt":0,"lowerRef":"SFC","remarks":null,"res_lbl_1":"R97D","res_lbl_2":"UNL","res_lbl_3":"SFC","category":"비행제한구역","source":"국토교통부 공역정보 KMZ","cycle":"AIP 2026년 10차"},"geometry":{"type":"MultiPolygon","coordinates":[[[[126.381667,36.358333],[125.785278,35.979722],[125.866666,35.7],[126.1,35.583333],[126.633333,36.233333],[126.502222,36.356389],[126.381667,36.358333]]]]}},{"type":"Feature","properties":{"ident":"RK R97E","name":"CHEOLMAE-E","type":"Restricted Area","airspaceClass":null,"upper":"FL 300","upperFt":30000,"upperRef":"FL","lower":"SFC","lowerFt":0,"lowerRef":"SFC","remarks":null,"res_lbl_1":"R97E","res_lbl_2":"FL 300","res_lbl_3":"SFC","category":"비행제한구역","source":"국토교통부 공역정보 KMZ","cycle":"AIP 2026년 10차"},"geometry":{"type":"MultiPolygon","coordinates":[[[[126.550556,36.310833],[126.416667,36.230278],[126.536389,36.106389],[126.633333,36.233333],[126.550556,36.310833]]]]}},{"type":"Feature","properties":{"ident":"RK R97F","name":"CHEOLMAE-F","type":"Restricted Area","airspaceClass":null,"upper":"FL 150","upperFt":15000,"upperRef":"FL","lower":"SFC","lowerFt":0,"lowerRef":"SFC","remarks":null,"res_lbl_1":"R97F","res_lbl_2":"FL 150","res_lbl_3":"SFC","category":"비행제한구역","source":"국토교통부 공역정보 KMZ","cycle":"AIP 2026년 10차"},"geometry":{"type":"MultiPolygon","coordinates":[[[[126.516667,36.333333],[126.416667,36.288333],[126.515833,36.201944],[126.583333,36.3],[126.516667,36.333333]]]]}},{"type":"Feature","properties":{"ident":"RK R97G","name":"CHEOLMAE-G","type":"Restricted Area","airspaceClass":null,"upper":"FL 150","upperFt":15000,"upperRef":"FL","lower":"SFC","lowerFt":0,"lowerRef":"SFC","remarks":null,"res_lbl_1":"R97G","res_lbl_2":"FL 150","res_lbl_3":"SFC","category":"비행제한구역","source":"국토교통부 공역정보 KMZ","cycle":"AIP 2026년 10차"},"geometry":{"type":"MultiPolygon","coordinates":[[[[126.516667,36.333333],[126.367222,36.280556],[126.491111,36.165833],[126.583333,36.3],[126.516667,36.333333]]]]}}]}
