{"type":"FeatureCollection","source":"국토교통부 공역정보 KMZ","cycle":"AIP 2026년 10차","features":[{"type":"Feature","properties":{"ident":"T33","name":"TMA DAEGU","type":"Terminal Control Area","airspaceClass":null,"upper":"FL 225","upperFt":22500,"upperRef":"FL","lower":"10 500 AMSL","lowerFt":10500,"lowerRef":"AMSL","remarks":"T33","tma_lbl_1":"TMA DAEGU","tma_lbl_2":"AREA T33","tma_lbl_3":"FL 225","tma_lbl_4":"10 500 AMSL","category":"접근관제구역","source":"국토교통부 공역정보 KMZ","cycle":"AIP 2026년 10차"},"geometry":{"type":"MultiPolygon","coordinates":[[[[129.831111,35.836389],[129.25,36.0],[129.25,35.75],[129.225,35.65],[129.164444,35.419722],[129.831111,35.419722],[129.831111,35.836389]]]]}},{"type":"Feature","properties":{"ident":"T34","name":"TMA DAEGU","type":"Terminal Control Area","airspaceClass":null,"upper":"FL 225","upperFt":22500,"upperRef":"FL","lower":"7 500 AMSL","lowerFt":7500,"lowerRef":"AMSL","remarks":"T34","tma_lbl_1":"TMA DAEGU","tma_lbl_2":"AREA T34","tma_lbl_3":"FL 225","tma_lbl_4":"7 500 AMSL","category":"접근관제구역","source":"국토교통부 공역정보 KMZ","cycle":"AIP 2026년 10차"},"geometry":{"type":"MultiPolygon","coordinates":[[[[129.25,36.0],[129.083334,36.1],[129.081111,35.903611],[129.166666,35.816666],[129.225,35.65],[129.25,35.75],[129.25,36.0]]]]}},{"type":"Feature","properties":{"ident":"T35","name":"TMA DAEGU","type":"Terminal Control Area","airspaceClass":null,"upper":"FL 225","upperFt":22500,"upperRef":"FL","lower":"1 000 AMSL","lowerFt":1000,"lowerRef":"AMSL","remarks":"T35","tma_lbl_1":"TMA DAEGU","tma_lbl_2":"AREA T35","tma_lbl_3":"FL 225","tma_lbl_4":"1 000 AMSL","category":"접근관제구역","source":"국토교통부 공역정보 KMZ","cycle":"AIP 2026년 10차"},"geometry":{"type":"MultiPolygon","coordinates":[[[[128.397778,36.486389],[128.164444,36.486389],[128.164444,36.386389],[127.831111,36.119722],[127.614445,36.203055],[127.614445,35.753055],[127.831111,35.503055],[128.497778,35.503056],[128.561111,35.479722],[128.773889,35.503333],[129.031111,35.503055],[129.089444,35.419722],[129.164444,35.419722],[129.225,35.65],[129.166666,35.816666],[129.081111,35.903611],[129.083334,36.1],[128.664444,36.336389],[128.397778,36.486389]]]]}},{"type":"Feature","properties":{"ident":"T24","name":"TMA GANGNEUNG","type":"Terminal Control Area","airspaceClass":null,"upper":"FL 225","upperFt":22500,"upperRef":"FL","lower":"1 000 AGL","lowerFt":1000,"lowerRef":"AGL","remarks":"T24","tma_lbl_1":"TMA GANGNEUNG","tma_lbl_2":"AREA T24","tma_lbl_3":"FL 225","tma_lbl_4":"1 000 AGL","category":"접근관제구역","source":"국토교통부 공역정보 KMZ","cycle":"AIP 2026년 10차"},"geometry":{"type":"MultiPolygon","coordinates":[[[[128.597778,38.202778],[128.531111,38.136111],[128.514444,38.069444],[128.681111,37.119444],[129.267778,37.119444],[129.8475,37.119444],[129.8475,38.202778],[129.0,38.202778],[128.597778,38.202778]]]]}},{"type":"Feature","properties":{"ident":"T25","name":"TMA GANGNEUNG","type":"Terminal Control Area","airspaceClass":null,"upper":"FL 145","upperFt":14500,"upperRef":"FL","lower":"1 000 AGL","lowerFt":1000,"lowerRef":"AGL","remarks":"T25","tma_lbl_1":"TMA GANGNEUNG","tma_lbl_2":"AREA T25","tma_lbl_3":"FL 145","tma_lbl_4":"1 000 AGL","category":"접근관제구역","source":"국토교통부 공역정보 KMZ","cycle":"AIP 2026년 10차"},"geometry":{"type":"MultiPolygon","coordinates":[[[[129.0,38.202778],[129.0,38.352778],[128.75,38.3525],[128.55,38.266666],[128.597778,38.202778],[129.0,38.202778]]]]}},{"type":"Feature","properties":{"ident":"T26","name":"TMA GIMHAE","type":"Terminal Control Area","airspaceClass":null,"upper":"FL 225","upperFt":22500,"upperRef":"FL","lower":"1 000 AGL","lowerFt":1000,"lowerRef":"AGL","remarks":"T26","tma_lbl_1":"TMA GIMHAE","tma_lbl_2":"AREA T26","tma_lbl_3":"FL 225","tma_lbl_4":"1 000 AGL","category":"접근관제구역","source":"국토교통부 공역정보 KMZ","cycle":"AIP 2026년 10차"},"geometry":{"type":"MultiPolygon","coordinates":[[[[129.031111,35.503055],[128.773889,35.503333],[128.561111,35.479722],[128.497778,35.503056],[128.497778,34.503055],[128.864444,34.503055],[129.797778,35.236389],[129.831111,35.419722],[129.164444,35.419722],[129.089444,35.419722],[129.031111,35.503055]]]]}},{"type":"Feature","properties":{"ident":"T28","name":"TMA GUNSAN","type":"Terminal Control Area","airspaceClass":null,"upper":"FL 145","upperFt":14500,"upperRef":"FL","lower":"1 000 AGL","lowerFt":1000,"lowerRef":"AGL","remarks":"T28","tma_lbl_1":"TMA GUNSAN","tma_lbl_2":"AREA T28","tma_lbl_3":"FL 145","tma_lbl_4":"1 000 AGL","category":"접근관제구역","source":"국토교통부 공역정보 KMZ","cycle":"AIP 2026년 10차"},"geometry":{"type":"MultiPolygon","coordinates":[[[[127.064444,36.386389],[126.879722,36.386111],[126.531389,36.386389],[126.609722,35.913055],[126.498056,35.503055],[126.831389,35.503055],[127.164444,35.753055],[127.614445,35.753055],[127.614445,36.203055],[127.064444,36.386389]]]]}},{"type":"Feature","properties":{"ident":"T27","name":"TMA GUNSAN","type":"Terminal Control Area","airspaceClass":null,"upper":"FL 225","upperFt":22500,"upperRef":"FL","lower":"1 000 AGL","lowerFt":1000,"lowerRef":"AGL","remarks":"T27","tma_lbl_1":"TMA GUNSAN","tma_lbl_2":"AREA T27","tma_lbl_3":"FL 225","tma_lbl_4":"1 000 AGL","category":"접근관제구역","source":"국토교통부 공역정보 KMZ","cycle":"AIP 2026년 10차"},"geometry":{"type":"MultiPolygon","coordinates":[[[[126.609722,35.913055],[126.531389,36.386389],[125.814722,36.386111],[125.831389,35.503055],[126.498056,35.503055],[126.609722,35.913055]]]]}},{"type":"Feature","properties":{"ident":"T29","name":"TMA GWANGJU","type":"Terminal Control Area","airspaceClass":null,"upper":"FL 225","upperFt":22500,"upperRef":"FL","lower":"1 000 AGL","lowerFt":1000,"lowerRef":"AGL","remarks":"T29","tma_lbl_1":"TMA GWANGJU","tma_lbl_2":"AREA T29","tma_lbl_3":"FL 225","tma_lbl_4":"1 000 AGL","category":"접근관제구역","source":"국토교통부 공역정보 KMZ","cycle":"AIP 2026년 10차"},"geometry":{"type":"MultiPolygon","coordinates":[[[[126.831389,35.503055],[126.498056,35.503055],[125.831389,35.503055],[125.831389,34.253055],[126.998056,34.253055],[127.314722,34.736389],[127.647778,35.219722],[127.831111,35.503055],[127.614445,35.753055],[127.164444,35.753055],[126.831389,35.503055]]]]}},{"type":"Feature","properties":{"ident":"T30","name":"TMA GWANGJU","type":"Terminal Control Area","airspaceClass":null,"upper":"FL 225","upperFt":22500,"upperRef":"FL","lower":"13 500 AMSL","lowerFt":13500,"lowerRef":"AMSL","remarks":"T30","tma_lbl_1":"TMA GWANGJU","tma_lbl_2":"AREA T30","tma_lbl_3":"FL 225","tma_lbl_4":"13 500 AMSL","category":"접근관제구역","source":"국토교통부 공역정보 KMZ","cycle":"AIP 2026년 10차"},"geometry":{"type":"MultiPolygon","coordinates":[[[[127.314722,34.736389],[127.647778,35.219722],[127.314444,35.153055],[127.314722,34.736389]]]]}},{"type":"Feature","properties":{"ident":"T38","name":"TMA HAEMI","type":"Terminal Control Area","airspaceClass":null,"upper":"11 500 AMSL","upperFt":11500,"upperRef":"AMSL","lower":"1 000 AGL","lowerFt":1000,"lowerRef":"AGL","remarks":"T38","tma_lbl_1":"TMA HAEMI","tma_lbl_2":"AREA T38","tma_lbl_3":"11 500 AMSL","tma_lbl_4":"1 000 AGL","category":"접근관제구역","source":"국토교통부 공역정보 KMZ","cycle":"AIP 2026년 10차"},"geometry":{"type":"MultiPolygon","coordinates":[[[[126.481111,36.969444],[126.431389,36.980555],[126.465833,36.861111],[126.584444,36.879444],[126.481111,36.969444]]]]}},{"type":"Feature","properties":{"ident":"T37","name":"TMA HAEMI","type":"Terminal Control Area","airspaceClass":null,"upper":"FL 145","upperFt":14500,"upperRef":"FL","lower":"1 000 AGL","lowerFt":1000,"lowerRef":"AGL","remarks":"T37","tma_lbl_1":"TMA HAEMI","tma_lbl_2":"AREA T37","tma_lbl_3":"FL 145","tma_lbl_4":"1 000 AGL","category":"접근관제구역","source":"국토교통부 공역정보 KMZ","cycle":"AIP 2026년 10차"},"geometry":{"type":"MultiPolygon","coordinates":[[[[126.281111,37.013889],[125.806389,36.947778],[125.814722,36.386111],[126.531389,36.386389],[126.879722,36.386111],[126.921111,36.582778],[126.886389,36.634444],[126.743055,36.740833],[126.584444,36.879444],[126.465833,36.861111],[126.431389,36.980555],[126.281111,37.013889]]]]}},{"type":"Feature","properties":{"ident":"T39","name":"TMA HAEMI","type":"Terminal Control Area","airspaceClass":null,"upper":"4 500 AMSL","upperFt":4500,"upperRef":"AMSL","lower":"1 000 AGL","lowerFt":1000,"lowerRef":"AGL","remarks":"T39","tma_lbl_1":"TMA HAEMI","tma_lbl_2":"AREA T39","tma_lbl_3":"4 500 AMSL","tma_lbl_4":"1 000 AGL","category":"접근관제구역","source":"국토교통부 공역정보 KMZ","cycle":"AIP 2026년 10차"},"geometry":{"type":"MultiPolygon","coordinates":[[[[126.556945,37.043055],[126.281111,37.013889],[126.431389,36.980555],[126.481111,36.969444],[126.584444,36.879444],[126.675556,36.893611],[126.556945,37.043055]]]]}},{"type":"Feature","properties":{"ident":"T14","name":"TMA HAEMI","type":"Terminal Control Area","airspaceClass":null,"upper":"4 500 AMSL","upperFt":4500,"upperRef":"AMSL","lower":"1 000 AGL","lowerFt":1000,"lowerRef":"AGL","remarks":"T14","tma_lbl_1":"TMA HAEMI","tma_lbl_2":"AREA T14","tma_lbl_3":"4 500 AMSL","tma_lbl_4":"1 000 AGL","category":"접근관제구역","source":"국토교통부 공역정보 KMZ","cycle":"AIP 2026년 10차"},"geometry":{"type":"MultiPolygon","coordinates":[[[[126.675556,36.893611],[126.584444,36.879444],[126.743055,36.740833],[126.675556,36.893611]]]]}},{"type":"Feature","properties":{"ident":"T23","name":"TMA JEJU","type":"Terminal Control Area","airspaceClass":null,"upper":"FL 165","upperFt":16500,"upperRef":"FL","lower":"1 000 AGL","lowerFt":1000,"lowerRef":"AGL","remarks":"T23","tma_lbl_1":"TMA JEJU","tma_lbl_2":"AREA T23","tma_lbl_3":"FL 165","tma_lbl_4":"1 000 AGL","category":"접근관제구역","source":"국토교통부 공역정보 KMZ","cycle":"AIP 2026년 10차"},"geometry":{"type":"MultiPolygon","coordinates":[[[[127.331389,33.27],[127.331389,34.253333],[126.998056,34.253055],[125.998056,34.253055],[125.998056,33.003333],[126.998056,33.003333],[127.331389,33.27]]]]}},{"type":"Feature","properties":{"ident":"T43","name":"TMA JEJU","type":"Terminal Control Area","airspaceClass":null,"upper":"FL 165","upperFt":16500,"upperRef":"FL","lower":"6 000 AMSL","lowerFt":6000,"lowerRef":"AMSL","remarks":"T43","tma_lbl_1":"TMA JEJU","tma_lbl_2":"AREA T43","tma_lbl_3":"FL 165","tma_lbl_4":"6 000 AMSL","category":"접근관제구역","source":"국토교통부 공역정보 KMZ","cycle":"AIP 2026년 10차"},"geometry":{"type":"MultiPolygon","coordinates":[[[[125.831389,33.003333],[125.998056,33.003333],[125.998056,34.253056],[125.831389,34.253056],[125.831389,33.003333]]]]}},{"type":"Feature","properties":{"ident":"T18","name":"TMA JUNGWON","type":"Terminal Control Area","airspaceClass":null,"upper":"FL 175","upperFt":17500,"upperRef":"FL","lower":"1 000 AGL","lowerFt":1000,"lowerRef":"AGL","remarks":"T18","tma_lbl_1":"TMA JUNGWON","tma_lbl_2":"AREA T18","tma_lbl_3":"FL 175","tma_lbl_4":"1 000 AGL","category":"접근관제구역","source":"국토교통부 공역정보 KMZ","cycle":"AIP 2026년 10차"},"geometry":{"type":"MultiPolygon","coordinates":[[[[127.847778,37.119444],[127.664444,37.111111],[128.164444,36.836111],[128.681111,36.952778],[128.681111,37.119444],[128.606111,37.552778],[128.331111,37.519444],[128.064444,37.236111],[127.914444,37.169444],[127.847778,37.119444]]]]}},{"type":"Feature","properties":{"ident":"T19","name":"TMA JUNGWON","type":"Terminal Control Area","airspaceClass":null,"upper":"FL 145","upperFt":14500,"upperRef":"FL","lower":"1 000 AGL","lowerFt":1000,"lowerRef":"AGL","remarks":"T19","tma_lbl_1":"TMA JUNGWON","tma_lbl_2":"AREA T19","tma_lbl_3":"FL 145","tma_lbl_4":"1 000 AGL","category":"접근관제구역","source":"국토교통부 공역정보 KMZ","cycle":"AIP 2026년 10차"},"geometry":{"type":"MultiPolygon","coordinates":[[[[127.664444,37.111111],[127.664444,37.109314],[127.664444,37.107516],[127.664444,37.105719],[127.664444,37.103921],[127.664444,37.102124],[127.664444,37.100327],[127.664444,37.098529],[127.664444,37.096732],[127.664444,37.094935],[127.664444,37.093137],[127.664444,37.09134],[127.664444,37.089543],[127.664444,37.087745],[127.664444,37.085948],[127.664444,37.084151],[127.664444,37.082353],[127.664444,37.080556],[127.664444,37.078759],[127.664444,37.076961],[127.664444,37.075164],[127.664444,37.073367],[127.664444,37.071569],[127.664444,37.069772],[127.664444,37.067974],[127.664444,37.066177],[127.664444,37.06438],[127.664444,37.062582],[127.664444,37.060785],[127.664444,37.058988],[127.664444,37.05719],[127.664444,37.055393],[127.664444,37.053596],[127.664444,37.051798],[127.664444,37.050001],[127.664444,37.048203],[127.664444,37.046406],[127.664444,37.044609],[127.664444,37.042811],[127.664444,37.041014],[127.664444,37.039217],[127.664444,37.037419],[127.664444,37.035622],[127.664444,37.033825],[127.664444,37.032027],[127.664444,37.03023],[127.664444,37.028432],[127.664444,37.026635],[127.664444,37.024838],[127.664444,37.02304],[127.664444,37.021243],[127.664444,37.019446],[127.664444,37.017648],[127.664444,37.015851],[127.664444,37.014053],[127.664444,37.012256],[127.664444,37.010459],[127.664444,37.008661],[127.664444,37.006864],[127.664444,37.005067],[127.664444,37.003269],[127.664444,37.001472],[127.664444,36.999674],[127.664444,36.997877],[127.664444,36.99608],[127.664444,36.994282],[127.664444,36.992485],[127.664444,36.990688],[127.664444,36.98889],[127.664444,36.987093],[127.664444,36.985295],[127.664444,36.983498],[127.664444,36.981701],[127.664444,36.979903],[127.664444,36.978106],[127.664444,36.976309],[127.664444,36.974511],[127.664444,36.972714],[127.664444,36.970916],[127.664444,36.969119],[127.664444,36.967322],[127.664444,36.965524],[127.664444,36.963727],[127.664444,36.961929],[127.664444,36.960132],[127.664444,36.958335],[127.664444,36.956537],[127.664444,36.95474],[127.664444,36.952942],[127.664444,36.951145],[127.664444,36.949348],[127.664444,36.94755],[127.664444,36.945753],[127.664444,36.943956],[127.664444,36.942158],[127.664444,36.940361],[127.664444,36.938563],[127.664444,36.936766],[127.664444,36.934969],[127.664444,36.933171],[127.664444,36.931374],[127.664444,36.929576],[127.664444,36.927779],[127.664444,36.925982],[127.664444,36.924184],[127.664444,36.922387],[127.664444,36.920589],[127.664444,36.918792],[127.664444,36.916995],[127.664444,36.915197],[127.664444,36.9134],[127.664444,36.911602],[127.664444,36.909805],[127.664444,36.908008],[127.664444,36.90621],[127.664444,36.904413],[127.664444,36.902615],[127.664444,36.900818],[127.664444,36.89902],[127.664444,36.897223],[127.664444,36.895426],[127.664444,36.893628],[127.664444,36.891831],[127.664444,36.890033],[127.664444,36.888236],[127.664444,36.886439],[127.664444,36.884641],[127.664444,36.882844],[127.664444,36.881046],[127.664444,36.879249],[127.664444,36.877452],[127.664444,36.875654],[127.664444,36.873857],[127.664444,36.872059],[127.664444,36.870262],[127.664444,36.868464],[127.664444,36.866667],[127.664444,36.86487],[127.664444,36.863072],[127.664444,36.861275],[127.664444,36.859477],[127.664444,36.85768],[127.664444,36.855883],[127.664444,36.854085],[127.664444,36.852288],[127.664444,36.85049],[127.664444,36.848693],[127.664444,36.846895],[127.664444,36.845098],[127.664444,36.843301],[127.664444,36.841503],[127.664444,36.839706],[127.664444,36.837908],[127.664444,36.836111],[127.064444,36.386389],[127.614445,36.203055],[127.831111,36.119722],[128.164444,36.386389],[128.164444,36.388174],[128.164444,36.38996],[128.164444,36.391746],[128.164444,36.393532],[128.164444,36.395317],[128.164444,36.397103],[128.164444,36.398889],[128.164444,36.400674],[128.164444,36.40246],[128.164444,36.404246],[128.164444,36.406032],[128.164444,36.407817],[128.164444,36.409603],[128.164444,36.411389],[128.164444,36.413175],[128.164444,36.41496],[128.164444,36.416746],[128.164444,36.418532],[128.164444,36.420317],[128.164444,36.422103],[128.164444,36.423889],[128.164444,36.425675],[128.164444,36.42746],[128.164444,36.429246],[128.164444,36.431032],[128.164444,36.432817],[128.164444,36.434603],[128.164444,36.436389],[128.164444,36.438175],[128.164444,36.43996],[128.164444,36.441746],[128.164444,36.443532],[128.164444,36.445317],[128.164444,36.447103],[128.164444,36.448889],[128.164444,36.450675],[128.164444,36.45246],[128.164444,36.454246],[128.164444,36.456032],[128.164444,36.457817],[128.164444,36.459603],[128.164444,36.461389],[128.164444,36.463175],[128.164444,36.46496],[128.164444,36.466746],[128.164444,36.468532],[128.164444,36.470317],[128.164444,36.472103],[128.164444,36.473889],[128.164444,36.475674],[128.164444,36.47746],[128.164444,36.479246],[128.164444,36.481032],[128.164444,36.482817],[128.164444,36.484603],[128.164444,36.486389],[128.162214,36.486392],[128.159985,36.486394],[128.157754,36.486397],[128.155525,36.4864],[128.153294,36.486403],[128.151064,36.486406],[128.148834,36.486408],[128.146604,36.486411],[128.144374,36.486414],[128.142144,36.486416],[128.139914,36.486419],[128.137684,36.486421],[128.135454,36.486424],[128.133224,36.486426],[128.130994,36.486428],[128.128763,36.486431],[128.126533,36.486433],[128.124303,36.486435],[128.122073,36.486437],[128.119843,36.486439],[128.117613,36.486442],[128.115383,36.486444],[128.113154,36.486446],[128.110923,36.486448],[128.108693,36.48645],[128.106463,36.486451],[128.104233,36.486453],[128.102003,36.486455],[128.099773,36.486457],[128.097543,36.486459],[128.095313,36.48646],[128.093083,36.486462],[128.090853,36.486464],[128.088623,36.486465],[128.086393,36.486467],[128.084163,36.486468],[128.081933,36.48647],[128.079702,36.486471],[128.077472,36.486472],[128.075242,36.486474],[128.073012,36.486475],[128.070783,36.486476],[128.068552,36.486477],[128.066323,36.486478],[128.064092,36.48648],[128.061862,36.486481],[128.059632,36.486482],[128.057402,36.486483],[128.055172,36.486484],[128.052942,36.486484],[128.050712,36.486485],[128.048482,36.486486],[128.046252,36.486487],[128.044022,36.486488],[128.041792,36.486488],[128.039562,36.486489],[128.037332,36.48649],[128.035101,36.48649],[128.032871,36.486491],[128.030641,36.486491],[128.028411,36.486492],[128.026181,36.486492],[128.023952,36.486492],[128.021721,36.486493],[128.019491,36.486493],[128.017261,36.486493],[128.015031,36.486493],[128.012801,36.486493],[128.010571,36.486494],[128.008341,36.486494],[128.006111,36.486494],[128.003881,36.486494],[128.001651,36.486494],[127.999421,36.486493],[127.997191,36.486493],[127.994961,36.486493],[127.992731,36.486493],[127.990501,36.486493],[127.98827,36.486492],[127.98604,36.486492],[127.98381,36.486492],[127.981581,36.486491],[127.97935,36.486491],[127.97712,36.48649],[127.97489,36.48649],[127.972661,36.486489],[127.97043,36.486488],[127.9682,36.486488],[127.96597,36.486487],[127.96374,36.486486],[127.96151,36.486485],[127.95928,36.486484],[127.95705,36.486484],[127.95482,36.486483],[127.95259,36.486482],[127.95036,36.486481],[127.94813,36.48648],[127.9459,36.486478],[127.943669,36.486477],[127.941439,36.486476],[127.939209,36.486475],[127.936979,36.486474],[127.934749,36.486472],[127.932519,36.486471],[127.93029,36.48647],[127.928059,36.486468],[127.92583,36.486467],[127.923599,36.486465],[127.921369,36.486464],[127.919139,36.486462],[127.916909,36.48646],[127.914679,36.486459],[127.912449,36.486457],[127.910219,36.486455],[127.907989,36.486453],[127.905759,36.486451],[127.903529,36.48645],[127.901299,36.486448],[127.899069,36.486446],[127.896839,36.486444],[127.894608,36.486442],[127.892378,36.486439],[127.890148,36.486437],[127.887918,36.486435],[127.885688,36.486433],[127.883459,36.486431],[127.881228,36.486428],[127.878998,36.486426],[127.876768,36.486424],[127.874538,36.486421],[127.872308,36.486419],[127.870078,36.486416],[127.867848,36.486414],[127.865618,36.486411],[127.863388,36.486408],[127.861158,36.486406],[127.858928,36.486403],[127.856698,36.4864],[127.854468,36.486397],[127.852238,36.486394],[127.850008,36.486392],[127.847778,36.486389],[127.964444,36.749444],[128.164444,36.836111],[127.664444,37.111111]]]]}},{"type":"Feature","properties":{"ident":"T22","name":"TMA JUNGWON","type":"Terminal Control Area","airspaceClass":null,"upper":"FL 175","upperFt":17500,"upperRef":"FL","lower":"9 500 AMSL","lowerFt":9500,"lowerRef":"AMSL","remarks":"T22","tma_lbl_1":"TMA JUNGWON","tma_lbl_2":"AREA T22","tma_lbl_3":"FL 175","tma_lbl_4":"9 500 AMSL","category":"접근관제구역","source":"국토교통부 공역정보 KMZ","cycle":"AIP 2026년 10차"},"geometry":{"type":"MultiPolygon","coordinates":[[[[128.681111,36.952778],[128.164444,36.836111],[128.297778,36.761111],[128.464444,36.802778],[128.681111,36.952778]]]]}},{"type":"Feature","properties":{"ident":"T20","name":"TMA JUNGWON","type":"Terminal Control Area","airspaceClass":null,"upper":"FL 145","upperFt":14500,"upperRef":"FL","lower":"5 500 AMSL","lowerFt":5500,"lowerRef":"AMSL","remarks":"T20","tma_lbl_1":"TMA JUNGWON","tma_lbl_2":"AREA T20","tma_lbl_3":"FL 145","tma_lbl_4":"5 500 AMSL","category":"접근관제구역","source":"국토교통부 공역정보 KMZ","cycle":"AIP 2026년 10차"},"geometry":{"type":"MultiPolygon","coordinates":[[[[128.164444,36.836111],[127.964444,36.749444],[127.847778,36.486389],[128.164444,36.486389],[128.164444,36.836111]]]]}},{"type":"Feature","properties":{"ident":"T17","name":"TMA JUNGWON","type":"Terminal Control Area","airspaceClass":null,"upper":"6 500 AMSL","upperFt":6500,"upperRef":"AMSL","lower":"1 000 AGL","lowerFt":1000,"lowerRef":"AGL","remarks":"T17","tma_lbl_1":"TMA JUNGWON","tma_lbl_2":"AREA T17","tma_lbl_3":"6 500 AMSL","tma_lbl_4":"1 000 AGL","category":"접근관제구역","source":"국토교통부 공역정보 KMZ","cycle":"AIP 2026년 10차"},"geometry":{"type":"MultiPolygon","coordinates":[[[[127.664444,37.036111],[127.081111,36.669444],[127.064444,36.386389],[127.664444,36.836111],[127.664444,37.036111]]]]}},{"type":"Feature","properties":{"ident":"T21","name":"TMA JUNGWON","type":"Terminal Control Area","airspaceClass":null,"upper":"3 500 AMSL","upperFt":3500,"upperRef":"AMSL","lower":"1 000 AGL","lowerFt":1000,"lowerRef":"AGL","remarks":"T21","tma_lbl_1":"TMA JUNGWON","tma_lbl_2":"AREA T21","tma_lbl_3":"3 500 AMSL","tma_lbl_4":"1 000 AGL","category":"접근관제구역","source":"국토교통부 공역정보 KMZ","cycle":"AIP 2026년 10차"},"geometry":{"type":"MultiPolygon","coordinates":[[[[127.764444,37.169444],[127.664444,37.111111],[127.847778,37.119444],[127.914444,37.169444],[127.764444,37.169444]]]]}},{"type":"Feature","properties":{"ident":"T03","name":"TMA OSAN","type":"Terminal Control Area","airspaceClass":null,"upper":"4 500 AMSL","upperFt":4500,"upperRef":"AMSL","lower":"1 000 AGL","lowerFt":1000,"lowerRef":"AGL","remarks":"T03","tma_lbl_1":"TMA OSAN","tma_lbl_2":"AREA T03","tma_lbl_3":"4 500 AMSL","tma_lbl_4":"1 000 AGL","category":"접근관제구역","source":"국토교통부 공역정보 KMZ","cycle":"AIP 2026년 10차"},"geometry":{"type":"MultiPolygon","coordinates":[[[[127.397778,37.252778],[127.314444,37.302778],[127.147778,37.302778],[126.964444,37.352778],[126.806111,37.340278],[126.610278,37.148611],[126.726111,37.160833],[127.114445,37.252778],[127.397778,37.252778]]]]}},{"type":"Feature","properties":{"ident":"T17","name":"TMA OSAN","type":"Terminal Control Area","airspaceClass":null,"upper":"FL 145","upperFt":14500,"upperRef":"FL","lower":"6 500 AMSL","lowerFt":6500,"lowerRef":"AMSL","remarks":"T17","tma_lbl_1":"TMA OSAN","tma_lbl_2":"AREA T17","tma_lbl_3":"FL 145","tma_lbl_4":"6 500 AMSL","category":"접근관제구역","source":"국토교통부 공역정보 KMZ","cycle":"AIP 2026년 10차"},"geometry":{"type":"MultiPolygon","coordinates":[[[[127.664444,37.036111],[127.081111,36.669444],[127.064444,36.386389],[127.664444,36.836111],[127.664444,37.036111]]]]}},{"type":"Feature","properties":{"ident":"T13","name":"TMA OSAN","type":"Terminal Control Area","airspaceClass":null,"upper":"9 500 AMSL","upperFt":9500,"upperRef":"AMSL","lower":"4 500 AMSL","lowerFt":4500,"lowerRef":"AMSL","remarks":"T13","tma_lbl_1":"TMA OSAN","tma_lbl_2":"AREA T13","tma_lbl_3":"9 500 AMSL","tma_lbl_4":"4 500 AMSL","category":"접근관제구역","source":"국토교통부 공역정보 KMZ","cycle":"AIP 2026년 10차"},"geometry":{"type":"MultiPolygon","coordinates":[[[[126.595,36.995278],[126.481111,36.969444],[126.584444,36.879444],[126.675556,36.893611],[126.595,36.995278]]]]}},{"type":"Feature","properties":{"ident":"T16","name":"TMA OSAN","type":"Terminal Control Area","airspaceClass":null,"upper":"FL 145","upperFt":14500,"upperRef":"FL","lower":"1 000 AGL","lowerFt":1000,"lowerRef":"AGL","remarks":"T16","tma_lbl_1":"TMA OSAN","tma_lbl_2":"AREA T16","tma_lbl_3":"FL 145","tma_lbl_4":"1 000 AGL","category":"접근관제구역","source":"국토교통부 공역정보 KMZ","cycle":"AIP 2026년 10차"},"geometry":{"type":"MultiPolygon","coordinates":[[[[126.770278,36.720833],[126.886389,36.634444],[126.921111,36.582778],[126.879722,36.386111],[127.064444,36.386389],[127.081111,36.669444],[127.664444,37.036111],[127.580218,36.986725],[127.471619,36.93002],[127.360083,36.879334],[127.245944,36.834819],[127.129544,36.796606],[127.01123,36.764811],[127.005802,36.763666],[126.891355,36.739528],[126.770278,36.720833],[126.770278,36.720833]]]]}},{"type":"Feature","properties":{"ident":"T11","name":"TMA OSAN","type":"Terminal Control Area","airspaceClass":null,"upper":"6 500 AMSL","upperFt":6500,"upperRef":"AMSL","lower":"1 000 AGL","lowerFt":1000,"lowerRef":"AGL","remarks":"T11","tma_lbl_1":"TMA OSAN","tma_lbl_2":"AREA T11","tma_lbl_3":"6 500 AMSL","tma_lbl_4":"1 000 AGL","category":"접근관제구역","source":"국토교통부 공역정보 KMZ","cycle":"AIP 2026년 10차"},"geometry":{"type":"MultiPolygon","coordinates":[[[[126.366111,37.093889],[125.8025,37.088055],[125.806389,36.947778],[126.281111,37.013889],[126.556945,37.043055],[126.595,36.995278],[127.029722,37.091944],[126.993611,37.225833],[126.726111,37.160833],[126.528611,37.141944],[126.366111,37.093889]]]]}},{"type":"Feature","properties":{"ident":"T12","name":"TMA OSAN","type":"Terminal Control Area","airspaceClass":null,"upper":"6 500 AMSL","upperFt":6500,"upperRef":"AMSL","lower":"4 500 AMSL","lowerFt":4500,"lowerRef":"AMSL","remarks":"T12","tma_lbl_1":"TMA OSAN","tma_lbl_2":"AREA T12","tma_lbl_3":"6 500 AMSL","tma_lbl_4":"4 500 AMSL","category":"접근관제구역","source":"국토교통부 공역정보 KMZ","cycle":"AIP 2026년 10차"},"geometry":{"type":"MultiPolygon","coordinates":[[[[126.556945,37.043055],[126.281111,37.013889],[126.481111,36.969444],[126.595,36.995278],[126.556945,37.043055]]]]}},{"type":"Feature","properties":{"ident":"T14","name":"TMA OSAN","type":"Terminal Control Area","airspaceClass":null,"upper":"11 500 AMSL","upperFt":11500,"upperRef":"AMSL","lower":"4 500 AMSL","lowerFt":4500,"lowerRef":"AMSL","remarks":"T14","tma_lbl_1":"TMA OSAN","tma_lbl_2":"AREA T14","tma_lbl_3":"11 500 AMSL","tma_lbl_4":"4 500 AMSL","category":"접근관제구역","source":"국토교통부 공역정보 KMZ","cycle":"AIP 2026년 10차"},"geometry":{"type":"MultiPolygon","coordinates":[[[[126.675556,36.893611],[126.584444,36.879444],[126.743055,36.740833],[126.675556,36.893611]]]]}},{"type":"Feature","properties":{"ident":"T06","name":"TMA OSAN","type":"Terminal Control Area","airspaceClass":null,"upper":"9 500 AMSL","upperFt":9500,"upperRef":"AMSL","lower":"1 000 AGL","lowerFt":1000,"lowerRef":"AGL","remarks":"T06","tma_lbl_1":"TMA OSAN","tma_lbl_2":"AREA T06","tma_lbl_3":"9 500 AMSL","tma_lbl_4":"1 000 AGL","category":"접근관제구역","source":"국토교통부 공역정보 KMZ","cycle":"AIP 2026년 10차"},"geometry":{"type":"MultiPolygon","coordinates":[[[[127.664444,37.1775],[127.029722,37.091944],[126.481111,36.969444],[126.584444,36.879444],[127.664444,37.041666],[127.664444,37.1775]]]]}},{"type":"Feature","properties":{"ident":"T05","name":"TMA OSAN","type":"Terminal Control Area","airspaceClass":null,"upper":"7 500 AMSL","upperFt":7500,"upperRef":"AMSL","lower":"1 000 AGL","lowerFt":1000,"lowerRef":"AGL","remarks":"T05","tma_lbl_1":"TMA OSAN","tma_lbl_2":"AREA T05","tma_lbl_3":"7 500 AMSL","tma_lbl_4":"1 000 AGL","category":"접근관제구역","source":"국토교통부 공역정보 KMZ","cycle":"AIP 2026년 10차"},"geometry":{"type":"MultiPolygon","coordinates":[[[[127.397778,37.252778],[127.114445,37.252778],[126.993611,37.225833],[127.029722,37.091944],[127.664444,37.1775],[127.664444,37.271944],[127.397778,37.252778]]]]}},{"type":"Feature","properties":{"ident":"T15","name":"TMA OSAN","type":"Terminal Control Area","airspaceClass":null,"upper":"11 500 AMSL","upperFt":11500,"upperRef":"AMSL","lower":"1 000 AGL","lowerFt":1000,"lowerRef":"AGL","remarks":"T15","tma_lbl_1":"TMA OSAN","tma_lbl_2":"AREA T15","tma_lbl_3":"11 500 AMSL","tma_lbl_4":"1 000 AGL","category":"접근관제구역","source":"국토교통부 공역정보 KMZ","cycle":"AIP 2026년 10차"},"geometry":{"type":"MultiPolygon","coordinates":[[[[126.743055,36.740833],[126.770277,36.720833],[126.770278,36.720833],[126.891355,36.739528],[127.01123,36.764811],[127.129544,36.796606],[127.245944,36.834819],[127.360083,36.879334],[127.471619,36.93002],[127.580218,36.986725],[127.664444,37.036111],[127.664444,37.041666],[126.675556,36.893611],[126.743055,36.740833]]]]}},{"type":"Feature","properties":{"ident":"T42","name":"TMA POHANG","type":"Terminal Control Area","airspaceClass":null,"upper":"9 500 AMSL","upperFt":9500,"upperRef":"AMSL","lower":null,"lowerFt":null,"lowerRef":null,"remarks":"T42","tma_lbl_1":"TMA POHANG","tma_lbl_2":"AREA T42","tma_lbl_3":"9 500 AMSL","tma_lbl_4":null,"category":"접근관제구역","source":"국토교통부 공역정보 KMZ","cycle":"AIP 2026년 10차"},"geometry":{"type":"MultiPolygon","coordinates":[[[[129.435278,36.336389],[129.847778,36.336389],[129.8475,37.119444],[129.267778,37.119444],[129.267778,36.941944],[129.435278,36.591666],[129.435278,36.336389]]]]}},{"type":"Feature","properties":{"ident":"T33","name":"TMA POHANG","type":"Terminal Control Area","airspaceClass":null,"upper":"10 500 AMSL","upperFt":10500,"upperRef":"AMSL","lower":"1 000 AGL","lowerFt":1000,"lowerRef":"AGL","remarks":"T33","tma_lbl_1":"TMA POHANG","tma_lbl_2":"AREA T33","tma_lbl_3":"10 500 AMSL","tma_lbl_4":"1 000 AGL","category":"접근관제구역","source":"국토교통부 공역정보 KMZ","cycle":"AIP 2026년 10차"},"geometry":{"type":"MultiPolygon","coordinates":[[[[129.831111,35.836389],[129.25,36.0],[129.25,35.75],[129.225,35.65],[129.164444,35.419722],[129.831111,35.419722],[129.831111,35.836389]]]]}},{"type":"Feature","properties":{"ident":"T34","name":"TMA POHANG","type":"Terminal Control Area","airspaceClass":null,"upper":"7 500 AMSL","upperFt":7500,"upperRef":"AMSL","lower":"1 000 AGL","lowerFt":1000,"lowerRef":"AGL","remarks":"T34","tma_lbl_1":"TMA POHANG","tma_lbl_2":"AREA T34","tma_lbl_3":"7 500 AMSL","tma_lbl_4":"1 000 AGL","category":"접근관제구역","source":"국토교통부 공역정보 KMZ","cycle":"AIP 2026년 10차"},"geometry":{"type":"MultiPolygon","coordinates":[[[[129.25,36.0],[129.083334,36.1],[129.081111,35.903611],[129.166666,35.816666],[129.225,35.65],[129.25,35.75],[129.25,36.0]]]]}},{"type":"Feature","properties":{"ident":"T32","name":"TMA POHANG","type":"Terminal Control Area","airspaceClass":null,"upper":"10 500 AMSL","upperFt":10500,"upperRef":"AMSL","lower":"1 000 AGL","lowerFt":1000,"lowerRef":"AGL","remarks":"T32","tma_lbl_1":"TMA POHANG","tma_lbl_2":"AREA T32","tma_lbl_3":"10 500 AMSL","tma_lbl_4":"1 000 AGL","category":"접근관제구역","source":"국토교통부 공역정보 KMZ","cycle":"AIP 2026년 10차"},"geometry":{"type":"MultiPolygon","coordinates":[[[[129.847778,36.336389],[129.435278,36.336389],[128.664444,36.336389],[129.083334,36.1],[129.25,36.0],[129.831111,35.836389],[129.847778,36.336389]]]]}},{"type":"Feature","properties":{"ident":"T30","name":"TMA SACHEON","type":"Terminal Control Area","airspaceClass":null,"upper":"13 500 AMSL","upperFt":13500,"upperRef":"AMSL","lower":"1 000 AGL","lowerFt":1000,"lowerRef":"AGL","remarks":"T30","tma_lbl_1":"TMA SACHEON","tma_lbl_2":"AREA T30","tma_lbl_3":"13 500 AMSL","tma_lbl_4":"1 000 AGL","category":"접근관제구역","source":"국토교통부 공역정보 KMZ","cycle":"AIP 2026년 10차"},"geometry":{"type":"MultiPolygon","coordinates":[[[[127.647778,35.219722],[127.314444,35.153055],[127.314722,34.736389],[127.647778,35.219722]]]]}},{"type":"Feature","properties":{"ident":"T31","name":"TMA SACHEON","type":"Terminal Control Area","airspaceClass":null,"upper":"FL 195","upperFt":19500,"upperRef":"FL","lower":"1 000 AGL","lowerFt":1000,"lowerRef":"AGL","remarks":"T31","tma_lbl_1":"TMA SACHEON","tma_lbl_2":"AREA T31","tma_lbl_3":"FL 195","tma_lbl_4":"1 000 AGL","category":"접근관제구역","source":"국토교통부 공역정보 KMZ","cycle":"AIP 2026년 10차"},"geometry":{"type":"MultiPolygon","coordinates":[[[[128.497778,35.503055],[127.831111,35.503055],[127.647778,35.219722],[127.314722,34.736389],[126.998056,34.253055],[128.497778,34.253333],[128.497778,35.503055]]]]}},{"type":"Feature","properties":{"ident":"T02","name":"TMA SEOUL","type":"Terminal Control Area","airspaceClass":null,"upper":"FL 185","upperFt":18500,"upperRef":"FL","lower":"FL 175","lowerFt":17500,"lowerRef":"FL","remarks":"T02","tma_lbl_1":"TMA SEOUL","tma_lbl_2":"AREA T02","tma_lbl_3":"FL 185","tma_lbl_4":"FL 175","category":"접근관제구역","source":"국토교통부 공역정보 KMZ","cycle":"AIP 2026년 10차"},"geometry":{"type":"MultiPolygon","coordinates":[[[[127.914444,38.002778],[127.664444,37.969444],[127.664444,37.111111],[127.764444,37.169444],[127.914444,37.169444],[127.914444,38.002778]]]]}},{"type":"Feature","properties":{"ident":"T09","name":"TMA SEOUL","type":"Terminal Control Area","airspaceClass":null,"upper":"FL 185","upperFt":18500,"upperRef":"FL","lower":"FL 145","lowerFt":14500,"lowerRef":"FL","remarks":"T09","tma_lbl_1":"TMA SEOUL","tma_lbl_2":"AREA T09","tma_lbl_3":"FL 185","tma_lbl_4":"FL 145","category":"접근관제구역","source":"국토교통부 공역정보 KMZ","cycle":"AIP 2026년 10차"},"geometry":{"type":"MultiPolygon","coordinates":[[[[126.465335,36.862842],[126.431389,36.980555],[126.281111,37.013889],[126.043611,36.980833],[126.076858,36.95414],[126.116622,36.925134],[126.156405,36.898907],[126.19773,36.874279],[126.238608,36.852274],[126.282657,36.830943],[126.327942,36.811374],[126.374355,36.793614],[126.419703,36.778358],[126.467999,36.764255],[126.517087,36.752073],[126.566851,36.741842],[126.617173,36.733585],[126.667931,36.727322],[126.721233,36.722929],[126.770278,36.720833],[126.584444,36.879444],[126.465833,36.861111],[126.465335,36.862842]]]]}},{"type":"Feature","properties":{"ident":"T04","name":"TMA SEOUL","type":"Terminal Control Area","airspaceClass":null,"upper":"FL 185","upperFt":18500,"upperRef":"FL","lower":"6 500 AMSL","lowerFt":6500,"lowerRef":"AMSL","remarks":"T04","tma_lbl_1":"TMA SEOUL","tma_lbl_2":"AREA T04","tma_lbl_3":"FL 185","tma_lbl_4":"6 500 AMSL","category":"접근관제구역","source":"국토교통부 공역정보 KMZ","cycle":"AIP 2026년 10차"},"geometry":{"type":"MultiPolygon","coordinates":[[[[126.366111,37.093889],[125.8025,37.088055],[125.806389,36.947778],[126.281111,37.013889],[126.481111,36.969444],[127.029722,37.091944],[126.993611,37.225833],[126.726111,37.160833],[126.528611,37.141944],[126.366111,37.093889]]]]}},{"type":"Feature","properties":{"ident":"T05","name":"TMA SEOUL","type":"Terminal Control Area","airspaceClass":null,"upper":"FL 185","upperFt":18500,"upperRef":"FL","lower":"7 500 AMSL","lowerFt":7500,"lowerRef":"AMSL","remarks":"T05","tma_lbl_1":"TMA SEOUL","tma_lbl_2":"AREA T05","tma_lbl_3":"FL 185","tma_lbl_4":"7 500 AMSL","category":"접근관제구역","source":"국토교통부 공역정보 KMZ","cycle":"AIP 2026년 10차"},"geometry":{"type":"MultiPolygon","coordinates":[[[[127.114445,37.252778],[126.993611,37.225833],[127.029722,37.091944],[127.664444,37.1775],[127.664444,37.271944],[127.397778,37.252778],[127.114445,37.252778]]]]}},{"type":"Feature","properties":{"ident":"T03","name":"TMA SEOUL","type":"Terminal Control Area","airspaceClass":null,"upper":"FL 185","upperFt":18500,"upperRef":"FL","lower":"4 500 AMSL","lowerFt":4500,"lowerRef":"AMSL","remarks":"T03","tma_lbl_1":"TMA SEOUL","tma_lbl_2":"AREA T03","tma_lbl_3":"FL 185","tma_lbl_4":"4 500 AMSL","category":"접근관제구역","source":"국토교통부 공역정보 KMZ","cycle":"AIP 2026년 10차"},"geometry":{"type":"MultiPolygon","coordinates":[[[[127.397778,37.252778],[127.314444,37.302778],[127.147778,37.302778],[126.964444,37.352778],[126.806111,37.340278],[126.610278,37.148611],[126.726111,37.160833],[127.114445,37.252778],[127.397778,37.252778]]]]}},{"type":"Feature","properties":{"ident":"T01","name":"TMA SEOUL","type":"Terminal Control Area","airspaceClass":null,"upper":"FL 185","upperFt":18500,"upperRef":"FL","lower":"1 000 AGL","lowerFt":1000,"lowerRef":"AGL","remarks":"T01","tma_lbl_1":"TMA SEOUL","tma_lbl_2":"AREA T01","tma_lbl_3":"FL 185","tma_lbl_4":"1 000 AGL","category":"접근관제구역","source":"국토교통부 공역정보 KMZ","cycle":"AIP 2026년 10차"},"geometry":{"type":"MultiPolygon","coordinates":[[[[126.164722,37.652778],[125.548055,37.352778],[125.798055,37.269444],[125.8025,37.088055],[126.366111,37.093889],[126.528611,37.141944],[126.610278,37.148611],[126.806111,37.340278],[126.964444,37.352778],[127.147778,37.302778],[127.314444,37.302778],[127.397778,37.252778],[127.664444,37.271944],[127.664444,37.969444],[126.881111,37.636111],[126.681111,37.719444],[126.164722,37.652778]]]]}},{"type":"Feature","properties":{"ident":"T06","name":"TMA SEOUL","type":"Terminal Control Area","airspaceClass":null,"upper":"FL 185","upperFt":18500,"upperRef":"FL","lower":"9 500 AMSL","lowerFt":9500,"lowerRef":"AMSL","remarks":"T06","tma_lbl_1":"TMA SEOUL","tma_lbl_2":"AREA T06","tma_lbl_3":"FL 185","tma_lbl_4":"9 500 AMSL","category":"접근관제구역","source":"국토교통부 공역정보 KMZ","cycle":"AIP 2026년 10차"},"geometry":{"type":"MultiPolygon","coordinates":[[[[127.664444,37.1775],[127.029722,37.091944],[126.481111,36.969444],[126.584444,36.879444],[127.664444,37.041666],[127.664444,37.1775]]]]}},{"type":"Feature","properties":{"ident":"T08","name":"TMA SEOUL","type":"Terminal Control Area","airspaceClass":null,"upper":"FL 185","upperFt":18500,"upperRef":"FL","lower":"11 500 AMSL","lowerFt":11500,"lowerRef":"AMSL","remarks":"T08","tma_lbl_1":"TMA SEOUL","tma_lbl_2":"AREA T08","tma_lbl_3":"FL 185","tma_lbl_4":"11 500 AMSL","category":"접근관제구역","source":"국토교통부 공역정보 KMZ","cycle":"AIP 2026년 10차"},"geometry":{"type":"MultiPolygon","coordinates":[[[[126.481111,36.969444],[126.431389,36.980555],[126.465833,36.861111],[126.584444,36.879444],[126.481111,36.969444]]]]}},{"type":"Feature","properties":{"ident":"T07","name":"TMA SEOUL","type":"Terminal Control Area","airspaceClass":null,"upper":"FL 185","upperFt":18500,"upperRef":"FL","lower":"11 500 AMSL","lowerFt":11500,"lowerRef":"AMSL","remarks":"T07","tma_lbl_1":"TMA SEOUL","tma_lbl_2":"AREA T07","tma_lbl_3":"FL 185","tma_lbl_4":"11 500 AMSL","category":"접근관제구역","source":"국토교통부 공역정보 KMZ","cycle":"AIP 2026년 10차"},"geometry":{"type":"MultiPolygon","coordinates":[[[[126.743055,36.740833],[126.770277,36.720833],[126.770278,36.720833],[126.891355,36.739528],[127.01123,36.764811],[127.129544,36.796606],[127.245944,36.834819],[127.360083,36.879334],[127.471619,36.93002],[127.580218,36.986725],[127.664444,37.036111],[127.664444,37.041666],[126.584444,36.879444],[126.743055,36.740833]]]]}},{"type":"Feature","properties":{"ident":"S01","name":"TMA SEOUL","type":"Terminal Control Area","airspaceClass":null,"upper":"6 000 AMSL","upperFt":6000,"upperRef":"AMSL","lower":"1 600 AMSL","lowerFt":1600,"lowerRef":"AMSL","remarks":"S01","tma_lbl_1":"TMA SEOUL","tma_lbl_2":"AREA S01","tma_lbl_3":"6 000 AMSL","tma_lbl_4":"1 600 AMSL","category":"접근관제구역","source":"국토교통부 공역정보 KMZ","cycle":"AIP 2026년 10차"},"geometry":{"type":"MultiPolygon","coordinates":[[[[126.245566,37.660289],[126.247799,37.660578],[126.250032,37.660868],[126.252265,37.661157],[126.254498,37.661446],[126.256732,37.661735],[126.258965,37.662024],[126.261198,37.662314],[126.263431,37.662603],[126.265664,37.662892],[126.267897,37.663181],[126.27013,37.66347],[126.272363,37.66376],[126.274596,37.664049],[126.276829,37.664338],[126.279063,37.664627],[126.281296,37.664916],[126.283529,37.665205],[126.285762,37.665495],[126.287995,37.665784],[126.290228,37.666073],[126.292462,37.666362],[126.294695,37.666651],[126.296928,37.666941],[126.299161,37.66723],[126.301394,37.667519],[126.303628,37.667808],[126.305861,37.668097],[126.308094,37.668387],[126.310327,37.668676],[126.312561,37.668965],[126.314794,37.669254],[126.317027,37.669543],[126.319261,37.669833],[126.321494,37.670122],[126.323727,37.670411],[126.32596,37.6707],[126.328194,37.670989],[126.330427,37.671279],[126.33266,37.671568],[126.334894,37.671857],[126.337127,37.672146],[126.339361,37.672435],[126.341594,37.672725],[126.343827,37.673014],[126.346061,37.673303],[126.348294,37.673592],[126.350528,37.673881],[126.352761,37.674171],[126.354994,37.67446],[126.357228,37.674749],[126.359461,37.675038],[126.361695,37.675327],[126.363928,37.675616],[126.366162,37.675906],[126.368395,37.676195],[126.370629,37.676484],[126.372862,37.676773],[126.375096,37.677062],[126.377329,37.677352],[126.379563,37.677641],[126.381796,37.67793],[126.38403,37.678219],[126.386263,37.678508],[126.388497,37.678798],[126.390731,37.679087],[126.392964,37.679376],[126.395198,37.679665],[126.397431,37.679954],[126.399665,37.680244],[126.401899,37.680533],[126.404132,37.680822],[126.406366,37.681111],[126.408599,37.6814],[126.410833,37.68169],[126.413067,37.681979],[126.4153,37.682268],[126.417534,37.682557],[126.419768,37.682846],[126.422001,37.683136],[126.424235,37.683425],[126.426469,37.683714],[126.428703,37.684003],[126.430936,37.684292],[126.43317,37.684581],[126.435404,37.684871],[126.437638,37.68516],[126.439871,37.685449],[126.442105,37.685738],[126.444339,37.686027],[126.446573,37.686317],[126.448806,37.686606],[126.45104,37.686895],[126.453274,37.687184],[126.455508,37.687473],[126.457742,37.687763],[126.459976,37.688052],[126.462209,37.688341],[126.464443,37.68863],[126.466677,37.688919],[126.468911,37.689209],[126.471145,37.689498],[126.473379,37.689787],[126.475613,37.690076],[126.477847,37.690365],[126.480081,37.690655],[126.482314,37.690944],[126.484548,37.691233],[126.486782,37.691522],[126.489016,37.691811],[126.49125,37.6921],[126.493484,37.69239],[126.495718,37.692679],[126.497952,37.692968],[126.500186,37.693257],[126.50242,37.693546],[126.504654,37.693836],[126.506888,37.694125],[126.509122,37.694414],[126.511356,37.694703],[126.51359,37.694992],[126.515824,37.695282],[126.518059,37.695571],[126.520293,37.69586],[126.522527,37.696149],[126.524761,37.696438],[126.526995,37.696728],[126.529229,37.697017],[126.531463,37.697306],[126.533697,37.697595],[126.535931,37.697884],[126.538166,37.698174],[126.5404,37.698463],[126.542634,37.698752],[126.544868,37.699041],[126.547102,37.69933],[126.549336,37.699619],[126.551571,37.699909],[126.553805,37.700198],[126.556039,37.700487],[126.558273,37.700776],[126.560507,37.701065],[126.562742,37.701355],[126.564976,37.701644],[126.56721,37.701933],[126.569444,37.702222],[126.567365,37.702883],[126.565286,37.703544],[126.563207,37.704204],[126.561127,37.704865],[126.559048,37.705526],[126.556969,37.706186],[126.554889,37.706847],[126.55281,37.707508],[126.550731,37.708168],[126.548651,37.708829],[126.546572,37.709489],[126.544492,37.71015],[126.542413,37.710811],[126.540333,37.711471],[126.538254,37.712132],[126.536174,37.712793],[126.534095,37.713453],[126.532015,37.714114],[126.529936,37.714775],[126.527856,37.715435],[126.525776,37.716096],[126.523697,37.716757],[126.521617,37.717417],[126.519537,37.718078],[126.517458,37.718739],[126.515378,37.719399],[126.513298,37.72006],[126.511219,37.720721],[126.509139,37.721381],[126.507059,37.722042],[126.504979,37.722703],[126.502899,37.723363],[126.50082,37.724024],[126.49874,37.724685],[126.49666,37.725345],[126.49458,37.726006],[126.4925,37.726667],[126.490252,37.726372],[126.488003,37.726077],[126.485755,37.725782],[126.483506,37.725487],[126.481258,37.725192],[126.47901,37.724897],[126.476761,37.724602],[126.474513,37.724307],[126.472265,37.724012],[126.470016,37.723717],[126.467768,37.723422],[126.46552,37.723127],[126.463271,37.722832],[126.461023,37.722537],[126.458775,37.722242],[126.456526,37.721947],[126.454278,37.721652],[126.45203,37.721357],[126.449781,37.721062],[126.447533,37.720767],[126.445285,37.720473],[126.443037,37.720178],[126.440789,37.719883],[126.43854,37.719588],[126.436292,37.719293],[126.434044,37.718998],[126.431796,37.718703],[126.429548,37.718408],[126.427299,37.718113],[126.425051,37.717818],[126.422803,37.717523],[126.420555,37.717228],[126.418307,37.716933],[126.416059,37.716638],[126.41381,37.716343],[126.411562,37.716048],[126.409314,37.715753],[126.407066,37.715458],[126.404818,37.715163],[126.40257,37.714868],[126.400322,37.714573],[126.398074,37.714278],[126.395826,37.713983],[126.393578,37.713688],[126.39133,37.713393],[126.389082,37.713099],[126.386834,37.712804],[126.384586,37.712509],[126.382338,37.712214],[126.38009,37.711919],[126.377842,37.711624],[126.375594,37.711329],[126.373346,37.711034],[126.371098,37.710739],[126.36885,37.710444],[126.366602,37.710149],[126.364354,37.709854],[126.362106,37.709559],[126.359858,37.709264],[126.35761,37.708969],[126.355362,37.708674],[126.353115,37.708379],[126.350867,37.708084],[126.348619,37.707789],[126.346371,37.707494],[126.344123,37.707199],[126.341875,37.706904],[126.339628,37.706609],[126.33738,37.706314],[126.335132,37.706019],[126.332884,37.705725],[126.330636,37.70543],[126.328389,37.705135],[126.326141,37.70484],[126.323893,37.704545],[126.321645,37.70425],[126.319397,37.703955],[126.31715,37.70366],[126.314902,37.703365],[126.312654,37.70307],[126.310407,37.702775],[126.308159,37.70248],[126.305911,37.702185],[126.303664,37.70189],[126.301416,37.701595],[126.299168,37.7013],[126.296921,37.701005],[126.294673,37.70071],[126.292425,37.700415],[126.290178,37.70012],[126.28793,37.699825],[126.285682,37.69953],[126.283435,37.699235],[126.281187,37.69894],[126.27894,37.698645],[126.276692,37.698351],[126.274444,37.698056],[126.27287,37.696744],[126.271296,37.695432],[126.269722,37.69412],[126.268147,37.692809],[126.266573,37.691497],[126.264999,37.690185],[126.263425,37.688873],[126.261851,37.687562],[126.260277,37.68625],[126.258703,37.684938],[126.257129,37.683627],[126.255555,37.682315],[126.253981,37.681003],[126.252407,37.679691],[126.250833,37.67838],[126.249259,37.677068],[126.247685,37.675756],[126.246111,37.674444],[126.245764,37.672639],[126.245417,37.670833],[126.245069,37.669028],[126.244722,37.667222],[126.244375,37.665417],[126.244028,37.663611],[126.243681,37.661806],[126.243333,37.66],[126.245566,37.660289]]]]}},{"type":"Feature","properties":{"ident":"T40","name":"TMA WONJU","type":"Terminal Control Area","airspaceClass":null,"upper":"FL 175","upperFt":17500,"upperRef":"FL","lower":"3 600 AGL","lowerFt":3600,"lowerRef":"AGL","remarks":"T40","tma_lbl_1":"TMA WONJU","tma_lbl_2":"AREA T40","tma_lbl_3":"FL 175","tma_lbl_4":"3 600 AGL","category":"접근관제구역","source":"국토교통부 공역정보 KMZ","cycle":"AIP 2026년 10차"},"geometry":{"type":"MultiPolygon","coordinates":[[[[127.764444,37.169444],[127.664444,37.111111],[127.847778,37.119444],[127.914444,37.169444],[127.764444,37.169444]]]]}},{"type":"Feature","properties":{"ident":"T41","name":"TMA WONJU","type":"Terminal Control Area","airspaceClass":null,"upper":"FL 175","upperFt":17500,"upperRef":"FL","lower":"1 000 AGL","lowerFt":1000,"lowerRef":"AGL","remarks":"T41","tma_lbl_1":"TMA WONJU","tma_lbl_2":"AREA T41","tma_lbl_3":"FL 175","tma_lbl_4":"1 000 AGL","category":"접근관제구역","source":"국토교통부 공역정보 KMZ","cycle":"AIP 2026년 10차"},"geometry":{"type":"MultiPolygon","coordinates":[[[[128.513962,38.069387],[127.913962,38.002717],[127.913971,37.169382],[128.06397,37.236049],[128.330634,37.519385],[128.605634,37.552721],[128.513962,38.069387]]]]}},{"type":"Feature","properties":{"ident":"T02","name":"TMA WONJU","type":"Terminal Control Area","airspaceClass":null,"upper":"FL 175","upperFt":17500,"upperRef":"FL","lower":"1 000 AGL","lowerFt":1000,"lowerRef":"AGL","remarks":"T02","tma_lbl_1":"TMA WONJU","tma_lbl_2":"AREA T02","tma_lbl_3":"FL 175","tma_lbl_4":"1 000 AGL","category":"접근관제구역","source":"국토교통부 공역정보 KMZ","cycle":"AIP 2026년 10차"},"geometry":{"type":"MultiPolygon","coordinates":[[[[127.914444,38.002778],[127.664444,37.969444],[127.664444,37.111111],[127.764444,37.169444],[127.914444,37.169444],[127.914444,38.002778]]]]}},{"type":"Feature","properties":{"ident":"T42","name":"TMA YECHEON","type":"Terminal Control Area","airspaceClass":null,"upper":"FL 225","upperFt":22500,"upperRef":"FL","lower":"9 500 AMSL","lowerFt":9500,"lowerRef":"AMSL","remarks":"T42","tma_lbl_1":"TMA YECHEON","tma_lbl_2":"AREA T42","tma_lbl_3":"FL 225","tma_lbl_4":"9 500 AMSL","category":"접근관제구역","source":"국토교통부 공역정보 KMZ","cycle":"AIP 2026년 10차"},"geometry":{"type":"MultiPolygon","coordinates":[[[[129.435278,36.336389],[129.847778,36.336389],[129.8475,37.119444],[129.267778,37.119444],[129.267778,36.941944],[129.435278,36.591666],[129.435278,36.336389]]]]}},{"type":"Feature","properties":{"ident":"T36","name":"TMA YECHEON","type":"Terminal Control Area","airspaceClass":null,"upper":"FL 225","upperFt":22500,"upperRef":"FL","lower":"1 000 AGL","lowerFt":1000,"lowerRef":"AGL","remarks":"T36","tma_lbl_1":"TMA YECHEON","tma_lbl_2":"AREA T36","tma_lbl_3":"FL 225","tma_lbl_4":"1 000 AGL","category":"접근관제구역","source":"국토교통부 공역정보 KMZ","cycle":"AIP 2026년 10차"},"geometry":{"type":"MultiPolygon","coordinates":[[[[129.267778,37.119444],[128.681111,37.119444],[128.681111,36.952778],[128.464444,36.802778],[128.297778,36.761111],[128.164444,36.836111],[128.164444,36.486389],[128.397778,36.486389],[128.664444,36.336389],[129.435278,36.336389],[129.435278,36.591666],[129.267778,36.941944],[129.267778,37.119444]]]]}},{"type":"Feature","properties":{"ident":"T22","name":"TMA YECHEON","type":"Terminal Control Area","airspaceClass":null,"upper":"9 500 AMSL","upperFt":9500,"upperRef":"AMSL","lower":"1 000 AGL","lowerFt":1000,"lowerRef":"AGL","remarks":"T22","tma_lbl_1":"TMA YECHEON","tma_lbl_2":"AREA T22","tma_lbl_3":"9 500 AMSL","tma_lbl_4":"1 000 AGL","category":"접근관제구역","source":"국토교통부 공역정보 KMZ","cycle":"AIP 2026년 10차"},"geometry":{"type":"MultiPolygon","coordinates":[[[[128.681111,36.952778],[128.164444,36.836111],[128.297778,36.761111],[128.464444,36.802778],[128.681111,36.952778]]]]}},{"type":"Feature","properties":{"ident":"T20","name":"TMA YECHEON","type":"Terminal Control Area","airspaceClass":null,"upper":"5 500 AMSL","upperFt":5500,"upperRef":"AMSL","lower":"1 000 AGL","lowerFt":1000,"lowerRef":"AGL","remarks":"T20","tma_lbl_1":"TMA YECHEON","tma_lbl_2":"AREA T20","tma_lbl_3":"5 500 AMSL","tma_lbl_4":"1 000 AGL","category":"접근관제구역","source":"국토교통부 공역정보 KMZ","cycle":"AIP 2026년 10차"},"geometry":{"type":"MultiPolygon","coordinates":[[[[128.164444,36.836111],[127.964444,36.749444],[127.847778,36.486389],[128.164444,36.486389],[128.164444,36.836111]]]]}}]}
