{"type":"FeatureCollection","source":"국토교통부 공역정보 KMZ","cycle":"AIP 2026년 10차","features":[{"type":"Feature","properties":{"ident":"CATA 4B","name":"GOCHANG","type":"Other","airspaceClass":null,"upper":"3 500 AMSL","upperFt":3500,"upperRef":"AMSL","lower":"1 000 AGL","lowerFt":1000,"lowerRef":"AGL","remarks":"CATA","category":"훈련구역","source":"국토교통부 공역정보 KMZ","cycle":"AIP 2026년 10차"},"geometry":{"type":"MultiPolygon","coordinates":[[[[126.664722,35.369722],[126.414722,35.169722],[126.664722,35.169722],[126.664722,35.369722]]]]}},{"type":"Feature","properties":{"ident":"CATA 4A","name":"GOCHANG","type":"Other","airspaceClass":null,"upper":"7 000 AMSL","upperFt":7000,"upperRef":"AMSL","lower":"1 000 AGL","lowerFt":1000,"lowerRef":"AGL","remarks":"CATA","category":"훈련구역","source":"국토교통부 공역정보 KMZ","cycle":"AIP 2026년 10차"},"geometry":{"type":"MultiPolygon","coordinates":[[[[126.664722,35.419722],[126.498056,35.419722],[126.248056,35.219722],[126.248056,35.169722],[126.414722,35.169722],[126.664722,35.369722],[126.664722,35.419722]]]]}},{"type":"Feature","properties":{"ident":"CATA 6","name":"JEDONG","type":"Other","airspaceClass":null,"upper":"7 000 AMSL","upperFt":7000,"upperRef":"AMSL","lower":"4 000 AMSL","lowerFt":4000,"lowerRef":"AMSL","remarks":"CATA","category":"훈련구역","source":"국토교통부 공역정보 KMZ","cycle":"AIP 2026년 10차"},"geometry":{"type":"MultiPolygon","coordinates":[[[[126.3,33.25],[126.3,33.248209],[126.3,33.246419],[126.3,33.244628],[126.3,33.242837],[126.3,33.241047],[126.3,33.239256],[126.3,33.237466],[126.3,33.235675],[126.3,33.233884],[126.3,33.232094],[126.3,33.230303],[126.3,33.228512],[126.3,33.226722],[126.3,33.224931],[126.3,33.223141],[126.3,33.22135],[126.3,33.219559],[126.3,33.217769],[126.3,33.215978],[126.3,33.214188],[126.3,33.212397],[126.3,33.210606],[126.3,33.208816],[126.3,33.207025],[126.3,33.205235],[126.3,33.203444],[126.3,33.201653],[126.3,33.199863],[126.3,33.198072],[126.3,33.196281],[126.3,33.194491],[126.3,33.1927],[126.3,33.19091],[126.3,33.189119],[126.3,33.187328],[126.3,33.185538],[126.3,33.183747],[126.3,33.181956],[126.3,33.180166],[126.3,33.178375],[126.3,33.176585],[126.3,33.174794],[126.3,33.173003],[126.3,33.171213],[126.3,33.169422],[126.3,33.167631],[126.3,33.165841],[126.3,33.16405],[126.3,33.16226],[126.3,33.160469],[126.3,33.158678],[126.3,33.156888],[126.3,33.155097],[126.3,33.153306],[126.3,33.151516],[126.3,33.149725],[126.3,33.147935],[126.3,33.146144],[126.3,33.144353],[126.3,33.142563],[126.3,33.140772],[126.3,33.138981],[126.3,33.137191],[126.3,33.1354],[126.3,33.13361],[126.3,33.131819],[126.3,33.130028],[126.3,33.128238],[126.3,33.126447],[126.3,33.124656],[126.3,33.122866],[126.3,33.121075],[126.3,33.119284],[126.3,33.117494],[126.3,33.115703],[126.3,33.113912],[126.3,33.112122],[126.3,33.110331],[126.3,33.108541],[126.3,33.10675],[126.3,33.104959],[126.3,33.103169],[126.3,33.101378],[126.3,33.099587],[126.3,33.097797],[126.3,33.096006],[126.3,33.094215],[126.3,33.092425],[126.3,33.090634],[126.3,33.088843],[126.3,33.087053],[126.3,33.085262],[126.3,33.083471],[126.3,33.081681],[126.3,33.07989],[126.3,33.0781],[126.3,33.076309],[126.3,33.074518],[126.3,33.072728],[126.3,33.070937],[126.3,33.069146],[126.3,33.067356],[126.3,33.065565],[126.3,33.063774],[126.3,33.061984],[126.3,33.060193],[126.3,33.058402],[126.3,33.056612],[126.3,33.054821],[126.3,33.05303],[126.3,33.05124],[126.3,33.049449],[126.3,33.047658],[126.3,33.045868],[126.3,33.044077],[126.3,33.042286],[126.3,33.040496],[126.3,33.038705],[126.3,33.036914],[126.3,33.035124],[126.3,33.033333],[126.302127,33.033335],[126.304255,33.033336],[126.306383,33.033338],[126.30851,33.03334],[126.310638,33.033341],[126.312766,33.033343],[126.314893,33.033344],[126.317021,33.033346],[126.319149,33.033347],[126.321276,33.033348],[126.323404,33.03335],[126.325532,33.033351],[126.327659,33.033352],[126.329787,33.033353],[126.331915,33.033355],[126.334042,33.033356],[126.33617,33.033357],[126.338298,33.033358],[126.340425,33.033359],[126.342553,33.03336],[126.344681,33.033361],[126.346808,33.033362],[126.348936,33.033363],[126.351064,33.033364],[126.353191,33.033364],[126.355319,33.033365],[126.357447,33.033366],[126.359574,33.033367],[126.361702,33.033367],[126.36383,33.033368],[126.365957,33.033369],[126.368085,33.033369],[126.370213,33.03337],[126.372341,33.03337],[126.374468,33.033371],[126.376595,33.033371],[126.378724,33.033371],[126.380851,33.033372],[126.382978,33.033372],[126.385106,33.033372],[126.387234,33.033373],[126.389361,33.033373],[126.391489,33.033373],[126.393617,33.033373],[126.395745,33.033373],[126.397872,33.033373],[126.4,33.033373],[126.402127,33.033373],[126.404256,33.033373],[126.406383,33.033373],[126.40851,33.033373],[126.410638,33.033373],[126.412766,33.033373],[126.414893,33.033372],[126.417021,33.033372],[126.419149,33.033372],[126.421277,33.033371],[126.423404,33.033371],[126.425532,33.033371],[126.427659,33.03337],[126.429787,33.03337],[126.431915,33.033369],[126.434042,33.033369],[126.43617,33.033368],[126.438298,33.033367],[126.440425,33.033367],[126.442553,33.033366],[126.444681,33.033365],[126.446809,33.033364],[126.448936,33.033364],[126.451064,33.033363],[126.453191,33.033362],[126.455319,33.033361],[126.457447,33.03336],[126.459574,33.033359],[126.461702,33.033358],[126.46383,33.033357],[126.465957,33.033356],[126.468085,33.033355],[126.470213,33.033353],[126.472341,33.033352],[126.474468,33.033351],[126.476596,33.03335],[126.478723,33.033348],[126.480851,33.033347],[126.482978,33.033346],[126.485106,33.033344],[126.487234,33.033343],[126.489362,33.033341],[126.491489,33.03334],[126.493617,33.033338],[126.495744,33.033336],[126.497872,33.033335],[126.5,33.033333],[126.5,33.035119],[126.5,33.036905],[126.5,33.03869],[126.5,33.040476],[126.5,33.042262],[126.5,33.044047],[126.5,33.045833],[126.5,33.047619],[126.5,33.049405],[126.5,33.05119],[126.5,33.052976],[126.5,33.054762],[126.5,33.056547],[126.5,33.058333],[126.5,33.060119],[126.5,33.061905],[126.5,33.06369],[126.5,33.065476],[126.5,33.067262],[126.5,33.069047],[126.5,33.070833],[126.5,33.072619],[126.5,33.074405],[126.5,33.07619],[126.5,33.077976],[126.5,33.079762],[126.5,33.081547],[126.5,33.083333],[126.500679,33.085034],[126.501358,33.086735],[126.502037,33.088436],[126.502716,33.090137],[126.503395,33.091837],[126.504074,33.093538],[126.504754,33.095239],[126.505432,33.09694],[126.506112,33.098641],[126.506791,33.100342],[126.50747,33.102043],[126.508149,33.103743],[126.508829,33.105444],[126.509508,33.107145],[126.510187,33.108846],[126.510867,33.110547],[126.511546,33.112248],[126.512226,33.113948],[126.512906,33.115649],[126.513585,33.11735],[126.514264,33.119051],[126.514944,33.120752],[126.515623,33.122452],[126.516303,33.124153],[126.516983,33.125854],[126.517662,33.127555],[126.518342,33.129255],[126.519022,33.130956],[126.519701,33.132657],[126.520381,33.134358],[126.521061,33.136059],[126.521741,33.137759],[126.522421,33.13946],[126.5231,33.141161],[126.52378,33.142862],[126.52446,33.144562],[126.52514,33.146263],[126.52582,33.147964],[126.5265,33.149664],[126.527181,33.151365],[126.527861,33.153066],[126.528541,33.154767],[126.52922,33.156467],[126.529901,33.158168],[126.530581,33.159869],[126.531261,33.161569],[126.531941,33.16327],[126.532621,33.164971],[126.533302,33.166671],[126.533982,33.168372],[126.534662,33.170073],[126.535342,33.171773],[126.536023,33.173474],[126.536703,33.175175],[126.537384,33.176875],[126.538064,33.178576],[126.538745,33.180277],[126.539425,33.181977],[126.540106,33.183678],[126.540786,33.185379],[126.541467,33.187079],[126.542147,33.18878],[126.542828,33.190481],[126.543509,33.192181],[126.544189,33.193882],[126.54487,33.195582],[126.545551,33.197283],[126.546232,33.198984],[126.546913,33.200684],[126.547593,33.202385],[126.548274,33.204085],[126.548955,33.205786],[126.549636,33.207487],[126.550317,33.209187],[126.550997,33.210888],[126.551678,33.212588],[126.552359,33.214289],[126.55304,33.215989],[126.553722,33.21769],[126.554403,33.219391],[126.555084,33.221091],[126.555765,33.222792],[126.556446,33.224492],[126.557128,33.226193],[126.557808,33.227893],[126.55849,33.229594],[126.559171,33.231294],[126.559852,33.232995],[126.560533,33.234695],[126.561215,33.236396],[126.561897,33.238096],[126.562578,33.239797],[126.563259,33.241497],[126.56394,33.243198],[126.564622,33.244898],[126.565303,33.246599],[126.565985,33.248299],[126.566666,33.25],[126.564533,33.250002],[126.5624,33.250004],[126.560266,33.250006],[126.558133,33.250009],[126.556,33.250011],[126.553866,33.250013],[126.551733,33.250015],[126.5496,33.250017],[126.547466,33.250019],[126.545333,33.250021],[126.5432,33.250023],[126.541066,33.250025],[126.538933,33.250026],[126.5368,33.250028],[126.534667,33.25003],[126.532533,33.250032],[126.5304,33.250033],[126.528267,33.250035],[126.526133,33.250037],[126.524,33.250038],[126.521867,33.25004],[126.519733,33.250041],[126.5176,33.250043],[126.515466,33.250044],[126.513333,33.250045],[126.5112,33.250047],[126.509066,33.250048],[126.506933,33.250049],[126.5048,33.250051],[126.502666,33.250052],[126.500534,33.250053],[126.4984,33.250054],[126.496266,33.250055],[126.494134,33.250056],[126.492,33.250057],[126.489866,33.250058],[126.487734,33.250059],[126.4856,33.25006],[126.483467,33.250061],[126.481333,33.250062],[126.4792,33.250063],[126.477067,33.250064],[126.474933,33.250064],[126.4728,33.250065],[126.470666,33.250066],[126.468533,33.250066],[126.4664,33.250067],[126.464266,33.250067],[126.462133,33.250068],[126.46,33.250068],[126.457866,33.250069],[126.455733,33.250069],[126.4536,33.25007],[126.451466,33.25007],[126.449333,33.25007],[126.4472,33.25007],[126.445066,33.250071],[126.442933,33.250071],[126.4408,33.250071],[126.438666,33.250071],[126.436533,33.250071],[126.4344,33.250071],[126.432266,33.250071],[126.430133,33.250071],[126.428,33.250071],[126.425866,33.250071],[126.423733,33.250071],[126.4216,33.250071],[126.419466,33.25007],[126.417333,33.25007],[126.4152,33.25007],[126.413066,33.25007],[126.410933,33.250069],[126.4088,33.250069],[126.406666,33.250068],[126.404533,33.250068],[126.4024,33.250067],[126.400266,33.250067],[126.398134,33.250066],[126.396,33.250066],[126.393866,33.250065],[126.391734,33.250064],[126.3896,33.250064],[126.387467,33.250063],[126.385333,33.250062],[126.3832,33.250061],[126.381067,33.25006],[126.378933,33.250059],[126.3768,33.250058],[126.374667,33.250057],[126.372533,33.250056],[126.3704,33.250055],[126.368266,33.250054],[126.366133,33.250053],[126.364,33.250052],[126.361866,33.250051],[126.359733,33.250049],[126.3576,33.250048],[126.355466,33.250047],[126.353334,33.250045],[126.3512,33.250044],[126.349066,33.250043],[126.346934,33.250041],[126.3448,33.25004],[126.342667,33.250038],[126.340534,33.250037],[126.3384,33.250035],[126.336266,33.250033],[126.334133,33.250032],[126.332,33.25003],[126.329866,33.250028],[126.327733,33.250026],[126.3256,33.250025],[126.323466,33.250023],[126.321333,33.250021],[126.3192,33.250019],[126.317066,33.250017],[126.314933,33.250015],[126.3128,33.250013],[126.310666,33.250011],[126.308533,33.250009],[126.3064,33.250006],[126.304266,33.250004],[126.302133,33.250002],[126.3,33.25]]]]}},{"type":"Feature","properties":{"ident":"CATA 2","name":"JEJU ISLAND","type":"Other","airspaceClass":null,"upper":"FL 420","upperFt":42000,"upperRef":"FL","lower":"6 000 AMSL","lowerFt":6000,"lowerRef":"AMSL","remarks":"CATA","category":"훈련구역","source":"국토교통부 공역정보 KMZ","cycle":"AIP 2026년 10차"},"geometry":{"type":"MultiPolygon","coordinates":[[[[125.831389,34.003055],[125.367235,34.003055],[124.998056,34.003055],[124.998056,33.603272],[124.998056,33.253333],[125.374956,33.253333],[125.831389,33.253333],[125.831389,33.654232],[125.831389,34.003055]]]]}},{"type":"Feature","properties":{"ident":"CATA 3","name":"JEJU ISLAND","type":"Other","airspaceClass":null,"upper":"7 000 AMSL","upperFt":7000,"upperRef":"AMSL","lower":"SFC","lowerFt":0,"lowerRef":"SFC","remarks":"CATA","category":"훈련구역","source":"국토교통부 공역정보 KMZ","cycle":"AIP 2026년 10차"},"geometry":{"type":"MultiPolygon","coordinates":[[[[126.65,33.466666],[126.649327,33.464956],[126.648655,33.463245],[126.647982,33.461534],[126.64731,33.459823],[126.646637,33.458112],[126.645965,33.456401],[126.645292,33.45469],[126.64462,33.452979],[126.643948,33.451269],[126.643276,33.449558],[126.642603,33.447847],[126.641931,33.446136],[126.641258,33.444425],[126.640586,33.442714],[126.639914,33.441003],[126.639242,33.439292],[126.63857,33.437581],[126.637898,33.43587],[126.637225,33.43416],[126.636554,33.432449],[126.635881,33.430738],[126.63521,33.429027],[126.634537,33.427316],[126.633865,33.425605],[126.633193,33.423894],[126.632522,33.422183],[126.63185,33.420472],[126.631178,33.418761],[126.630506,33.41705],[126.629834,33.415339],[126.629162,33.413628],[126.628491,33.411917],[126.627819,33.410206],[126.627148,33.408495],[126.626476,33.406784],[126.625804,33.405073],[126.625132,33.403362],[126.624461,33.401651],[126.623789,33.39994],[126.623118,33.398229],[126.622446,33.396518],[126.621775,33.394807],[126.621103,33.393096],[126.620432,33.391385],[126.61976,33.389674],[126.619089,33.387963],[126.618418,33.386252],[126.617746,33.384541],[126.617075,33.38283],[126.616404,33.381119],[126.615732,33.379408],[126.615061,33.377697],[126.61439,33.375986],[126.613719,33.374274],[126.613048,33.372563],[126.612377,33.370852],[126.611706,33.369141],[126.611035,33.36743],[126.610363,33.365719],[126.609692,33.364008],[126.609021,33.362297],[126.60835,33.360586],[126.60768,33.358875],[126.607009,33.357164],[126.606338,33.355452],[126.605667,33.353741],[126.604996,33.35203],[126.604326,33.350319],[126.603654,33.348608],[126.602984,33.346897],[126.602313,33.345186],[126.601642,33.343474],[126.600972,33.341763],[126.600301,33.340052],[126.599631,33.338341],[126.59896,33.33663],[126.59829,33.334919],[126.597619,33.333208],[126.596948,33.331496],[126.596278,33.329785],[126.595607,33.328074],[126.594937,33.326363],[126.594266,33.324652],[126.593596,33.32294],[126.592926,33.321229],[126.592255,33.319518],[126.591585,33.317807],[126.590915,33.316096],[126.590244,33.314384],[126.589574,33.312673],[126.588904,33.310962],[126.588234,33.309251],[126.587564,33.307539],[126.586894,33.305828],[126.586224,33.304117],[126.585553,33.302406],[126.584883,33.300695],[126.584213,33.298983],[126.583543,33.297272],[126.582873,33.295561],[126.582204,33.293849],[126.581534,33.292138],[126.580864,33.290427],[126.580194,33.288716],[126.579524,33.287004],[126.578854,33.285293],[126.578184,33.283582],[126.577515,33.281871],[126.576845,33.280159],[126.576176,33.278448],[126.575506,33.276737],[126.574836,33.275025],[126.574166,33.273314],[126.573497,33.271603],[126.572827,33.269891],[126.572158,33.26818],[126.571489,33.266469],[126.570819,33.264757],[126.570149,33.263046],[126.56948,33.261335],[126.56881,33.259623],[126.568141,33.257912],[126.567471,33.256201],[126.566802,33.254489],[126.566133,33.252778],[126.565464,33.251067],[126.564794,33.249355],[126.564125,33.247644],[126.563456,33.245932],[126.562787,33.244221],[126.562117,33.24251],[126.561448,33.240798],[126.560779,33.239087],[126.56011,33.237376],[126.559441,33.235664],[126.558772,33.233953],[126.558103,33.232241],[126.557434,33.23053],[126.556765,33.228818],[126.556096,33.227107],[126.555427,33.225396],[126.554759,33.223684],[126.55409,33.221973],[126.553421,33.220261],[126.552752,33.21855],[126.552083,33.216838],[126.551415,33.215127],[126.550746,33.213416],[126.550077,33.211704],[126.549408,33.209993],[126.54874,33.208281],[126.548072,33.20657],[126.547403,33.204858],[126.546734,33.203147],[126.546066,33.201435],[126.545397,33.199724],[126.544729,33.198012],[126.54406,33.196301],[126.543392,33.194589],[126.542723,33.192878],[126.542055,33.191166],[126.541387,33.189455],[126.540718,33.187743],[126.54005,33.186032],[126.539382,33.18432],[126.538714,33.182609],[126.538045,33.180897],[126.537377,33.179186],[126.536709,33.177474],[126.536041,33.175762],[126.535373,33.174051],[126.534705,33.172339],[126.534037,33.170628],[126.533368,33.168916],[126.5327,33.167205],[126.532032,33.165493],[126.531365,33.163782],[126.530697,33.16207],[126.530029,33.160358],[126.529361,33.158647],[126.528693,33.156935],[126.528025,33.155224],[126.527357,33.153512],[126.52669,33.1518],[126.526022,33.150089],[126.525354,33.148377],[126.524686,33.146666],[126.524019,33.144954],[126.523352,33.143242],[126.522683,33.141531],[126.522016,33.139819],[126.521348,33.138107],[126.520681,33.136396],[126.520013,33.134684],[126.519346,33.132973],[126.518678,33.131261],[126.518011,33.129549],[126.517343,33.127838],[126.516676,33.126126],[126.516009,33.124414],[126.515342,33.122703],[126.514674,33.120991],[126.514007,33.119279],[126.513339,33.117568],[126.512672,33.115856],[126.512006,33.114144],[126.511338,33.112433],[126.510671,33.110721],[126.510004,33.109009],[126.509336,33.107297],[126.508669,33.105586],[126.508003,33.103874],[126.507335,33.102162],[126.506668,33.100451],[126.506001,33.098739],[126.505334,33.097027],[126.504667,33.095315],[126.504001,33.093604],[126.503334,33.091892],[126.502667,33.09018],[126.502,33.088468],[126.501334,33.086757],[126.500666,33.085045],[126.5,33.083333],[126.50214,33.083335],[126.504281,33.083337],[126.506422,33.083339],[126.508562,33.083341],[126.510704,33.083343],[126.512844,33.083344],[126.514984,33.083346],[126.517125,33.083348],[126.519266,33.08335],[126.521406,33.083351],[126.523547,33.083353],[126.525688,33.083354],[126.527828,33.083356],[126.52997,33.083358],[126.53211,33.083359],[126.53425,33.08336],[126.536391,33.083362],[126.538532,33.083363],[126.540673,33.083365],[126.542813,33.083366],[126.544954,33.083367],[126.547095,33.083368],[126.549235,33.083369],[126.551376,33.083371],[126.553517,33.083372],[126.555657,33.083373],[126.557798,33.083374],[126.559939,33.083375],[126.562079,33.083376],[126.56422,33.083377],[126.566361,33.083378],[126.568501,33.083378],[126.570642,33.083379],[126.572783,33.08338],[126.574923,33.083381],[126.577064,33.083381],[126.579205,33.083382],[126.581345,33.083383],[126.583486,33.083383],[126.585627,33.083384],[126.587767,33.083384],[126.589908,33.083385],[126.592049,33.083385],[126.594189,33.083386],[126.59633,33.083386],[126.598471,33.083386],[126.600611,33.083387],[126.602752,33.083387],[126.604893,33.083387],[126.607033,33.083387],[126.609174,33.083387],[126.611315,33.083388],[126.613456,33.083388],[126.615596,33.083388],[126.617737,33.083388],[126.619877,33.083388],[126.622018,33.083388],[126.624159,33.083387],[126.6263,33.083387],[126.62844,33.083387],[126.630581,33.083387],[126.632721,33.083387],[126.634862,33.083386],[126.637003,33.083386],[126.639143,33.083386],[126.641284,33.083385],[126.643425,33.083385],[126.645566,33.083384],[126.647706,33.083384],[126.649847,33.083383],[126.651988,33.083383],[126.654128,33.083382],[126.656269,33.083381],[126.65841,33.083381],[126.66055,33.08338],[126.662691,33.083379],[126.664832,33.083378],[126.666972,33.083378],[126.669113,33.083377],[126.671254,33.083376],[126.673395,33.083375],[126.675535,33.083374],[126.677676,33.083373],[126.679816,33.083372],[126.681957,33.083371],[126.684098,33.083369],[126.686238,33.083368],[126.688379,33.083367],[126.69052,33.083366],[126.692661,33.083365],[126.694801,33.083363],[126.696942,33.083362],[126.699082,33.08336],[126.701223,33.083359],[126.703364,33.083358],[126.705505,33.083356],[126.707645,33.083354],[126.709786,33.083353],[126.711926,33.083351],[126.714067,33.08335],[126.716208,33.083348],[126.718348,33.083346],[126.720489,33.083344],[126.72263,33.083343],[126.724771,33.083341],[126.726911,33.083339],[126.729052,33.083337],[126.731192,33.083335],[126.733334,33.083333],[126.733334,33.081547],[126.733334,33.079762],[126.733334,33.077976],[126.733334,33.07619],[126.733334,33.074405],[126.733334,33.072619],[126.733334,33.070833],[126.733334,33.069047],[126.733334,33.067262],[126.733334,33.065476],[126.733334,33.06369],[126.733334,33.061905],[126.733334,33.060119],[126.733334,33.058333],[126.733334,33.056547],[126.733334,33.054762],[126.733334,33.052976],[126.733334,33.05119],[126.733334,33.049405],[126.733334,33.047619],[126.733334,33.045833],[126.733334,33.044047],[126.733334,33.042262],[126.733334,33.040476],[126.733334,33.03869],[126.733334,33.036905],[126.733334,33.035119],[126.733334,33.033333],[126.735466,33.033335],[126.7376,33.033338],[126.739733,33.03334],[126.741866,33.033342],[126.744,33.033344],[126.746133,33.033346],[126.748266,33.033348],[126.7504,33.03335],[126.752533,33.033352],[126.754666,33.033354],[126.7568,33.033356],[126.758933,33.033358],[126.761066,33.03336],[126.7632,33.033361],[126.765333,33.033363],[126.767466,33.033365],[126.7696,33.033367],[126.771733,33.033368],[126.773866,33.03337],[126.776,33.033371],[126.778133,33.033373],[126.780266,33.033374],[126.7824,33.033376],[126.784533,33.033377],[126.786666,33.033379],[126.7888,33.03338],[126.790933,33.033381],[126.793066,33.033383],[126.7952,33.033384],[126.797333,33.033385],[126.799466,33.033386],[126.8016,33.033387],[126.803733,33.033388],[126.805866,33.03339],[126.808,33.033391],[126.810133,33.033392],[126.812267,33.033392],[126.8144,33.033393],[126.816534,33.033394],[126.818666,33.033395],[126.8208,33.033396],[126.822934,33.033397],[126.825066,33.033397],[126.8272,33.033398],[126.829334,33.033399],[126.831466,33.033399],[126.8336,33.0334],[126.835733,33.0334],[126.837866,33.033401],[126.84,33.033401],[126.842133,33.033402],[126.844266,33.033402],[126.8464,33.033403],[126.848533,33.033403],[126.850667,33.033403],[126.8528,33.033404],[126.854933,33.033404],[126.857067,33.033404],[126.8592,33.033404],[126.861333,33.033404],[126.863467,33.033404],[126.8656,33.033404],[126.867733,33.033404],[126.869866,33.033404],[126.872,33.033404],[126.874133,33.033404],[126.876266,33.033404],[126.8784,33.033404],[126.880533,33.033404],[126.882666,33.033403],[126.8848,33.033403],[126.886933,33.033403],[126.889066,33.033402],[126.8912,33.033402],[126.893333,33.033401],[126.895466,33.033401],[126.8976,33.0334],[126.899733,33.0334],[126.901866,33.033399],[126.904,33.033399],[126.906133,33.033398],[126.908266,33.033397],[126.9104,33.033397],[126.912533,33.033396],[126.914666,33.033395],[126.9168,33.033394],[126.918933,33.033393],[126.921066,33.033392],[126.9232,33.033392],[126.925333,33.033391],[126.927466,33.03339],[126.9296,33.033388],[126.931734,33.033387],[126.933866,33.033386],[126.936,33.033385],[126.938133,33.033384],[126.940266,33.033383],[126.9424,33.033381],[126.944533,33.03338],[126.946667,33.033379],[126.9488,33.033377],[126.950933,33.033376],[126.953067,33.033374],[126.9552,33.033373],[126.957333,33.033371],[126.959467,33.03337],[126.9616,33.033368],[126.963734,33.033367],[126.965866,33.033365],[126.968,33.033363],[126.970134,33.033361],[126.972266,33.03336],[126.9744,33.033358],[126.976534,33.033356],[126.978666,33.033354],[126.9808,33.033352],[126.982933,33.03335],[126.985066,33.033348],[126.9872,33.033346],[126.989333,33.033344],[126.991466,33.033342],[126.9936,33.03334],[126.995733,33.033338],[126.997867,33.033335],[127.0,33.033333],[127.001368,33.034703],[127.002736,33.036074],[127.004105,33.037444],[127.005473,33.038815],[127.006842,33.040185],[127.00821,33.041555],[127.009579,33.042926],[127.010948,33.044296],[127.012316,33.045666],[127.013685,33.047037],[127.015054,33.048407],[127.016423,33.049777],[127.017791,33.051147],[127.01916,33.052518],[127.020529,33.053888],[127.021898,33.055258],[127.023268,33.056628],[127.024636,33.057998],[127.026005,33.059368],[127.027375,33.060738],[127.028744,33.062109],[127.030113,33.063479],[127.031482,33.064849],[127.032852,33.066219],[127.034221,33.067589],[127.03559,33.068959],[127.03696,33.070329],[127.038329,33.071699],[127.039699,33.073069],[127.041068,33.074439],[127.042438,33.075809],[127.043808,33.077179],[127.045177,33.078549],[127.046547,33.079919],[127.047917,33.081288],[127.049287,33.082658],[127.050656,33.084028],[127.052026,33.085398],[127.053397,33.086768],[127.054766,33.088138],[127.056136,33.089508],[127.057506,33.090877],[127.058876,33.092247],[127.060247,33.093617],[127.061617,33.094987],[127.062988,33.096356],[127.064357,33.097726],[127.065728,33.099096],[127.067098,33.100465],[127.068468,33.101835],[127.069839,33.103205],[127.071209,33.104574],[127.07258,33.105944],[127.073951,33.107314],[127.075322,33.108683],[127.076692,33.110053],[127.078063,33.111422],[127.079433,33.112792],[127.080804,33.114161],[127.082175,33.115531],[127.083546,33.1169],[127.084917,33.11827],[127.086288,33.119639],[127.087659,33.121009],[127.08903,33.122378],[127.090401,33.123748],[127.091772,33.125117],[127.093143,33.126486],[127.094514,33.127856],[127.095886,33.129225],[127.097257,33.130594],[127.098628,33.131964],[127.1,33.133333],[127.098877,33.134864],[127.097753,33.136395],[127.09663,33.137926],[127.095507,33.139457],[127.094383,33.140987],[127.09326,33.142518],[127.092137,33.144049],[127.091013,33.14558],[127.08989,33.147111],[127.088766,33.148641],[127.087643,33.150172],[127.086519,33.151703],[127.085395,33.153234],[127.084272,33.154764],[127.083148,33.156295],[127.082025,33.157826],[127.0809,33.159357],[127.079777,33.160887],[127.078653,33.162418],[127.077529,33.163949],[127.076405,33.165479],[127.075281,33.16701],[127.074157,33.168541],[127.073033,33.170071],[127.071909,33.171602],[127.070785,33.173133],[127.06966,33.174663],[127.068536,33.176194],[127.067412,33.177724],[127.066288,33.179255],[127.065163,33.180785],[127.064039,33.182316],[127.062914,33.183847],[127.06179,33.185377],[127.060665,33.186908],[127.059541,33.188438],[127.058416,33.189969],[127.057292,33.191499],[127.056167,33.19303],[127.055042,33.19456],[127.053918,33.196091],[127.052793,33.197621],[127.051668,33.199151],[127.050543,33.200682],[127.049418,33.202212],[127.048293,33.203743],[127.047168,33.205273],[127.046043,33.206803],[127.044918,33.208334],[127.043794,33.209864],[127.042669,33.211395],[127.041543,33.212925],[127.040418,33.214455],[127.039293,33.215986],[127.038168,33.217516],[127.037042,33.219046],[127.035917,33.220576],[127.034791,33.222107],[127.033666,33.223637],[127.03254,33.225167],[127.031415,33.226697],[127.030289,33.228228],[127.029164,33.229758],[127.028038,33.231288],[127.026912,33.232818],[127.025786,33.234349],[127.024661,33.235879],[127.023535,33.237409],[127.022409,33.238939],[127.021283,33.240469],[127.020157,33.241999],[127.019031,33.243529],[127.017905,33.24506],[127.016779,33.24659],[127.015653,33.24812],[127.014527,33.24965],[127.013402,33.25118],[127.012275,33.25271],[127.011149,33.25424],[127.010023,33.25577],[127.008897,33.2573],[127.00777,33.25883],[127.006643,33.26036],[127.005517,33.26189],[127.00439,33.26342],[127.003264,33.26495],[127.002137,33.26648],[127.001011,33.26801],[126.999884,33.26954],[126.998758,33.27107],[126.997631,33.2726],[126.996504,33.27413],[126.995377,33.27566],[126.994251,33.27719],[126.993124,33.27872],[126.991997,33.280249],[126.99087,33.281779],[126.989743,33.283309],[126.988616,33.284839],[126.987489,33.286369],[126.986362,33.287899],[126.985235,33.289428],[126.984107,33.290958],[126.98298,33.292488],[126.981853,33.294018],[126.980726,33.295548],[126.979598,33.297077],[126.978471,33.298607],[126.977344,33.300137],[126.976217,33.301667],[126.975089,33.303196],[126.973962,33.304726],[126.972834,33.306256],[126.971706,33.307785],[126.970579,33.309315],[126.969451,33.310845],[126.968323,33.312374],[126.967195,33.313904],[126.966067,33.315434],[126.96494,33.316963],[126.963812,33.318493],[126.962684,33.320023],[126.961556,33.321552],[126.960428,33.323082],[126.9593,33.324611],[126.958172,33.326141],[126.957044,33.32767],[126.955915,33.3292],[126.954787,33.330729],[126.953659,33.332259],[126.952531,33.333788],[126.951403,33.335318],[126.950275,33.336847],[126.949146,33.338377],[126.948018,33.339906],[126.946889,33.341436],[126.94576,33.342965],[126.944632,33.344495],[126.943503,33.346024],[126.942374,33.347554],[126.941246,33.349083],[126.940117,33.350612],[126.938988,33.352142],[126.93786,33.353671],[126.936731,33.3552],[126.935602,33.35673],[126.934473,33.358259],[126.933345,33.359788],[126.932215,33.361318],[126.931087,33.362847],[126.929957,33.364376],[126.928828,33.365906],[126.927699,33.367435],[126.92657,33.368964],[126.92544,33.370493],[126.924311,33.372023],[126.923182,33.373552],[126.922052,33.375081],[126.920924,33.37661],[126.919794,33.37814],[126.918665,33.379669],[126.917535,33.381198],[126.916405,33.382727],[126.915276,33.384256],[126.914146,33.385785],[126.913016,33.387314],[126.911887,33.388844],[126.910757,33.390373],[126.909627,33.391902],[126.908497,33.393431],[126.907368,33.39496],[126.906238,33.396489],[126.905108,33.398018],[126.903978,33.399547],[126.902848,33.401076],[126.901718,33.402605],[126.900588,33.404134],[126.899457,33.405663],[126.898327,33.407192],[126.897197,33.408721],[126.896067,33.41025],[126.894937,33.411779],[126.893806,33.413308],[126.892676,33.414837],[126.891545,33.416366],[126.890415,33.417895],[126.889284,33.419424],[126.888154,33.420953],[126.887023,33.422482],[126.885893,33.42401],[126.884762,33.425539],[126.883632,33.427068],[126.882501,33.428597],[126.88137,33.430126],[126.880239,33.431655],[126.879108,33.433184],[126.877977,33.434712],[126.876846,33.436241],[126.875716,33.43777],[126.874585,33.439299],[126.873453,33.440827],[126.872322,33.442356],[126.871191,33.443885],[126.87006,33.445414],[126.868929,33.446942],[126.867798,33.448471],[126.866666,33.45],[126.864543,33.450165],[126.862419,33.45033],[126.860295,33.450495],[126.858171,33.45066],[126.856047,33.450826],[126.853924,33.450991],[126.8518,33.451156],[126.849676,33.451321],[126.847552,33.451486],[126.845428,33.45165],[126.843304,33.451815],[126.841181,33.45198],[126.839057,33.452145],[126.836933,33.45231],[126.834809,33.452474],[126.832685,33.452639],[126.830561,33.452804],[126.828437,33.452968],[126.826313,33.453133],[126.82419,33.453298],[126.822065,33.453462],[126.819941,33.453627],[126.817817,33.453791],[126.815693,33.453955],[126.81357,33.45412],[126.811446,33.454284],[126.809322,33.454448],[126.807198,33.454613],[126.805074,33.454777],[126.80295,33.454941],[126.800826,33.455105],[126.798702,33.455269],[126.796577,33.455433],[126.794453,33.455597],[126.792329,33.455761],[126.790205,33.455925],[126.788082,33.456089],[126.785957,33.456253],[126.783833,33.456417],[126.781709,33.456581],[126.779585,33.456745],[126.777461,33.456908],[126.775337,33.457072],[126.773213,33.457236],[126.771088,33.457399],[126.768964,33.457563],[126.76684,33.457727],[126.764716,33.45789],[126.762592,33.458054],[126.760468,33.458217],[126.758343,33.45838],[126.756219,33.458544],[126.754095,33.458707],[126.751971,33.45887],[126.749847,33.459034],[126.747722,33.459197],[126.745598,33.45936],[126.743474,33.459523],[126.74135,33.459686],[126.739226,33.45985],[126.737101,33.460013],[126.734977,33.460176],[126.732853,33.460339],[126.730728,33.460502],[126.728605,33.460664],[126.72648,33.460827],[126.724355,33.46099],[126.722231,33.461153],[126.720107,33.461316],[126.717983,33.461478],[126.715858,33.461641],[126.713734,33.461804],[126.711609,33.461966],[126.709485,33.462129],[126.707361,33.462292],[126.705236,33.462454],[126.703112,33.462616],[126.700988,33.462779],[126.698863,33.462941],[126.696739,33.463104],[126.694614,33.463266],[126.69249,33.463428],[126.690365,33.463591],[126.688241,33.463753],[126.686117,33.463915],[126.683992,33.464077],[126.681868,33.464239],[126.679744,33.464401],[126.677619,33.464563],[126.675494,33.464725],[126.67337,33.464887],[126.671245,33.465049],[126.669121,33.465211],[126.666996,33.465373],[126.664872,33.465535],[126.662747,33.465697],[126.660623,33.465858],[126.658498,33.46602],[126.656374,33.466182],[126.654249,33.466343],[126.652124,33.466505],[126.65,33.466666]]]]}},{"type":"Feature","properties":{"ident":"CATA 7H","name":"ULJIN","type":"Other","airspaceClass":null,"upper":"5 000 AMSL","upperFt":5000,"upperRef":"AMSL","lower":"2 500 AGL","lowerFt":2500,"lowerRef":"AGL","remarks":"CATA","category":"훈련구역","source":"국토교통부 공역정보 KMZ","cycle":"AIP 2026년 10차"},"geometry":{"type":"MultiPolygon","coordinates":[[[[129.435278,36.833333],[129.435278,36.5],[129.847778,36.5],[129.847778,36.833333],[129.435278,36.833333]]]]}},{"type":"Feature","properties":{"ident":"CATA 7L","name":"ULJIN","type":"Other","airspaceClass":null,"upper":"2 500 AGL","upperFt":2500,"upperRef":"AGL","lower":"SFC","lowerFt":0,"lowerRef":"SFC","remarks":"CATA","category":"훈련구역","source":"국토교통부 공역정보 KMZ","cycle":"AIP 2026년 10차"},"geometry":{"type":"MultiPolygon","coordinates":[[[[129.435278,36.833333],[129.435278,36.5],[129.847778,36.5],[129.847778,36.833333],[129.435278,36.833333]]]]}},{"type":"Feature","properties":{"ident":"CATA 1","name":"ULLEUNG ISLAND","type":"Other","airspaceClass":null,"upper":"FL 420","upperFt":42000,"upperRef":"FL","lower":"8 000 AMSL","lowerFt":8000,"lowerRef":"AMSL","remarks":"CATA","category":"훈련구역","source":"국토교통부 공역정보 KMZ","cycle":"AIP 2026년 10차"},"geometry":{"type":"MultiPolygon","coordinates":[[[[131.185556,38.4],[130.166667,38.417222],[130.166667,37.783333],[131.183333,38.233333],[131.185556,38.4]]]]}},{"type":"Feature","properties":{"ident":"CATA 5","name":"YEOUNGGWANG","type":"Other","airspaceClass":null,"upper":"7 000 AMSL","upperFt":7000,"upperRef":"AMSL","lower":"1 000 AGL","lowerFt":1000,"lowerRef":"AGL","remarks":"CATA","category":"훈련구역","source":"국토교통부 공역정보 KMZ","cycle":"AIP 2026년 10차"},"geometry":{"type":"MultiPolygon","coordinates":[[[[126.331389,35.503055],[125.998056,35.503055],[125.998056,35.303055],[126.331389,35.303055],[126.331389,35.503055]]]]}}]}
